<?xml version='1.0' encoding='utf-8'?>
<gpx version="1.1" creator="Custom Script">
  <metadata>
    <time>2025-08-11T14:25:15.841422</time>
  </metadata>
  <trk>
    <name>Lane_0</name>
    <trkseg>
      <trkpt lat="53.582731" lon="10.055326">
        <name>Point_Lane_0_0</name>
      </trkpt>
      <trkpt lat="53.582755" lon="10.055306">
        <name>Point_Lane_0_1</name>
      </trkpt>
      <trkpt lat="53.582778" lon="10.055284">
        <name>Point_Lane_0_2</name>
      </trkpt>
      <trkpt lat="53.582801" lon="10.055260">
        <name>Point_Lane_0_3</name>
      </trkpt>
      <trkpt lat="53.582823" lon="10.055236">
        <name>Point_Lane_0_4</name>
      </trkpt>
      <trkpt lat="53.582845" lon="10.055212">
        <name>Point_Lane_0_5</name>
      </trkpt>
      <trkpt lat="53.582868" lon="10.055188">
        <name>Point_Lane_0_6</name>
      </trkpt>
      <trkpt lat="53.582891" lon="10.055167">
        <name>Point_Lane_0_7</name>
      </trkpt>
      <trkpt lat="53.582915" lon="10.055148">
        <name>Point_Lane_0_8</name>
      </trkpt>
      <trkpt lat="53.582940" lon="10.055131">
        <name>Point_Lane_0_9</name>
      </trkpt>
    </trkseg>
  </trk>
  <trk>
    <name>Lane_1</name>
    <trkseg>
      <trkpt lat="53.582218" lon="10.055916">
        <name>Point_Lane_1_0</name>
      </trkpt>
      <trkpt lat="53.582247" lon="10.055879">
        <name>Point_Lane_1_1</name>
      </trkpt>
      <trkpt lat="53.582277" lon="10.055843">
        <name>Point_Lane_1_2</name>
      </trkpt>
      <trkpt lat="53.582308" lon="10.055808">
        <name>Point_Lane_1_3</name>
      </trkpt>
      <trkpt lat="53.582338" lon="10.055774">
        <name>Point_Lane_1_4</name>
      </trkpt>
      <trkpt lat="53.582369" lon="10.055740">
        <name>Point_Lane_1_5</name>
      </trkpt>
      <trkpt lat="53.582399" lon="10.055705">
        <name>Point_Lane_1_6</name>
      </trkpt>
      <trkpt lat="53.582429" lon="10.055667">
        <name>Point_Lane_1_7</name>
      </trkpt>
      <trkpt lat="53.582457" lon="10.055628">
        <name>Point_Lane_1_8</name>
      </trkpt>
      <trkpt lat="53.582484" lon="10.055586">
        <name>Point_Lane_1_9</name>
      </trkpt>
    </trkseg>
  </trk>
  <trk>
    <name>Lane_2</name>
    <trkseg>
      <trkpt lat="53.582478" lon="10.055317">
        <name>Point_Lane_2_0</name>
      </trkpt>
      <trkpt lat="53.582464" lon="10.055291">
        <name>Point_Lane_2_1</name>
      </trkpt>
      <trkpt lat="53.582450" lon="10.055264">
        <name>Point_Lane_2_2</name>
      </trkpt>
      <trkpt lat="53.582437" lon="10.055237">
        <name>Point_Lane_2_3</name>
      </trkpt>
      <trkpt lat="53.582423" lon="10.055209">
        <name>Point_Lane_2_4</name>
      </trkpt>
      <trkpt lat="53.582410" lon="10.055182">
        <name>Point_Lane_2_5</name>
      </trkpt>
      <trkpt lat="53.582396" lon="10.055155">
        <name>Point_Lane_2_6</name>
      </trkpt>
      <trkpt lat="53.582382" lon="10.055129">
        <name>Point_Lane_2_7</name>
      </trkpt>
      <trkpt lat="53.582366" lon="10.055105">
        <name>Point_Lane_2_8</name>
      </trkpt>
      <trkpt lat="53.582350" lon="10.055082">
        <name>Point_Lane_2_9</name>
      </trkpt>
    </trkseg>
  </trk>
  <trk>
    <name>Lane_3</name>
    <trkseg>
      <trkpt lat="53.582494" lon="10.055692">
        <name>Point_Lane_3_0</name>
      </trkpt>
      <trkpt lat="53.582467" lon="10.055723">
        <name>Point_Lane_3_1</name>
      </trkpt>
      <trkpt lat="53.582439" lon="10.055755">
        <name>Point_Lane_3_2</name>
      </trkpt>
      <trkpt lat="53.582412" lon="10.055787">
        <name>Point_Lane_3_3</name>
      </trkpt>
      <trkpt lat="53.582384" lon="10.055818">
        <name>Point_Lane_3_4</name>
      </trkpt>
      <trkpt lat="53.582357" lon="10.055850">
        <name>Point_Lane_3_5</name>
      </trkpt>
      <trkpt lat="53.582330" lon="10.055882">
        <name>Point_Lane_3_6</name>
      </trkpt>
      <trkpt lat="53.582302" lon="10.055914">
        <name>Point_Lane_3_7</name>
      </trkpt>
      <trkpt lat="53.582275" lon="10.055946">
        <name>Point_Lane_3_8</name>
      </trkpt>
      <trkpt lat="53.582248" lon="10.055978">
        <name>Point_Lane_3_9</name>
      </trkpt>
    </trkseg>
  </trk>
  <trk>
    <name>Lane_4</name>
    <trkseg>
      <trkpt lat="53.582987" lon="10.055183">
        <name>Point_Lane_4_0</name>
      </trkpt>
      <trkpt lat="53.582956" lon="10.055205">
        <name>Point_Lane_4_1</name>
      </trkpt>
      <trkpt lat="53.582926" lon="10.055229">
        <name>Point_Lane_4_2</name>
      </trkpt>
      <trkpt lat="53.582897" lon="10.055256">
        <name>Point_Lane_4_3</name>
      </trkpt>
      <trkpt lat="53.582868" lon="10.055286">
        <name>Point_Lane_4_4</name>
      </trkpt>
      <trkpt lat="53.582840" lon="10.055316">
        <name>Point_Lane_4_5</name>
      </trkpt>
      <trkpt lat="53.582812" lon="10.055345">
        <name>Point_Lane_4_6</name>
      </trkpt>
      <trkpt lat="53.582783" lon="10.055373">
        <name>Point_Lane_4_7</name>
      </trkpt>
      <trkpt lat="53.582753" lon="10.055398">
        <name>Point_Lane_4_8</name>
      </trkpt>
      <trkpt lat="53.582722" lon="10.055421">
        <name>Point_Lane_4_9</name>
      </trkpt>
    </trkseg>
  </trk>
  <trk>
    <name>Lane_5</name>
    <trkseg>
      <trkpt lat="53.582394" lon="10.055001">
        <name>Point_Lane_5_0</name>
      </trkpt>
      <trkpt lat="53.582410" lon="10.055037">
        <name>Point_Lane_5_1</name>
      </trkpt>
      <trkpt lat="53.582426" lon="10.055073">
        <name>Point_Lane_5_2</name>
      </trkpt>
      <trkpt lat="53.582443" lon="10.055109">
        <name>Point_Lane_5_3</name>
      </trkpt>
      <trkpt lat="53.582460" lon="10.055143">
        <name>Point_Lane_5_4</name>
      </trkpt>
      <trkpt lat="53.582478" lon="10.055178">
        <name>Point_Lane_5_5</name>
      </trkpt>
      <trkpt lat="53.582495" lon="10.055213">
        <name>Point_Lane_5_6</name>
      </trkpt>
      <trkpt lat="53.582511" lon="10.055249">
        <name>Point_Lane_5_7</name>
      </trkpt>
      <trkpt lat="53.582526" lon="10.055287">
        <name>Point_Lane_5_8</name>
      </trkpt>
      <trkpt lat="53.582541" lon="10.055325">
        <name>Point_Lane_5_9</name>
      </trkpt>
    </trkseg>
  </trk>
  <trk>
    <name>Lane_6</name>
    <trkseg>
      <trkpt lat="53.582813" lon="10.055876">
        <name>Point_Lane_6_0</name>
      </trkpt>
      <trkpt lat="53.582805" lon="10.055853">
        <name>Point_Lane_6_1</name>
      </trkpt>
      <trkpt lat="53.582796" lon="10.055832">
        <name>Point_Lane_6_2</name>
      </trkpt>
      <trkpt lat="53.582786" lon="10.055811">
        <name>Point_Lane_6_3</name>
      </trkpt>
      <trkpt lat="53.582775" lon="10.055792">
        <name>Point_Lane_6_4</name>
      </trkpt>
      <trkpt lat="53.582764" lon="10.055772">
        <name>Point_Lane_6_5</name>
      </trkpt>
      <trkpt lat="53.582754" lon="10.055752">
        <name>Point_Lane_6_6</name>
      </trkpt>
      <trkpt lat="53.582745" lon="10.055730">
        <name>Point_Lane_6_7</name>
      </trkpt>
      <trkpt lat="53.582737" lon="10.055706">
        <name>Point_Lane_6_8</name>
      </trkpt>
      <trkpt lat="53.582731" lon="10.055682">
        <name>Point_Lane_6_9</name>
      </trkpt>
    </trkseg>
  </trk>
  <trk>
    <name>Lane_7</name>
    <trkseg>
      <trkpt lat="53.582656" lon="10.055722">
        <name>Point_Lane_7_0</name>
      </trkpt>
      <trkpt lat="53.582673" lon="10.055743">
        <name>Point_Lane_7_1</name>
      </trkpt>
      <trkpt lat="53.582689" lon="10.055765">
        <name>Point_Lane_7_2</name>
      </trkpt>
      <trkpt lat="53.582703" lon="10.055790">
        <name>Point_Lane_7_3</name>
      </trkpt>
      <trkpt lat="53.582717" lon="10.055816">
        <name>Point_Lane_7_4</name>
      </trkpt>
      <trkpt lat="53.582730" lon="10.055843">
        <name>Point_Lane_7_5</name>
      </trkpt>
      <trkpt lat="53.582743" lon="10.055870">
        <name>Point_Lane_7_6</name>
      </trkpt>
      <trkpt lat="53.582756" lon="10.055896">
        <name>Point_Lane_7_7</name>
      </trkpt>
      <trkpt lat="53.582770" lon="10.055922">
        <name>Point_Lane_7_8</name>
      </trkpt>
      <trkpt lat="53.582785" lon="10.055947">
        <name>Point_Lane_7_9</name>
      </trkpt>
    </trkseg>
  </trk>
</gpx>