<?xml version='1.0' encoding='utf-8'?>
<gpx version="1.1" creator="Custom Script">
  <metadata>
    <time>2025-08-11T14:25:04.492575</time>
  </metadata>
  <trk>
    <name>Lane_0</name>
    <trkseg>
      <trkpt lat="53.562942" lon="9.929213">
        <name>Point_Lane_0_0</name>
      </trkpt>
      <trkpt lat="53.562984" lon="9.929228">
        <name>Point_Lane_0_1</name>
      </trkpt>
      <trkpt lat="53.563027" lon="9.929243">
        <name>Point_Lane_0_2</name>
      </trkpt>
      <trkpt lat="53.563070" lon="9.929256">
        <name>Point_Lane_0_3</name>
      </trkpt>
      <trkpt lat="53.563113" lon="9.929268">
        <name>Point_Lane_0_4</name>
      </trkpt>
      <trkpt lat="53.563156" lon="9.929279">
        <name>Point_Lane_0_5</name>
      </trkpt>
      <trkpt lat="53.563199" lon="9.929289">
        <name>Point_Lane_0_6</name>
      </trkpt>
      <trkpt lat="53.563243" lon="9.929298">
        <name>Point_Lane_0_7</name>
      </trkpt>
      <trkpt lat="53.563286" lon="9.929306">
        <name>Point_Lane_0_8</name>
      </trkpt>
      <trkpt lat="53.563329" lon="9.929314">
        <name>Point_Lane_0_9</name>
      </trkpt>
    </trkseg>
  </trk>
  <trk>
    <name>Lane_1</name>
    <trkseg>
      <trkpt lat="53.563319" lon="9.929408">
        <name>Point_Lane_1_0</name>
      </trkpt>
      <trkpt lat="53.563278" lon="9.929389">
        <name>Point_Lane_1_1</name>
      </trkpt>
      <trkpt lat="53.563237" lon="9.929374">
        <name>Point_Lane_1_2</name>
      </trkpt>
      <trkpt lat="53.563195" lon="9.929365">
        <name>Point_Lane_1_3</name>
      </trkpt>
      <trkpt lat="53.563153" lon="9.929359">
        <name>Point_Lane_1_4</name>
      </trkpt>
      <trkpt lat="53.563111" lon="9.929353">
        <name>Point_Lane_1_5</name>
      </trkpt>
      <trkpt lat="53.563069" lon="9.929346">
        <name>Point_Lane_1_6</name>
      </trkpt>
      <trkpt lat="53.563027" lon="9.929335">
        <name>Point_Lane_1_7</name>
      </trkpt>
      <trkpt lat="53.562986" lon="9.929319">
        <name>Point_Lane_1_8</name>
      </trkpt>
      <trkpt lat="53.562946" lon="9.929298">
        <name>Point_Lane_1_9</name>
      </trkpt>
    </trkseg>
  </trk>
  <trk>
    <name>Lane_2</name>
    <trkseg>
      <trkpt lat="53.562941" lon="9.929325">
        <name>Point_Lane_2_0</name>
      </trkpt>
      <trkpt lat="53.562984" lon="9.929328">
        <name>Point_Lane_2_1</name>
      </trkpt>
      <trkpt lat="53.563026" lon="9.929333">
        <name>Point_Lane_2_2</name>
      </trkpt>
      <trkpt lat="53.563069" lon="9.929339">
        <name>Point_Lane_2_3</name>
      </trkpt>
      <trkpt lat="53.563112" lon="9.929346">
        <name>Point_Lane_2_4</name>
      </trkpt>
      <trkpt lat="53.563154" lon="9.929355">
        <name>Point_Lane_2_5</name>
      </trkpt>
      <trkpt lat="53.563197" lon="9.929365">
        <name>Point_Lane_2_6</name>
      </trkpt>
      <trkpt lat="53.563239" lon="9.929376">
        <name>Point_Lane_2_7</name>
      </trkpt>
      <trkpt lat="53.563281" lon="9.929389">
        <name>Point_Lane_2_8</name>
      </trkpt>
      <trkpt lat="53.563323" lon="9.929402">
        <name>Point_Lane_2_9</name>
      </trkpt>
    </trkseg>
  </trk>
  <trk>
    <name>Lane_3</name>
    <trkseg>
      <trkpt lat="53.563555" lon="9.928092">
        <name>Point_Lane_3_0</name>
      </trkpt>
      <trkpt lat="53.563546" lon="9.928209">
        <name>Point_Lane_3_1</name>
      </trkpt>
      <trkpt lat="53.563538" lon="9.928326">
        <name>Point_Lane_3_2</name>
      </trkpt>
      <trkpt lat="53.563530" lon="9.928443">
        <name>Point_Lane_3_3</name>
      </trkpt>
      <trkpt lat="53.563523" lon="9.928560">
        <name>Point_Lane_3_4</name>
      </trkpt>
      <trkpt lat="53.563517" lon="9.928677">
        <name>Point_Lane_3_5</name>
      </trkpt>
      <trkpt lat="53.563512" lon="9.928794">
        <name>Point_Lane_3_6</name>
      </trkpt>
      <trkpt lat="53.563508" lon="9.928912">
        <name>Point_Lane_3_7</name>
      </trkpt>
      <trkpt lat="53.563505" lon="9.929029">
        <name>Point_Lane_3_8</name>
      </trkpt>
      <trkpt lat="53.563503" lon="9.929147">
        <name>Point_Lane_3_9</name>
      </trkpt>
    </trkseg>
  </trk>
  <trk>
    <name>Lane_4</name>
    <trkseg>
      <trkpt lat="53.563432" lon="9.929602">
        <name>Point_Lane_4_0</name>
      </trkpt>
      <trkpt lat="53.563432" lon="9.929690">
        <name>Point_Lane_4_1</name>
      </trkpt>
      <trkpt lat="53.563431" lon="9.929779">
        <name>Point_Lane_4_2</name>
      </trkpt>
      <trkpt lat="53.563428" lon="9.929867">
        <name>Point_Lane_4_3</name>
      </trkpt>
      <trkpt lat="53.563425" lon="9.929956">
        <name>Point_Lane_4_4</name>
      </trkpt>
      <trkpt lat="53.563422" lon="9.930044">
        <name>Point_Lane_4_5</name>
      </trkpt>
      <trkpt lat="53.563419" lon="9.930132">
        <name>Point_Lane_4_6</name>
      </trkpt>
      <trkpt lat="53.563416" lon="9.930221">
        <name>Point_Lane_4_7</name>
      </trkpt>
      <trkpt lat="53.563414" lon="9.930309">
        <name>Point_Lane_4_8</name>
      </trkpt>
      <trkpt lat="53.563412" lon="9.930398">
        <name>Point_Lane_4_9</name>
      </trkpt>
    </trkseg>
  </trk>
  <trk>
    <name>Lane_5</name>
    <trkseg>
      <trkpt lat="53.563488" lon="9.929651">
        <name>Point_Lane_5_0</name>
      </trkpt>
      <trkpt lat="53.563488" lon="9.929734">
        <name>Point_Lane_5_1</name>
      </trkpt>
      <trkpt lat="53.563487" lon="9.929817">
        <name>Point_Lane_5_2</name>
      </trkpt>
      <trkpt lat="53.563486" lon="9.929900">
        <name>Point_Lane_5_3</name>
      </trkpt>
      <trkpt lat="53.563483" lon="9.929983">
        <name>Point_Lane_5_4</name>
      </trkpt>
      <trkpt lat="53.563481" lon="9.930066">
        <name>Point_Lane_5_5</name>
      </trkpt>
      <trkpt lat="53.563478" lon="9.930148">
        <name>Point_Lane_5_6</name>
      </trkpt>
      <trkpt lat="53.563475" lon="9.930231">
        <name>Point_Lane_5_7</name>
      </trkpt>
      <trkpt lat="53.563472" lon="9.930314">
        <name>Point_Lane_5_8</name>
      </trkpt>
      <trkpt lat="53.563469" lon="9.930397">
        <name>Point_Lane_5_9</name>
      </trkpt>
    </trkseg>
  </trk>
  <trk>
    <name>Lane_8</name>
    <trkseg>
      <trkpt lat="53.563464" lon="9.929621">
        <name>Point_Lane_8_0</name>
      </trkpt>
      <trkpt lat="53.563461" lon="9.929708">
        <name>Point_Lane_8_1</name>
      </trkpt>
      <trkpt lat="53.563459" lon="9.929795">
        <name>Point_Lane_8_2</name>
      </trkpt>
      <trkpt lat="53.563458" lon="9.929882">
        <name>Point_Lane_8_3</name>
      </trkpt>
      <trkpt lat="53.563457" lon="9.929969">
        <name>Point_Lane_8_4</name>
      </trkpt>
      <trkpt lat="53.563456" lon="9.930056">
        <name>Point_Lane_8_5</name>
      </trkpt>
      <trkpt lat="53.563453" lon="9.930143">
        <name>Point_Lane_8_6</name>
      </trkpt>
      <trkpt lat="53.563449" lon="9.930230">
        <name>Point_Lane_8_7</name>
      </trkpt>
      <trkpt lat="53.563443" lon="9.930317">
        <name>Point_Lane_8_8</name>
      </trkpt>
      <trkpt lat="53.563434" lon="9.930403">
        <name>Point_Lane_8_9</name>
      </trkpt>
    </trkseg>
  </trk>
  <trk>
    <name>Lane_9</name>
    <trkseg>
      <trkpt lat="53.563905" lon="9.929365">
        <name>Point_Lane_9_0</name>
      </trkpt>
      <trkpt lat="53.563877" lon="9.929381">
        <name>Point_Lane_9_1</name>
      </trkpt>
      <trkpt lat="53.563849" lon="9.929392">
        <name>Point_Lane_9_2</name>
      </trkpt>
      <trkpt lat="53.563820" lon="9.929396">
        <name>Point_Lane_9_3</name>
      </trkpt>
      <trkpt lat="53.563791" lon="9.929394">
        <name>Point_Lane_9_4</name>
      </trkpt>
      <trkpt lat="53.563762" lon="9.929389">
        <name>Point_Lane_9_5</name>
      </trkpt>
      <trkpt lat="53.563733" lon="9.929382">
        <name>Point_Lane_9_6</name>
      </trkpt>
      <trkpt lat="53.563704" lon="9.929377">
        <name>Point_Lane_9_7</name>
      </trkpt>
      <trkpt lat="53.563675" lon="9.929375">
        <name>Point_Lane_9_8</name>
      </trkpt>
      <trkpt lat="53.563645" lon="9.929376">
        <name>Point_Lane_9_9</name>
      </trkpt>
    </trkseg>
  </trk>
  <trk>
    <name>Lane_10</name>
    <trkseg>
      <trkpt lat="53.563768" lon="9.929372">
        <name>Point_Lane_10_0</name>
      </trkpt>
      <trkpt lat="53.563768" lon="9.929380">
        <name>Point_Lane_10_1</name>
      </trkpt>
      <trkpt lat="53.563768" lon="9.929388">
        <name>Point_Lane_10_2</name>
      </trkpt>
      <trkpt lat="53.563768" lon="9.929397">
        <name>Point_Lane_10_3</name>
      </trkpt>
      <trkpt lat="53.563768" lon="9.929405">
        <name>Point_Lane_10_4</name>
      </trkpt>
      <trkpt lat="53.563768" lon="9.929413">
        <name>Point_Lane_10_5</name>
      </trkpt>
      <trkpt lat="53.563768" lon="9.929422">
        <name>Point_Lane_10_6</name>
      </trkpt>
      <trkpt lat="53.563768" lon="9.929430">
        <name>Point_Lane_10_7</name>
      </trkpt>
      <trkpt lat="53.563768" lon="9.929438">
        <name>Point_Lane_10_8</name>
      </trkpt>
      <trkpt lat="53.563768" lon="9.929446">
        <name>Point_Lane_10_9</name>
      </trkpt>
    </trkseg>
  </trk>
  <trk>
    <name>Lane_11</name>
    <trkseg>
      <trkpt lat="53.563502" lon="9.928782">
        <name>Point_Lane_11_0</name>
      </trkpt>
      <trkpt lat="53.563494" lon="9.928797">
        <name>Point_Lane_11_1</name>
      </trkpt>
      <trkpt lat="53.563489" lon="9.928816">
        <name>Point_Lane_11_2</name>
      </trkpt>
      <trkpt lat="53.563485" lon="9.928835">
        <name>Point_Lane_11_3</name>
      </trkpt>
      <trkpt lat="53.563482" lon="9.928855">
        <name>Point_Lane_11_4</name>
      </trkpt>
      <trkpt lat="53.563479" lon="9.928875">
        <name>Point_Lane_11_5</name>
      </trkpt>
      <trkpt lat="53.563477" lon="9.928895">
        <name>Point_Lane_11_6</name>
      </trkpt>
      <trkpt lat="53.563475" lon="9.928915">
        <name>Point_Lane_11_7</name>
      </trkpt>
      <trkpt lat="53.563473" lon="9.928935">
        <name>Point_Lane_11_8</name>
      </trkpt>
      <trkpt lat="53.563471" lon="9.928956">
        <name>Point_Lane_11_9</name>
      </trkpt>
    </trkseg>
  </trk>
  <trk>
    <name>Lane_12</name>
    <trkseg>
      <trkpt lat="53.563496" lon="9.928344">
        <name>Point_Lane_12_0</name>
      </trkpt>
      <trkpt lat="53.563488" lon="9.928353">
        <name>Point_Lane_12_1</name>
      </trkpt>
      <trkpt lat="53.563478" lon="9.928349">
        <name>Point_Lane_12_2</name>
      </trkpt>
      <trkpt lat="53.563471" lon="9.928362">
        <name>Point_Lane_12_3</name>
      </trkpt>
      <trkpt lat="53.563468" lon="9.928378">
        <name>Point_Lane_12_4</name>
      </trkpt>
      <trkpt lat="53.563465" lon="9.928395">
        <name>Point_Lane_12_5</name>
      </trkpt>
      <trkpt lat="53.563463" lon="9.928412">
        <name>Point_Lane_12_6</name>
      </trkpt>
      <trkpt lat="53.563462" lon="9.928429">
        <name>Point_Lane_12_7</name>
      </trkpt>
      <trkpt lat="53.563460" lon="9.928446">
        <name>Point_Lane_12_8</name>
      </trkpt>
      <trkpt lat="53.563458" lon="9.928464">
        <name>Point_Lane_12_9</name>
      </trkpt>
    </trkseg>
  </trk>
  <trk>
    <name>Lane_13</name>
    <trkseg>
      <trkpt lat="53.563529" lon="9.928903">
        <name>Point_Lane_13_0</name>
      </trkpt>
      <trkpt lat="53.563525" lon="9.928856">
        <name>Point_Lane_13_1</name>
      </trkpt>
      <trkpt lat="53.563519" lon="9.928809">
        <name>Point_Lane_13_2</name>
      </trkpt>
      <trkpt lat="53.563504" lon="9.928826">
        <name>Point_Lane_13_3</name>
      </trkpt>
      <trkpt lat="53.563497" lon="9.928872">
        <name>Point_Lane_13_4</name>
      </trkpt>
      <trkpt lat="53.563491" lon="9.928919">
        <name>Point_Lane_13_5</name>
      </trkpt>
      <trkpt lat="53.563486" lon="9.928966">
        <name>Point_Lane_13_6</name>
      </trkpt>
      <trkpt lat="53.563480" lon="9.929013">
        <name>Point_Lane_13_7</name>
      </trkpt>
      <trkpt lat="53.563474" lon="9.929060">
        <name>Point_Lane_13_8</name>
      </trkpt>
      <trkpt lat="53.563468" lon="9.929106">
        <name>Point_Lane_13_9</name>
      </trkpt>
    </trkseg>
  </trk>
  <trk>
    <name>Lane_14</name>
    <trkseg>
      <trkpt lat="53.563530" lon="9.928785">
        <name>Point_Lane_14_0</name>
      </trkpt>
      <trkpt lat="53.563513" lon="9.928811">
        <name>Point_Lane_14_1</name>
      </trkpt>
      <trkpt lat="53.563507" lon="9.928848">
        <name>Point_Lane_14_2</name>
      </trkpt>
      <trkpt lat="53.563503" lon="9.928886">
        <name>Point_Lane_14_3</name>
      </trkpt>
      <trkpt lat="53.563500" lon="9.928924">
        <name>Point_Lane_14_4</name>
      </trkpt>
      <trkpt lat="53.563498" lon="9.928962">
        <name>Point_Lane_14_5</name>
      </trkpt>
      <trkpt lat="53.563496" lon="9.929001">
        <name>Point_Lane_14_6</name>
      </trkpt>
      <trkpt lat="53.563494" lon="9.929039">
        <name>Point_Lane_14_7</name>
      </trkpt>
      <trkpt lat="53.563492" lon="9.929078">
        <name>Point_Lane_14_8</name>
      </trkpt>
      <trkpt lat="53.563490" lon="9.929116">
        <name>Point_Lane_14_9</name>
      </trkpt>
    </trkseg>
  </trk>
  <trk>
    <name>Lane_15</name>
    <trkseg>
      <trkpt lat="53.563541" lon="9.929173">
        <name>Point_Lane_15_0</name>
      </trkpt>
      <trkpt lat="53.563550" lon="9.929054">
        <name>Point_Lane_15_1</name>
      </trkpt>
      <trkpt lat="53.563557" lon="9.928934">
        <name>Point_Lane_15_2</name>
      </trkpt>
      <trkpt lat="53.563562" lon="9.928814">
        <name>Point_Lane_15_3</name>
      </trkpt>
      <trkpt lat="53.563566" lon="9.928694">
        <name>Point_Lane_15_4</name>
      </trkpt>
      <trkpt lat="53.563569" lon="9.928573">
        <name>Point_Lane_15_5</name>
      </trkpt>
      <trkpt lat="53.563572" lon="9.928453">
        <name>Point_Lane_15_6</name>
      </trkpt>
      <trkpt lat="53.563577" lon="9.928333">
        <name>Point_Lane_15_7</name>
      </trkpt>
      <trkpt lat="53.563584" lon="9.928213">
        <name>Point_Lane_15_8</name>
      </trkpt>
      <trkpt lat="53.563592" lon="9.928093">
        <name>Point_Lane_15_9</name>
      </trkpt>
    </trkseg>
  </trk>
  <trk>
    <name>Lane_16</name>
    <trkseg>
      <trkpt lat="53.563483" lon="9.928149">
        <name>Point_Lane_16_0</name>
      </trkpt>
      <trkpt lat="53.563483" lon="9.928259">
        <name>Point_Lane_16_1</name>
      </trkpt>
      <trkpt lat="53.563480" lon="9.928370">
        <name>Point_Lane_16_2</name>
      </trkpt>
      <trkpt lat="53.563475" lon="9.928481">
        <name>Point_Lane_16_3</name>
      </trkpt>
      <trkpt lat="53.563469" lon="9.928591">
        <name>Point_Lane_16_4</name>
      </trkpt>
      <trkpt lat="53.563461" lon="9.928701">
        <name>Point_Lane_16_5</name>
      </trkpt>
      <trkpt lat="53.563454" lon="9.928811">
        <name>Point_Lane_16_6</name>
      </trkpt>
      <trkpt lat="53.563448" lon="9.928922">
        <name>Point_Lane_16_7</name>
      </trkpt>
      <trkpt lat="53.563444" lon="9.929032">
        <name>Point_Lane_16_8</name>
      </trkpt>
      <trkpt lat="53.563442" lon="9.929143">
        <name>Point_Lane_16_9</name>
      </trkpt>
    </trkseg>
  </trk>
  <trk>
    <name>Lane_17</name>
    <trkseg>
      <trkpt lat="53.563474" lon="9.928774">
        <name>Point_Lane_17_0</name>
      </trkpt>
      <trkpt lat="53.563468" lon="9.928742">
        <name>Point_Lane_17_1</name>
      </trkpt>
      <trkpt lat="53.563457" lon="9.928754">
        <name>Point_Lane_17_2</name>
      </trkpt>
      <trkpt lat="53.563452" lon="9.928785">
        <name>Point_Lane_17_3</name>
      </trkpt>
      <trkpt lat="53.563447" lon="9.928817">
        <name>Point_Lane_17_4</name>
      </trkpt>
      <trkpt lat="53.563443" lon="9.928849">
        <name>Point_Lane_17_5</name>
      </trkpt>
      <trkpt lat="53.563440" lon="9.928881">
        <name>Point_Lane_17_6</name>
      </trkpt>
      <trkpt lat="53.563436" lon="9.928914">
        <name>Point_Lane_17_7</name>
      </trkpt>
      <trkpt lat="53.563432" lon="9.928946">
        <name>Point_Lane_17_8</name>
      </trkpt>
      <trkpt lat="53.563428" lon="9.928978">
        <name>Point_Lane_17_9</name>
      </trkpt>
    </trkseg>
  </trk>
  <trk>
    <name>Lane_18</name>
    <trkseg>
      <trkpt lat="53.563558" lon="9.928819">
        <name>Point_Lane_18_0</name>
      </trkpt>
      <trkpt lat="53.563548" lon="9.928802">
        <name>Point_Lane_18_1</name>
      </trkpt>
      <trkpt lat="53.563540" lon="9.928824">
        <name>Point_Lane_18_2</name>
      </trkpt>
      <trkpt lat="53.563535" lon="9.928850">
        <name>Point_Lane_18_3</name>
      </trkpt>
      <trkpt lat="53.563531" lon="9.928875">
        <name>Point_Lane_18_4</name>
      </trkpt>
      <trkpt lat="53.563527" lon="9.928901">
        <name>Point_Lane_18_5</name>
      </trkpt>
      <trkpt lat="53.563523" lon="9.928927">
        <name>Point_Lane_18_6</name>
      </trkpt>
      <trkpt lat="53.563518" lon="9.928953">
        <name>Point_Lane_18_7</name>
      </trkpt>
      <trkpt lat="53.563513" lon="9.928978">
        <name>Point_Lane_18_8</name>
      </trkpt>
      <trkpt lat="53.563505" lon="9.929001">
        <name>Point_Lane_18_9</name>
      </trkpt>
    </trkseg>
  </trk>
</gpx>