<?xml version='1.0' encoding='utf-8'?>
<gpx version="1.1" creator="Custom Script">
  <metadata>
    <time>2025-08-11T14:24:59.581144</time>
  </metadata>
  <trk>
    <name>Lane_0</name>
    <trkseg>
      <trkpt lat="53.573315" lon="9.893588">
        <name>Point_Lane_0_0</name>
      </trkpt>
      <trkpt lat="53.573338" lon="9.893548">
        <name>Point_Lane_0_1</name>
      </trkpt>
      <trkpt lat="53.573361" lon="9.893508">
        <name>Point_Lane_0_2</name>
      </trkpt>
      <trkpt lat="53.573383" lon="9.893467">
        <name>Point_Lane_0_3</name>
      </trkpt>
      <trkpt lat="53.573405" lon="9.893424">
        <name>Point_Lane_0_4</name>
      </trkpt>
      <trkpt lat="53.573426" lon="9.893381">
        <name>Point_Lane_0_5</name>
      </trkpt>
      <trkpt lat="53.573447" lon="9.893338">
        <name>Point_Lane_0_6</name>
      </trkpt>
      <trkpt lat="53.573468" lon="9.893295">
        <name>Point_Lane_0_7</name>
      </trkpt>
      <trkpt lat="53.573489" lon="9.893252">
        <name>Point_Lane_0_8</name>
      </trkpt>
      <trkpt lat="53.573511" lon="9.893209">
        <name>Point_Lane_0_9</name>
      </trkpt>
    </trkseg>
  </trk>
  <trk>
    <name>Lane_2</name>
    <trkseg>
      <trkpt lat="53.573536" lon="9.893237">
        <name>Point_Lane_2_0</name>
      </trkpt>
      <trkpt lat="53.573514" lon="9.893282">
        <name>Point_Lane_2_1</name>
      </trkpt>
      <trkpt lat="53.573493" lon="9.893327">
        <name>Point_Lane_2_2</name>
      </trkpt>
      <trkpt lat="53.573472" lon="9.893372">
        <name>Point_Lane_2_3</name>
      </trkpt>
      <trkpt lat="53.573451" lon="9.893417">
        <name>Point_Lane_2_4</name>
      </trkpt>
      <trkpt lat="53.573429" lon="9.893462">
        <name>Point_Lane_2_5</name>
      </trkpt>
      <trkpt lat="53.573407" lon="9.893506">
        <name>Point_Lane_2_6</name>
      </trkpt>
      <trkpt lat="53.573385" lon="9.893549">
        <name>Point_Lane_2_7</name>
      </trkpt>
      <trkpt lat="53.573361" lon="9.893591">
        <name>Point_Lane_2_8</name>
      </trkpt>
      <trkpt lat="53.573337" lon="9.893632">
        <name>Point_Lane_2_9</name>
      </trkpt>
    </trkseg>
  </trk>
  <trk>
    <name>Lane_3</name>
    <trkseg>
      <trkpt lat="53.573443" lon="9.893116">
        <name>Point_Lane_3_0</name>
      </trkpt>
      <trkpt lat="53.573422" lon="9.893152">
        <name>Point_Lane_3_1</name>
      </trkpt>
      <trkpt lat="53.573402" lon="9.893188">
        <name>Point_Lane_3_2</name>
      </trkpt>
      <trkpt lat="53.573382" lon="9.893225">
        <name>Point_Lane_3_3</name>
      </trkpt>
      <trkpt lat="53.573362" lon="9.893262">
        <name>Point_Lane_3_4</name>
      </trkpt>
      <trkpt lat="53.573342" lon="9.893299">
        <name>Point_Lane_3_5</name>
      </trkpt>
      <trkpt lat="53.573322" lon="9.893336">
        <name>Point_Lane_3_6</name>
      </trkpt>
      <trkpt lat="53.573302" lon="9.893372">
        <name>Point_Lane_3_7</name>
      </trkpt>
      <trkpt lat="53.573281" lon="9.893407">
        <name>Point_Lane_3_8</name>
      </trkpt>
      <trkpt lat="53.573259" lon="9.893441">
        <name>Point_Lane_3_9</name>
      </trkpt>
    </trkseg>
  </trk>
  <trk>
    <name>Lane_5</name>
    <trkseg>
      <trkpt lat="53.573116" lon="9.894420">
        <name>Point_Lane_5_0</name>
      </trkpt>
      <trkpt lat="53.573124" lon="9.894377">
        <name>Point_Lane_5_1</name>
      </trkpt>
      <trkpt lat="53.573130" lon="9.894333">
        <name>Point_Lane_5_2</name>
      </trkpt>
      <trkpt lat="53.573134" lon="9.894288">
        <name>Point_Lane_5_3</name>
      </trkpt>
      <trkpt lat="53.573138" lon="9.894243">
        <name>Point_Lane_5_4</name>
      </trkpt>
      <trkpt lat="53.573142" lon="9.894198">
        <name>Point_Lane_5_5</name>
      </trkpt>
      <trkpt lat="53.573147" lon="9.894154">
        <name>Point_Lane_5_6</name>
      </trkpt>
      <trkpt lat="53.573155" lon="9.894110">
        <name>Point_Lane_5_7</name>
      </trkpt>
      <trkpt lat="53.573167" lon="9.894069">
        <name>Point_Lane_5_8</name>
      </trkpt>
      <trkpt lat="53.573181" lon="9.894030">
        <name>Point_Lane_5_9</name>
      </trkpt>
    </trkseg>
  </trk>
  <trk>
    <name>Lane_6</name>
    <trkseg>
      <trkpt lat="53.573411" lon="9.893082">
        <name>Point_Lane_6_0</name>
      </trkpt>
      <trkpt lat="53.573394" lon="9.893120">
        <name>Point_Lane_6_1</name>
      </trkpt>
      <trkpt lat="53.573375" lon="9.893157">
        <name>Point_Lane_6_2</name>
      </trkpt>
      <trkpt lat="53.573356" lon="9.893193">
        <name>Point_Lane_6_3</name>
      </trkpt>
      <trkpt lat="53.573337" lon="9.893229">
        <name>Point_Lane_6_4</name>
      </trkpt>
      <trkpt lat="53.573317" lon="9.893263">
        <name>Point_Lane_6_5</name>
      </trkpt>
      <trkpt lat="53.573297" lon="9.893297">
        <name>Point_Lane_6_6</name>
      </trkpt>
      <trkpt lat="53.573276" lon="9.893331">
        <name>Point_Lane_6_7</name>
      </trkpt>
      <trkpt lat="53.573256" lon="9.893365">
        <name>Point_Lane_6_8</name>
      </trkpt>
      <trkpt lat="53.573236" lon="9.893399">
        <name>Point_Lane_6_9</name>
      </trkpt>
    </trkseg>
  </trk>
</gpx>