<?xml version='1.0' encoding='utf-8'?>
<gpx version="1.1" creator="Custom Script">
  <metadata>
    <time>2025-08-11T14:24:58.391211</time>
  </metadata>
  <trk>
    <name>Lane_0</name>
    <trkseg>
      <trkpt lat="53.584236" lon="10.076618">
        <name>Point_Lane_0_0</name>
      </trkpt>
      <trkpt lat="53.584266" lon="10.076716">
        <name>Point_Lane_0_1</name>
      </trkpt>
      <trkpt lat="53.584296" lon="10.076815">
        <name>Point_Lane_0_2</name>
      </trkpt>
      <trkpt lat="53.584326" lon="10.076914">
        <name>Point_Lane_0_3</name>
      </trkpt>
      <trkpt lat="53.584355" lon="10.077012">
        <name>Point_Lane_0_4</name>
      </trkpt>
      <trkpt lat="53.584384" lon="10.077112">
        <name>Point_Lane_0_5</name>
      </trkpt>
      <trkpt lat="53.584412" lon="10.077212">
        <name>Point_Lane_0_6</name>
      </trkpt>
      <trkpt lat="53.584439" lon="10.077312">
        <name>Point_Lane_0_7</name>
      </trkpt>
      <trkpt lat="53.584466" lon="10.077413">
        <name>Point_Lane_0_8</name>
      </trkpt>
      <trkpt lat="53.584492" lon="10.077515">
        <name>Point_Lane_0_9</name>
      </trkpt>
    </trkseg>
  </trk>
  <trk>
    <name>Lane_1</name>
    <trkseg>
      <trkpt lat="53.584058" lon="10.075369">
        <name>Point_Lane_1_0</name>
      </trkpt>
      <trkpt lat="53.584080" lon="10.075438">
        <name>Point_Lane_1_1</name>
      </trkpt>
      <trkpt lat="53.584101" lon="10.075508">
        <name>Point_Lane_1_2</name>
      </trkpt>
      <trkpt lat="53.584121" lon="10.075579">
        <name>Point_Lane_1_3</name>
      </trkpt>
      <trkpt lat="53.584139" lon="10.075650">
        <name>Point_Lane_1_4</name>
      </trkpt>
      <trkpt lat="53.584158" lon="10.075722">
        <name>Point_Lane_1_5</name>
      </trkpt>
      <trkpt lat="53.584176" lon="10.075793">
        <name>Point_Lane_1_6</name>
      </trkpt>
      <trkpt lat="53.584195" lon="10.075864">
        <name>Point_Lane_1_7</name>
      </trkpt>
      <trkpt lat="53.584215" lon="10.075935">
        <name>Point_Lane_1_8</name>
      </trkpt>
      <trkpt lat="53.584236" lon="10.076005">
        <name>Point_Lane_1_9</name>
      </trkpt>
    </trkseg>
  </trk>
  <trk>
    <name>Lane_2</name>
    <trkseg>
      <trkpt lat="53.584754" lon="10.076734">
        <name>Point_Lane_2_0</name>
      </trkpt>
      <trkpt lat="53.584721" lon="10.076709">
        <name>Point_Lane_2_1</name>
      </trkpt>
      <trkpt lat="53.584687" lon="10.076685">
        <name>Point_Lane_2_2</name>
      </trkpt>
      <trkpt lat="53.584653" lon="10.076663">
        <name>Point_Lane_2_3</name>
      </trkpt>
      <trkpt lat="53.584618" lon="10.076641">
        <name>Point_Lane_2_4</name>
      </trkpt>
      <trkpt lat="53.584584" lon="10.076621">
        <name>Point_Lane_2_5</name>
      </trkpt>
      <trkpt lat="53.584549" lon="10.076600">
        <name>Point_Lane_2_6</name>
      </trkpt>
      <trkpt lat="53.584515" lon="10.076578">
        <name>Point_Lane_2_7</name>
      </trkpt>
      <trkpt lat="53.584481" lon="10.076555">
        <name>Point_Lane_2_8</name>
      </trkpt>
      <trkpt lat="53.584447" lon="10.076530">
        <name>Point_Lane_2_9</name>
      </trkpt>
    </trkseg>
  </trk>
  <trk>
    <name>Lane_3</name>
    <trkseg>
      <trkpt lat="53.584082" lon="10.076030">
        <name>Point_Lane_3_0</name>
      </trkpt>
      <trkpt lat="53.584062" lon="10.075958">
        <name>Point_Lane_3_1</name>
      </trkpt>
      <trkpt lat="53.584043" lon="10.075885">
        <name>Point_Lane_3_2</name>
      </trkpt>
      <trkpt lat="53.584025" lon="10.075812">
        <name>Point_Lane_3_3</name>
      </trkpt>
      <trkpt lat="53.584009" lon="10.075738">
        <name>Point_Lane_3_4</name>
      </trkpt>
      <trkpt lat="53.583992" lon="10.075664">
        <name>Point_Lane_3_5</name>
      </trkpt>
      <trkpt lat="53.583976" lon="10.075590">
        <name>Point_Lane_3_6</name>
      </trkpt>
      <trkpt lat="53.583959" lon="10.075515">
        <name>Point_Lane_3_7</name>
      </trkpt>
      <trkpt lat="53.583943" lon="10.075442">
        <name>Point_Lane_3_8</name>
      </trkpt>
      <trkpt lat="53.583925" lon="10.075368">
        <name>Point_Lane_3_9</name>
      </trkpt>
    </trkseg>
  </trk>
  <trk>
    <name>Lane_4</name>
    <trkseg>
      <trkpt lat="53.584757" lon="10.076667">
        <name>Point_Lane_4_0</name>
      </trkpt>
      <trkpt lat="53.584726" lon="10.076645">
        <name>Point_Lane_4_1</name>
      </trkpt>
      <trkpt lat="53.584696" lon="10.076624">
        <name>Point_Lane_4_2</name>
      </trkpt>
      <trkpt lat="53.584665" lon="10.076604">
        <name>Point_Lane_4_3</name>
      </trkpt>
      <trkpt lat="53.584633" lon="10.076584">
        <name>Point_Lane_4_4</name>
      </trkpt>
      <trkpt lat="53.584602" lon="10.076566">
        <name>Point_Lane_4_5</name>
      </trkpt>
      <trkpt lat="53.584571" lon="10.076547">
        <name>Point_Lane_4_6</name>
      </trkpt>
      <trkpt lat="53.584540" lon="10.076527">
        <name>Point_Lane_4_7</name>
      </trkpt>
      <trkpt lat="53.584509" lon="10.076506">
        <name>Point_Lane_4_8</name>
      </trkpt>
      <trkpt lat="53.584478" lon="10.076485">
        <name>Point_Lane_4_9</name>
      </trkpt>
    </trkseg>
  </trk>
  <trk>
    <name>Lane_5</name>
    <trkseg>
      <trkpt lat="53.584411" lon="10.076683">
        <name>Point_Lane_5_0</name>
      </trkpt>
      <trkpt lat="53.584435" lon="10.076776">
        <name>Point_Lane_5_1</name>
      </trkpt>
      <trkpt lat="53.584459" lon="10.076869">
        <name>Point_Lane_5_2</name>
      </trkpt>
      <trkpt lat="53.584483" lon="10.076962">
        <name>Point_Lane_5_3</name>
      </trkpt>
      <trkpt lat="53.584507" lon="10.077054">
        <name>Point_Lane_5_4</name>
      </trkpt>
      <trkpt lat="53.584532" lon="10.077147">
        <name>Point_Lane_5_5</name>
      </trkpt>
      <trkpt lat="53.584556" lon="10.077239">
        <name>Point_Lane_5_6</name>
      </trkpt>
      <trkpt lat="53.584580" lon="10.077332">
        <name>Point_Lane_5_7</name>
      </trkpt>
      <trkpt lat="53.584604" lon="10.077425">
        <name>Point_Lane_5_8</name>
      </trkpt>
      <trkpt lat="53.584628" lon="10.077517">
        <name>Point_Lane_5_9</name>
      </trkpt>
    </trkseg>
  </trk>
  <trk>
    <name>Lane_6</name>
    <trkseg>
      <trkpt lat="53.584002" lon="10.076244">
        <name>Point_Lane_6_0</name>
      </trkpt>
      <trkpt lat="53.583983" lon="10.076242">
        <name>Point_Lane_6_1</name>
      </trkpt>
      <trkpt lat="53.583965" lon="10.076237">
        <name>Point_Lane_6_2</name>
      </trkpt>
      <trkpt lat="53.583948" lon="10.076228">
        <name>Point_Lane_6_3</name>
      </trkpt>
      <trkpt lat="53.583930" lon="10.076217">
        <name>Point_Lane_6_4</name>
      </trkpt>
      <trkpt lat="53.583914" lon="10.076205">
        <name>Point_Lane_6_5</name>
      </trkpt>
      <trkpt lat="53.583896" lon="10.076194">
        <name>Point_Lane_6_6</name>
      </trkpt>
      <trkpt lat="53.583879" lon="10.076186">
        <name>Point_Lane_6_7</name>
      </trkpt>
      <trkpt lat="53.583861" lon="10.076182">
        <name>Point_Lane_6_8</name>
      </trkpt>
      <trkpt lat="53.583842" lon="10.076181">
        <name>Point_Lane_6_9</name>
      </trkpt>
    </trkseg>
  </trk>
  <trk>
    <name>Lane_7</name>
    <trkseg>
      <trkpt lat="53.583847" lon="10.076095">
        <name>Point_Lane_7_0</name>
      </trkpt>
      <trkpt lat="53.583862" lon="10.076104">
        <name>Point_Lane_7_1</name>
      </trkpt>
      <trkpt lat="53.583877" lon="10.076112">
        <name>Point_Lane_7_2</name>
      </trkpt>
      <trkpt lat="53.583892" lon="10.076121">
        <name>Point_Lane_7_3</name>
      </trkpt>
      <trkpt lat="53.583907" lon="10.076130">
        <name>Point_Lane_7_4</name>
      </trkpt>
      <trkpt lat="53.583922" lon="10.076140">
        <name>Point_Lane_7_5</name>
      </trkpt>
      <trkpt lat="53.583937" lon="10.076149">
        <name>Point_Lane_7_6</name>
      </trkpt>
      <trkpt lat="53.583951" lon="10.076160">
        <name>Point_Lane_7_7</name>
      </trkpt>
      <trkpt lat="53.583966" lon="10.076170">
        <name>Point_Lane_7_8</name>
      </trkpt>
      <trkpt lat="53.583981" lon="10.076181">
        <name>Point_Lane_7_9</name>
      </trkpt>
    </trkseg>
  </trk>
  <trk>
    <name>Lane_8</name>
    <trkseg>
      <trkpt lat="53.583956" lon="10.075365">
        <name>Point_Lane_8_0</name>
      </trkpt>
      <trkpt lat="53.583976" lon="10.075433">
        <name>Point_Lane_8_1</name>
      </trkpt>
      <trkpt lat="53.583994" lon="10.075502">
        <name>Point_Lane_8_2</name>
      </trkpt>
      <trkpt lat="53.584011" lon="10.075572">
        <name>Point_Lane_8_3</name>
      </trkpt>
      <trkpt lat="53.584027" lon="10.075643">
        <name>Point_Lane_8_4</name>
      </trkpt>
      <trkpt lat="53.584043" lon="10.075714">
        <name>Point_Lane_8_5</name>
      </trkpt>
      <trkpt lat="53.584059" lon="10.075784">
        <name>Point_Lane_8_6</name>
      </trkpt>
      <trkpt lat="53.584076" lon="10.075855">
        <name>Point_Lane_8_7</name>
      </trkpt>
      <trkpt lat="53.584094" lon="10.075924">
        <name>Point_Lane_8_8</name>
      </trkpt>
      <trkpt lat="53.584113" lon="10.075992">
        <name>Point_Lane_8_9</name>
      </trkpt>
    </trkseg>
  </trk>
  <trk>
    <name>Lane_9</name>
    <trkseg>
      <trkpt lat="53.584141" lon="10.075842">
        <name>Point_Lane_9_0</name>
      </trkpt>
      <trkpt lat="53.584133" lon="10.075788">
        <name>Point_Lane_9_1</name>
      </trkpt>
      <trkpt lat="53.584123" lon="10.075736">
        <name>Point_Lane_9_2</name>
      </trkpt>
      <trkpt lat="53.584111" lon="10.075685">
        <name>Point_Lane_9_3</name>
      </trkpt>
      <trkpt lat="53.584098" lon="10.075635">
        <name>Point_Lane_9_4</name>
      </trkpt>
      <trkpt lat="53.584084" lon="10.075586">
        <name>Point_Lane_9_5</name>
      </trkpt>
      <trkpt lat="53.584069" lon="10.075536">
        <name>Point_Lane_9_6</name>
      </trkpt>
      <trkpt lat="53.584056" lon="10.075486">
        <name>Point_Lane_9_7</name>
      </trkpt>
      <trkpt lat="53.584044" lon="10.075436">
        <name>Point_Lane_9_8</name>
      </trkpt>
      <trkpt lat="53.584033" lon="10.075384">
        <name>Point_Lane_9_9</name>
      </trkpt>
    </trkseg>
  </trk>
  <trk>
    <name>Lane_10</name>
    <trkseg>
      <trkpt lat="53.584018" lon="10.075372">
        <name>Point_Lane_10_0</name>
      </trkpt>
      <trkpt lat="53.584040" lon="10.075439">
        <name>Point_Lane_10_1</name>
      </trkpt>
      <trkpt lat="53.584062" lon="10.075507">
        <name>Point_Lane_10_2</name>
      </trkpt>
      <trkpt lat="53.584082" lon="10.075576">
        <name>Point_Lane_10_3</name>
      </trkpt>
      <trkpt lat="53.584101" lon="10.075646">
        <name>Point_Lane_10_4</name>
      </trkpt>
      <trkpt lat="53.584119" lon="10.075716">
        <name>Point_Lane_10_5</name>
      </trkpt>
      <trkpt lat="53.584137" lon="10.075787">
        <name>Point_Lane_10_6</name>
      </trkpt>
      <trkpt lat="53.584155" lon="10.075858">
        <name>Point_Lane_10_7</name>
      </trkpt>
      <trkpt lat="53.584173" lon="10.075928">
        <name>Point_Lane_10_8</name>
      </trkpt>
      <trkpt lat="53.584192" lon="10.075998">
        <name>Point_Lane_10_9</name>
      </trkpt>
    </trkseg>
  </trk>
  <trk>
    <name>Lane_11</name>
    <trkseg>
      <trkpt lat="53.583982" lon="10.075347">
        <name>Point_Lane_11_0</name>
      </trkpt>
      <trkpt lat="53.583997" lon="10.075403">
        <name>Point_Lane_11_1</name>
      </trkpt>
      <trkpt lat="53.584011" lon="10.075460">
        <name>Point_Lane_11_2</name>
      </trkpt>
      <trkpt lat="53.584025" lon="10.075517">
        <name>Point_Lane_11_3</name>
      </trkpt>
      <trkpt lat="53.584039" lon="10.075574">
        <name>Point_Lane_11_4</name>
      </trkpt>
      <trkpt lat="53.584052" lon="10.075631">
        <name>Point_Lane_11_5</name>
      </trkpt>
      <trkpt lat="53.584066" lon="10.075689">
        <name>Point_Lane_11_6</name>
      </trkpt>
      <trkpt lat="53.584079" lon="10.075747">
        <name>Point_Lane_11_7</name>
      </trkpt>
      <trkpt lat="53.584092" lon="10.075804">
        <name>Point_Lane_11_8</name>
      </trkpt>
      <trkpt lat="53.584106" lon="10.075861">
        <name>Point_Lane_11_9</name>
      </trkpt>
    </trkseg>
  </trk>
  <trk>
    <name>Lane_13</name>
    <trkseg>
      <trkpt lat="53.583956" lon="10.075364">
        <name>Point_Lane_13_0</name>
      </trkpt>
      <trkpt lat="53.583972" lon="10.075424">
        <name>Point_Lane_13_1</name>
      </trkpt>
      <trkpt lat="53.583987" lon="10.075485">
        <name>Point_Lane_13_2</name>
      </trkpt>
      <trkpt lat="53.584002" lon="10.075547">
        <name>Point_Lane_13_3</name>
      </trkpt>
      <trkpt lat="53.584017" lon="10.075608">
        <name>Point_Lane_13_4</name>
      </trkpt>
      <trkpt lat="53.584031" lon="10.075670">
        <name>Point_Lane_13_5</name>
      </trkpt>
      <trkpt lat="53.584045" lon="10.075732">
        <name>Point_Lane_13_6</name>
      </trkpt>
      <trkpt lat="53.584059" lon="10.075794">
        <name>Point_Lane_13_7</name>
      </trkpt>
      <trkpt lat="53.584074" lon="10.075855">
        <name>Point_Lane_13_8</name>
      </trkpt>
      <trkpt lat="53.584090" lon="10.075916">
        <name>Point_Lane_13_9</name>
      </trkpt>
    </trkseg>
  </trk>
  <trk>
    <name>Lane_14</name>
    <trkseg>
      <trkpt lat="53.584068" lon="10.075800">
        <name>Point_Lane_14_0</name>
      </trkpt>
      <trkpt lat="53.584081" lon="10.075816">
        <name>Point_Lane_14_1</name>
      </trkpt>
      <trkpt lat="53.584093" lon="10.075836">
        <name>Point_Lane_14_2</name>
      </trkpt>
      <trkpt lat="53.584103" lon="10.075859">
        <name>Point_Lane_14_3</name>
      </trkpt>
      <trkpt lat="53.584110" lon="10.075883">
        <name>Point_Lane_14_4</name>
      </trkpt>
      <trkpt lat="53.584116" lon="10.075909">
        <name>Point_Lane_14_5</name>
      </trkpt>
      <trkpt lat="53.584123" lon="10.075934">
        <name>Point_Lane_14_6</name>
      </trkpt>
      <trkpt lat="53.584130" lon="10.075959">
        <name>Point_Lane_14_7</name>
      </trkpt>
      <trkpt lat="53.584140" lon="10.075981">
        <name>Point_Lane_14_8</name>
      </trkpt>
      <trkpt lat="53.584152" lon="10.076001">
        <name>Point_Lane_14_9</name>
      </trkpt>
    </trkseg>
  </trk>
</gpx>