<?xml version='1.0' encoding='utf-8'?>
<gpx version="1.1" creator="Custom Script">
  <metadata>
    <time>2025-08-11T14:25:10.880829</time>
  </metadata>
  <trk>
    <name>Lane_0</name>
    <trkseg>
      <trkpt lat="53.599465" lon="10.013658">
        <name>Point_Lane_0_0</name>
      </trkpt>
      <trkpt lat="53.599489" lon="10.013643">
        <name>Point_Lane_0_1</name>
      </trkpt>
      <trkpt lat="53.599514" lon="10.013631">
        <name>Point_Lane_0_2</name>
      </trkpt>
      <trkpt lat="53.599539" lon="10.013621">
        <name>Point_Lane_0_3</name>
      </trkpt>
      <trkpt lat="53.599564" lon="10.013611">
        <name>Point_Lane_0_4</name>
      </trkpt>
      <trkpt lat="53.599588" lon="10.013602">
        <name>Point_Lane_0_5</name>
      </trkpt>
      <trkpt lat="53.599613" lon="10.013591">
        <name>Point_Lane_0_6</name>
      </trkpt>
      <trkpt lat="53.599638" lon="10.013577">
        <name>Point_Lane_0_7</name>
      </trkpt>
      <trkpt lat="53.599661" lon="10.013561">
        <name>Point_Lane_0_8</name>
      </trkpt>
      <trkpt lat="53.599684" lon="10.013542">
        <name>Point_Lane_0_9</name>
      </trkpt>
    </trkseg>
  </trk>
  <trk>
    <name>Lane_1</name>
    <trkseg>
      <trkpt lat="53.600466" lon="10.013189">
        <name>Point_Lane_1_0</name>
      </trkpt>
      <trkpt lat="53.600459" lon="10.013071">
        <name>Point_Lane_1_1</name>
      </trkpt>
      <trkpt lat="53.600459" lon="10.012953">
        <name>Point_Lane_1_2</name>
      </trkpt>
      <trkpt lat="53.600473" lon="10.012837">
        <name>Point_Lane_1_3</name>
      </trkpt>
      <trkpt lat="53.600497" lon="10.012726">
        <name>Point_Lane_1_4</name>
      </trkpt>
      <trkpt lat="53.600531" lon="10.012623">
        <name>Point_Lane_1_5</name>
      </trkpt>
      <trkpt lat="53.600571" lon="10.012525">
        <name>Point_Lane_1_6</name>
      </trkpt>
      <trkpt lat="53.600616" lon="10.012433">
        <name>Point_Lane_1_7</name>
      </trkpt>
      <trkpt lat="53.600662" lon="10.012344">
        <name>Point_Lane_1_8</name>
      </trkpt>
      <trkpt lat="53.600709" lon="10.012256">
        <name>Point_Lane_1_9</name>
      </trkpt>
    </trkseg>
  </trk>
  <trk>
    <name>Lane_2</name>
    <trkseg>
      <trkpt lat="53.599975" lon="10.013231">
        <name>Point_Lane_2_0</name>
      </trkpt>
      <trkpt lat="53.599959" lon="10.013118">
        <name>Point_Lane_2_1</name>
      </trkpt>
      <trkpt lat="53.599944" lon="10.013004">
        <name>Point_Lane_2_2</name>
      </trkpt>
      <trkpt lat="53.599930" lon="10.012890">
        <name>Point_Lane_2_3</name>
      </trkpt>
      <trkpt lat="53.599917" lon="10.012775">
        <name>Point_Lane_2_4</name>
      </trkpt>
      <trkpt lat="53.599906" lon="10.012660">
        <name>Point_Lane_2_5</name>
      </trkpt>
      <trkpt lat="53.599895" lon="10.012545">
        <name>Point_Lane_2_6</name>
      </trkpt>
      <trkpt lat="53.599885" lon="10.012429">
        <name>Point_Lane_2_7</name>
      </trkpt>
      <trkpt lat="53.599877" lon="10.012314">
        <name>Point_Lane_2_8</name>
      </trkpt>
      <trkpt lat="53.599869" lon="10.012198">
        <name>Point_Lane_2_9</name>
      </trkpt>
    </trkseg>
  </trk>
  <trk>
    <name>Lane_3</name>
    <trkseg>
      <trkpt lat="53.600353" lon="10.013206">
        <name>Point_Lane_3_0</name>
      </trkpt>
      <trkpt lat="53.600354" lon="10.013080">
        <name>Point_Lane_3_1</name>
      </trkpt>
      <trkpt lat="53.600363" lon="10.012955">
        <name>Point_Lane_3_2</name>
      </trkpt>
      <trkpt lat="53.600387" lon="10.012836">
        <name>Point_Lane_3_3</name>
      </trkpt>
      <trkpt lat="53.600423" lon="10.012726">
        <name>Point_Lane_3_4</name>
      </trkpt>
      <trkpt lat="53.600467" lon="10.012624">
        <name>Point_Lane_3_5</name>
      </trkpt>
      <trkpt lat="53.600516" lon="10.012529">
        <name>Point_Lane_3_6</name>
      </trkpt>
      <trkpt lat="53.600567" lon="10.012435">
        <name>Point_Lane_3_7</name>
      </trkpt>
      <trkpt lat="53.600616" lon="10.012341">
        <name>Point_Lane_3_8</name>
      </trkpt>
      <trkpt lat="53.600663" lon="10.012243">
        <name>Point_Lane_3_9</name>
      </trkpt>
    </trkseg>
  </trk>
  <trk>
    <name>Lane_4</name>
    <trkseg>
      <trkpt lat="53.599809" lon="10.012194">
        <name>Point_Lane_4_0</name>
      </trkpt>
      <trkpt lat="53.599816" lon="10.012311">
        <name>Point_Lane_4_1</name>
      </trkpt>
      <trkpt lat="53.599826" lon="10.012427">
        <name>Point_Lane_4_2</name>
      </trkpt>
      <trkpt lat="53.599838" lon="10.012542">
        <name>Point_Lane_4_3</name>
      </trkpt>
      <trkpt lat="53.599852" lon="10.012657">
        <name>Point_Lane_4_4</name>
      </trkpt>
      <trkpt lat="53.599865" lon="10.012773">
        <name>Point_Lane_4_5</name>
      </trkpt>
      <trkpt lat="53.599875" lon="10.012888">
        <name>Point_Lane_4_6</name>
      </trkpt>
      <trkpt lat="53.599882" lon="10.013005">
        <name>Point_Lane_4_7</name>
      </trkpt>
      <trkpt lat="53.599883" lon="10.013122">
        <name>Point_Lane_4_8</name>
      </trkpt>
      <trkpt lat="53.599880" lon="10.013239">
        <name>Point_Lane_4_9</name>
      </trkpt>
    </trkseg>
  </trk>
  <trk>
    <name>Lane_5</name>
    <trkseg>
      <trkpt lat="53.599469" lon="10.013717">
        <name>Point_Lane_5_0</name>
      </trkpt>
      <trkpt lat="53.599492" lon="10.013705">
        <name>Point_Lane_5_1</name>
      </trkpt>
      <trkpt lat="53.599516" lon="10.013694">
        <name>Point_Lane_5_2</name>
      </trkpt>
      <trkpt lat="53.599540" lon="10.013685">
        <name>Point_Lane_5_3</name>
      </trkpt>
      <trkpt lat="53.599564" lon="10.013676">
        <name>Point_Lane_5_4</name>
      </trkpt>
      <trkpt lat="53.599588" lon="10.013668">
        <name>Point_Lane_5_5</name>
      </trkpt>
      <trkpt lat="53.599612" lon="10.013659">
        <name>Point_Lane_5_6</name>
      </trkpt>
      <trkpt lat="53.599636" lon="10.013649">
        <name>Point_Lane_5_7</name>
      </trkpt>
      <trkpt lat="53.599659" lon="10.013636">
        <name>Point_Lane_5_8</name>
      </trkpt>
      <trkpt lat="53.599682" lon="10.013623">
        <name>Point_Lane_5_9</name>
      </trkpt>
    </trkseg>
  </trk>
  <trk>
    <name>Lane_6</name>
    <trkseg>
      <trkpt lat="53.600018" lon="10.013917">
        <name>Point_Lane_6_0</name>
      </trkpt>
      <trkpt lat="53.600073" lon="10.014055">
        <name>Point_Lane_6_1</name>
      </trkpt>
      <trkpt lat="53.600121" lon="10.014201">
        <name>Point_Lane_6_2</name>
      </trkpt>
      <trkpt lat="53.600158" lon="10.014356">
        <name>Point_Lane_6_3</name>
      </trkpt>
      <trkpt lat="53.600185" lon="10.014517">
        <name>Point_Lane_6_4</name>
      </trkpt>
      <trkpt lat="53.600205" lon="10.014680">
        <name>Point_Lane_6_5</name>
      </trkpt>
      <trkpt lat="53.600220" lon="10.014845">
        <name>Point_Lane_6_6</name>
      </trkpt>
      <trkpt lat="53.600235" lon="10.015009">
        <name>Point_Lane_6_7</name>
      </trkpt>
      <trkpt lat="53.600251" lon="10.015174">
        <name>Point_Lane_6_8</name>
      </trkpt>
      <trkpt lat="53.600270" lon="10.015338">
        <name>Point_Lane_6_9</name>
      </trkpt>
    </trkseg>
  </trk>
  <trk>
    <name>Lane_8</name>
    <trkseg>
      <trkpt lat="53.600452" lon="10.013555">
        <name>Point_Lane_8_0</name>
      </trkpt>
      <trkpt lat="53.600481" lon="10.013523">
        <name>Point_Lane_8_1</name>
      </trkpt>
      <trkpt lat="53.600513" lon="10.013497">
        <name>Point_Lane_8_2</name>
      </trkpt>
      <trkpt lat="53.600546" lon="10.013480">
        <name>Point_Lane_8_3</name>
      </trkpt>
      <trkpt lat="53.600581" lon="10.013470">
        <name>Point_Lane_8_4</name>
      </trkpt>
      <trkpt lat="53.600616" lon="10.013463">
        <name>Point_Lane_8_5</name>
      </trkpt>
      <trkpt lat="53.600651" lon="10.013456">
        <name>Point_Lane_8_6</name>
      </trkpt>
      <trkpt lat="53.600686" lon="10.013445">
        <name>Point_Lane_8_7</name>
      </trkpt>
      <trkpt lat="53.600719" lon="10.013428">
        <name>Point_Lane_8_8</name>
      </trkpt>
      <trkpt lat="53.600752" lon="10.013406">
        <name>Point_Lane_8_9</name>
      </trkpt>
    </trkseg>
  </trk>
  <trk>
    <name>Lane_9</name>
    <trkseg>
      <trkpt lat="53.599845" lon="10.013962">
        <name>Point_Lane_9_0</name>
      </trkpt>
      <trkpt lat="53.599863" lon="10.014114">
        <name>Point_Lane_9_1</name>
      </trkpt>
      <trkpt lat="53.599882" lon="10.014265">
        <name>Point_Lane_9_2</name>
      </trkpt>
      <trkpt lat="53.599903" lon="10.014415">
        <name>Point_Lane_9_3</name>
      </trkpt>
      <trkpt lat="53.599924" lon="10.014565">
        <name>Point_Lane_9_4</name>
      </trkpt>
      <trkpt lat="53.599946" lon="10.014715">
        <name>Point_Lane_9_5</name>
      </trkpt>
      <trkpt lat="53.599969" lon="10.014864">
        <name>Point_Lane_9_6</name>
      </trkpt>
      <trkpt lat="53.599991" lon="10.015014">
        <name>Point_Lane_9_7</name>
      </trkpt>
      <trkpt lat="53.600013" lon="10.015164">
        <name>Point_Lane_9_8</name>
      </trkpt>
      <trkpt lat="53.600034" lon="10.015314">
        <name>Point_Lane_9_9</name>
      </trkpt>
    </trkseg>
  </trk>
  <trk>
    <name>Lane_10</name>
    <trkseg>
      <trkpt lat="53.599701" lon="10.012187">
        <name>Point_Lane_10_0</name>
      </trkpt>
      <trkpt lat="53.599698" lon="10.012309">
        <name>Point_Lane_10_1</name>
      </trkpt>
      <trkpt lat="53.599699" lon="10.012431">
        <name>Point_Lane_10_2</name>
      </trkpt>
      <trkpt lat="53.599707" lon="10.012553">
        <name>Point_Lane_10_3</name>
      </trkpt>
      <trkpt lat="53.599719" lon="10.012673">
        <name>Point_Lane_10_4</name>
      </trkpt>
      <trkpt lat="53.599733" lon="10.012793">
        <name>Point_Lane_10_5</name>
      </trkpt>
      <trkpt lat="53.599747" lon="10.012913">
        <name>Point_Lane_10_6</name>
      </trkpt>
      <trkpt lat="53.599760" lon="10.013033">
        <name>Point_Lane_10_7</name>
      </trkpt>
      <trkpt lat="53.599768" lon="10.013155">
        <name>Point_Lane_10_8</name>
      </trkpt>
      <trkpt lat="53.599773" lon="10.013277">
        <name>Point_Lane_10_9</name>
      </trkpt>
    </trkseg>
  </trk>
  <trk>
    <name>Lane_11</name>
    <trkseg>
      <trkpt lat="53.599464" lon="10.013761">
        <name>Point_Lane_11_0</name>
      </trkpt>
      <trkpt lat="53.599488" lon="10.013757">
        <name>Point_Lane_11_1</name>
      </trkpt>
      <trkpt lat="53.599513" lon="10.013752">
        <name>Point_Lane_11_2</name>
      </trkpt>
      <trkpt lat="53.599537" lon="10.013747">
        <name>Point_Lane_11_3</name>
      </trkpt>
      <trkpt lat="53.599561" lon="10.013742">
        <name>Point_Lane_11_4</name>
      </trkpt>
      <trkpt lat="53.599586" lon="10.013736">
        <name>Point_Lane_11_5</name>
      </trkpt>
      <trkpt lat="53.599610" lon="10.013730">
        <name>Point_Lane_11_6</name>
      </trkpt>
      <trkpt lat="53.599634" lon="10.013724">
        <name>Point_Lane_11_7</name>
      </trkpt>
      <trkpt lat="53.599658" lon="10.013716">
        <name>Point_Lane_11_8</name>
      </trkpt>
      <trkpt lat="53.599682" lon="10.013708">
        <name>Point_Lane_11_9</name>
      </trkpt>
    </trkseg>
  </trk>
  <trk>
    <name>Lane_12</name>
    <trkseg>
      <trkpt lat="53.599708" lon="10.012198">
        <name>Point_Lane_12_0</name>
      </trkpt>
      <trkpt lat="53.599728" lon="10.012314">
        <name>Point_Lane_12_1</name>
      </trkpt>
      <trkpt lat="53.599746" lon="10.012430">
        <name>Point_Lane_12_2</name>
      </trkpt>
      <trkpt lat="53.599760" lon="10.012548">
        <name>Point_Lane_12_3</name>
      </trkpt>
      <trkpt lat="53.599772" lon="10.012666">
        <name>Point_Lane_12_4</name>
      </trkpt>
      <trkpt lat="53.599782" lon="10.012785">
        <name>Point_Lane_12_5</name>
      </trkpt>
      <trkpt lat="53.599793" lon="10.012904">
        <name>Point_Lane_12_6</name>
      </trkpt>
      <trkpt lat="53.599804" lon="10.013023">
        <name>Point_Lane_12_7</name>
      </trkpt>
      <trkpt lat="53.599817" lon="10.013141">
        <name>Point_Lane_12_8</name>
      </trkpt>
      <trkpt lat="53.599833" lon="10.013258">
        <name>Point_Lane_12_9</name>
      </trkpt>
    </trkseg>
  </trk>
  <trk>
    <name>Lane_13</name>
    <trkseg>
      <trkpt lat="53.600144" lon="10.013710">
        <name>Point_Lane_13_0</name>
      </trkpt>
      <trkpt lat="53.600213" lon="10.013705">
        <name>Point_Lane_13_1</name>
      </trkpt>
      <trkpt lat="53.600281" lon="10.013697">
        <name>Point_Lane_13_2</name>
      </trkpt>
      <trkpt lat="53.600349" lon="10.013686">
        <name>Point_Lane_13_3</name>
      </trkpt>
      <trkpt lat="53.600417" lon="10.013673">
        <name>Point_Lane_13_4</name>
      </trkpt>
      <trkpt lat="53.600485" lon="10.013658">
        <name>Point_Lane_13_5</name>
      </trkpt>
      <trkpt lat="53.600552" lon="10.013643">
        <name>Point_Lane_13_6</name>
      </trkpt>
      <trkpt lat="53.600620" lon="10.013628">
        <name>Point_Lane_13_7</name>
      </trkpt>
      <trkpt lat="53.600688" lon="10.013616">
        <name>Point_Lane_13_8</name>
      </trkpt>
      <trkpt lat="53.600756" lon="10.013606">
        <name>Point_Lane_13_9</name>
      </trkpt>
    </trkseg>
  </trk>
  <trk>
    <name>Lane_14</name>
    <trkseg>
      <trkpt lat="53.600440" lon="10.013419">
        <name>Point_Lane_14_0</name>
      </trkpt>
      <trkpt lat="53.600475" lon="10.013415">
        <name>Point_Lane_14_1</name>
      </trkpt>
      <trkpt lat="53.600511" lon="10.013408">
        <name>Point_Lane_14_2</name>
      </trkpt>
      <trkpt lat="53.600546" lon="10.013399">
        <name>Point_Lane_14_3</name>
      </trkpt>
      <trkpt lat="53.600581" lon="10.013389">
        <name>Point_Lane_14_4</name>
      </trkpt>
      <trkpt lat="53.600616" lon="10.013377">
        <name>Point_Lane_14_5</name>
      </trkpt>
      <trkpt lat="53.600651" lon="10.013366">
        <name>Point_Lane_14_6</name>
      </trkpt>
      <trkpt lat="53.600687" lon="10.013355">
        <name>Point_Lane_14_7</name>
      </trkpt>
      <trkpt lat="53.600722" lon="10.013346">
        <name>Point_Lane_14_8</name>
      </trkpt>
      <trkpt lat="53.600757" lon="10.013337">
        <name>Point_Lane_14_9</name>
      </trkpt>
    </trkseg>
  </trk>
  <trk>
    <name>Lane_17</name>
    <trkseg>
      <trkpt lat="53.600251" lon="10.013410">
        <name>Point_Lane_17_0</name>
      </trkpt>
      <trkpt lat="53.600308" lon="10.013416">
        <name>Point_Lane_17_1</name>
      </trkpt>
      <trkpt lat="53.600364" lon="10.013418">
        <name>Point_Lane_17_2</name>
      </trkpt>
      <trkpt lat="53.600420" lon="10.013415">
        <name>Point_Lane_17_3</name>
      </trkpt>
      <trkpt lat="53.600476" lon="10.013407">
        <name>Point_Lane_17_4</name>
      </trkpt>
      <trkpt lat="53.600532" lon="10.013395">
        <name>Point_Lane_17_5</name>
      </trkpt>
      <trkpt lat="53.600588" lon="10.013381">
        <name>Point_Lane_17_6</name>
      </trkpt>
      <trkpt lat="53.600644" lon="10.013366">
        <name>Point_Lane_17_7</name>
      </trkpt>
      <trkpt lat="53.600699" lon="10.013351">
        <name>Point_Lane_17_8</name>
      </trkpt>
      <trkpt lat="53.600755" lon="10.013336">
        <name>Point_Lane_17_9</name>
      </trkpt>
    </trkseg>
  </trk>
  <trk>
    <name>Lane_19</name>
    <trkseg>
      <trkpt lat="53.600498" lon="10.013503">
        <name>Point_Lane_19_0</name>
      </trkpt>
      <trkpt lat="53.600460" lon="10.013505">
        <name>Point_Lane_19_1</name>
      </trkpt>
      <trkpt lat="53.600422" lon="10.013504">
        <name>Point_Lane_19_2</name>
      </trkpt>
      <trkpt lat="53.600384" lon="10.013500">
        <name>Point_Lane_19_3</name>
      </trkpt>
      <trkpt lat="53.600346" lon="10.013496">
        <name>Point_Lane_19_4</name>
      </trkpt>
      <trkpt lat="53.600308" lon="10.013494">
        <name>Point_Lane_19_5</name>
      </trkpt>
      <trkpt lat="53.600270" lon="10.013494">
        <name>Point_Lane_19_6</name>
      </trkpt>
      <trkpt lat="53.600233" lon="10.013500">
        <name>Point_Lane_19_7</name>
      </trkpt>
      <trkpt lat="53.600195" lon="10.013512">
        <name>Point_Lane_19_8</name>
      </trkpt>
      <trkpt lat="53.600159" lon="10.013529">
        <name>Point_Lane_19_9</name>
      </trkpt>
    </trkseg>
  </trk>
  <trk>
    <name>Lane_20</name>
    <trkseg>
      <trkpt lat="53.600352" lon="10.013204">
        <name>Point_Lane_20_0</name>
      </trkpt>
      <trkpt lat="53.600353" lon="10.013136">
        <name>Point_Lane_20_1</name>
      </trkpt>
      <trkpt lat="53.600355" lon="10.013067">
        <name>Point_Lane_20_2</name>
      </trkpt>
      <trkpt lat="53.600359" lon="10.012999">
        <name>Point_Lane_20_3</name>
      </trkpt>
      <trkpt lat="53.600365" lon="10.012932">
        <name>Point_Lane_20_4</name>
      </trkpt>
      <trkpt lat="53.600375" lon="10.012865">
        <name>Point_Lane_20_5</name>
      </trkpt>
      <trkpt lat="53.600388" lon="10.012801">
        <name>Point_Lane_20_6</name>
      </trkpt>
      <trkpt lat="53.600405" lon="10.012739">
        <name>Point_Lane_20_7</name>
      </trkpt>
      <trkpt lat="53.600426" lon="10.012681">
        <name>Point_Lane_20_8</name>
      </trkpt>
      <trkpt lat="53.600450" lon="10.012625">
        <name>Point_Lane_20_9</name>
      </trkpt>
    </trkseg>
  </trk>
  <trk>
    <name>Lane_21</name>
    <trkseg>
      <trkpt lat="53.600136" lon="10.013420">
        <name>Point_Lane_21_0</name>
      </trkpt>
      <trkpt lat="53.600175" lon="10.013411">
        <name>Point_Lane_21_1</name>
      </trkpt>
      <trkpt lat="53.600215" lon="10.013402">
        <name>Point_Lane_21_2</name>
      </trkpt>
      <trkpt lat="53.600254" lon="10.013394">
        <name>Point_Lane_21_3</name>
      </trkpt>
      <trkpt lat="53.600294" lon="10.013387">
        <name>Point_Lane_21_4</name>
      </trkpt>
      <trkpt lat="53.600333" lon="10.013381">
        <name>Point_Lane_21_5</name>
      </trkpt>
      <trkpt lat="53.600373" lon="10.013376">
        <name>Point_Lane_21_6</name>
      </trkpt>
      <trkpt lat="53.600413" lon="10.013372">
        <name>Point_Lane_21_7</name>
      </trkpt>
      <trkpt lat="53.600452" lon="10.013368">
        <name>Point_Lane_21_8</name>
      </trkpt>
      <trkpt lat="53.600492" lon="10.013366">
        <name>Point_Lane_21_9</name>
      </trkpt>
    </trkseg>
  </trk>
  <trk>
    <name>Lane_22</name>
    <trkseg>
      <trkpt lat="53.599749" lon="10.012198">
        <name>Point_Lane_22_0</name>
      </trkpt>
      <trkpt lat="53.599758" lon="10.012317">
        <name>Point_Lane_22_1</name>
      </trkpt>
      <trkpt lat="53.599769" lon="10.012435">
        <name>Point_Lane_22_2</name>
      </trkpt>
      <trkpt lat="53.599783" lon="10.012553">
        <name>Point_Lane_22_3</name>
      </trkpt>
      <trkpt lat="53.599798" lon="10.012671">
        <name>Point_Lane_22_4</name>
      </trkpt>
      <trkpt lat="53.599813" lon="10.012788">
        <name>Point_Lane_22_5</name>
      </trkpt>
      <trkpt lat="53.599827" lon="10.012906">
        <name>Point_Lane_22_6</name>
      </trkpt>
      <trkpt lat="53.599840" lon="10.013024">
        <name>Point_Lane_22_7</name>
      </trkpt>
      <trkpt lat="53.599850" lon="10.013143">
        <name>Point_Lane_22_8</name>
      </trkpt>
      <trkpt lat="53.599857" lon="10.013262">
        <name>Point_Lane_22_9</name>
      </trkpt>
    </trkseg>
  </trk>
  <trk>
    <name>Lane_23</name>
    <trkseg>
      <trkpt lat="53.600441" lon="10.013368">
        <name>Point_Lane_23_0</name>
      </trkpt>
      <trkpt lat="53.600476" lon="10.013356">
        <name>Point_Lane_23_1</name>
      </trkpt>
      <trkpt lat="53.600511" lon="10.013344">
        <name>Point_Lane_23_2</name>
      </trkpt>
      <trkpt lat="53.600546" lon="10.013332">
        <name>Point_Lane_23_3</name>
      </trkpt>
      <trkpt lat="53.600581" lon="10.013320">
        <name>Point_Lane_23_4</name>
      </trkpt>
      <trkpt lat="53.600616" lon="10.013310">
        <name>Point_Lane_23_5</name>
      </trkpt>
      <trkpt lat="53.600652" lon="10.013300">
        <name>Point_Lane_23_6</name>
      </trkpt>
      <trkpt lat="53.600687" lon="10.013292">
        <name>Point_Lane_23_7</name>
      </trkpt>
      <trkpt lat="53.600723" lon="10.013286">
        <name>Point_Lane_23_8</name>
      </trkpt>
      <trkpt lat="53.600758" lon="10.013282">
        <name>Point_Lane_23_9</name>
      </trkpt>
    </trkseg>
  </trk>
  <trk>
    <name>Lane_24</name>
    <trkseg>
      <trkpt lat="53.600285" lon="10.013389">
        <name>Point_Lane_24_0</name>
      </trkpt>
      <trkpt lat="53.600338" lon="10.013382">
        <name>Point_Lane_24_1</name>
      </trkpt>
      <trkpt lat="53.600391" lon="10.013373">
        <name>Point_Lane_24_2</name>
      </trkpt>
      <trkpt lat="53.600444" lon="10.013361">
        <name>Point_Lane_24_3</name>
      </trkpt>
      <trkpt lat="53.600496" lon="10.013347">
        <name>Point_Lane_24_4</name>
      </trkpt>
      <trkpt lat="53.600548" lon="10.013332">
        <name>Point_Lane_24_5</name>
      </trkpt>
      <trkpt lat="53.600601" lon="10.013316">
        <name>Point_Lane_24_6</name>
      </trkpt>
      <trkpt lat="53.600653" lon="10.013300">
        <name>Point_Lane_24_7</name>
      </trkpt>
      <trkpt lat="53.600705" lon="10.013283">
        <name>Point_Lane_24_8</name>
      </trkpt>
      <trkpt lat="53.600757" lon="10.013267">
        <name>Point_Lane_24_9</name>
      </trkpt>
    </trkseg>
  </trk>
  <trk>
    <name>Lane_25</name>
    <trkseg>
      <trkpt lat="53.599688" lon="10.012197">
        <name>Point_Lane_25_0</name>
      </trkpt>
      <trkpt lat="53.599692" lon="10.012319">
        <name>Point_Lane_25_1</name>
      </trkpt>
      <trkpt lat="53.599701" lon="10.012440">
        <name>Point_Lane_25_2</name>
      </trkpt>
      <trkpt lat="53.599713" lon="10.012560">
        <name>Point_Lane_25_3</name>
      </trkpt>
      <trkpt lat="53.599728" lon="10.012679">
        <name>Point_Lane_25_4</name>
      </trkpt>
      <trkpt lat="53.599744" lon="10.012798">
        <name>Point_Lane_25_5</name>
      </trkpt>
      <trkpt lat="53.599760" lon="10.012917">
        <name>Point_Lane_25_6</name>
      </trkpt>
      <trkpt lat="53.599773" lon="10.013037">
        <name>Point_Lane_25_7</name>
      </trkpt>
      <trkpt lat="53.599783" lon="10.013158">
        <name>Point_Lane_25_8</name>
      </trkpt>
      <trkpt lat="53.599789" lon="10.013279">
        <name>Point_Lane_25_9</name>
      </trkpt>
    </trkseg>
  </trk>
  <trk>
    <name>Lane_26</name>
    <trkseg>
      <trkpt lat="53.600146" lon="10.013538">
        <name>Point_Lane_26_0</name>
      </trkpt>
      <trkpt lat="53.600212" lon="10.013533">
        <name>Point_Lane_26_1</name>
      </trkpt>
      <trkpt lat="53.600278" lon="10.013528">
        <name>Point_Lane_26_2</name>
      </trkpt>
      <trkpt lat="53.600344" lon="10.013522">
        <name>Point_Lane_26_3</name>
      </trkpt>
      <trkpt lat="53.600411" lon="10.013516">
        <name>Point_Lane_26_4</name>
      </trkpt>
      <trkpt lat="53.600477" lon="10.013508">
        <name>Point_Lane_26_5</name>
      </trkpt>
      <trkpt lat="53.600543" lon="10.013499">
        <name>Point_Lane_26_6</name>
      </trkpt>
      <trkpt lat="53.600609" lon="10.013487">
        <name>Point_Lane_26_7</name>
      </trkpt>
      <trkpt lat="53.600675" lon="10.013473">
        <name>Point_Lane_26_8</name>
      </trkpt>
      <trkpt lat="53.600741" lon="10.013457">
        <name>Point_Lane_26_9</name>
      </trkpt>
    </trkseg>
  </trk>
  <trk>
    <name>Lane_27</name>
    <trkseg>
      <trkpt lat="53.600758" lon="10.013433">
        <name>Point_Lane_27_0</name>
      </trkpt>
      <trkpt lat="53.600714" lon="10.013441">
        <name>Point_Lane_27_1</name>
      </trkpt>
      <trkpt lat="53.600671" lon="10.013453">
        <name>Point_Lane_27_2</name>
      </trkpt>
      <trkpt lat="53.600627" lon="10.013469">
        <name>Point_Lane_27_3</name>
      </trkpt>
      <trkpt lat="53.600584" lon="10.013486">
        <name>Point_Lane_27_4</name>
      </trkpt>
      <trkpt lat="53.600541" lon="10.013502">
        <name>Point_Lane_27_5</name>
      </trkpt>
      <trkpt lat="53.600497" lon="10.013513">
        <name>Point_Lane_27_6</name>
      </trkpt>
      <trkpt lat="53.600453" lon="10.013518">
        <name>Point_Lane_27_7</name>
      </trkpt>
      <trkpt lat="53.600409" lon="10.013513">
        <name>Point_Lane_27_8</name>
      </trkpt>
      <trkpt lat="53.600365" lon="10.013502">
        <name>Point_Lane_27_9</name>
      </trkpt>
    </trkseg>
  </trk>
  <trk>
    <name>Lane_30</name>
    <trkseg>
      <trkpt lat="53.600149" lon="10.013495">
        <name>Point_Lane_30_0</name>
      </trkpt>
      <trkpt lat="53.600185" lon="10.013476">
        <name>Point_Lane_30_1</name>
      </trkpt>
      <trkpt lat="53.600222" lon="10.013461">
        <name>Point_Lane_30_2</name>
      </trkpt>
      <trkpt lat="53.600259" lon="10.013450">
        <name>Point_Lane_30_3</name>
      </trkpt>
      <trkpt lat="53.600297" lon="10.013443">
        <name>Point_Lane_30_4</name>
      </trkpt>
      <trkpt lat="53.600335" lon="10.013440">
        <name>Point_Lane_30_5</name>
      </trkpt>
      <trkpt lat="53.600373" lon="10.013439">
        <name>Point_Lane_30_6</name>
      </trkpt>
      <trkpt lat="53.600411" lon="10.013440">
        <name>Point_Lane_30_7</name>
      </trkpt>
      <trkpt lat="53.600449" lon="10.013443">
        <name>Point_Lane_30_8</name>
      </trkpt>
      <trkpt lat="53.600487" lon="10.013447">
        <name>Point_Lane_30_9</name>
      </trkpt>
    </trkseg>
  </trk>
  <trk>
    <name>Lane_31</name>
    <trkseg>
      <trkpt lat="53.599810" lon="10.013033">
        <name>Point_Lane_31_0</name>
      </trkpt>
      <trkpt lat="53.599809" lon="10.012940">
        <name>Point_Lane_31_1</name>
      </trkpt>
      <trkpt lat="53.599805" lon="10.012848">
        <name>Point_Lane_31_2</name>
      </trkpt>
      <trkpt lat="53.599800" lon="10.012756">
        <name>Point_Lane_31_3</name>
      </trkpt>
      <trkpt lat="53.599792" lon="10.012664">
        <name>Point_Lane_31_4</name>
      </trkpt>
      <trkpt lat="53.599782" lon="10.012572">
        <name>Point_Lane_31_5</name>
      </trkpt>
      <trkpt lat="53.599772" lon="10.012481">
        <name>Point_Lane_31_6</name>
      </trkpt>
      <trkpt lat="53.599761" lon="10.012390">
        <name>Point_Lane_31_7</name>
      </trkpt>
      <trkpt lat="53.599751" lon="10.012299">
        <name>Point_Lane_31_8</name>
      </trkpt>
      <trkpt lat="53.599740" lon="10.012208">
        <name>Point_Lane_31_9</name>
      </trkpt>
    </trkseg>
  </trk>
  <trk>
    <name>Lane_32</name>
    <trkseg>
      <trkpt lat="53.600509" lon="10.013521">
        <name>Point_Lane_32_0</name>
      </trkpt>
      <trkpt lat="53.600469" lon="10.013525">
        <name>Point_Lane_32_1</name>
      </trkpt>
      <trkpt lat="53.600429" lon="10.013526">
        <name>Point_Lane_32_2</name>
      </trkpt>
      <trkpt lat="53.600389" lon="10.013527">
        <name>Point_Lane_32_3</name>
      </trkpt>
      <trkpt lat="53.600348" lon="10.013528">
        <name>Point_Lane_32_4</name>
      </trkpt>
      <trkpt lat="53.600308" lon="10.013530">
        <name>Point_Lane_32_5</name>
      </trkpt>
      <trkpt lat="53.600268" lon="10.013536">
        <name>Point_Lane_32_6</name>
      </trkpt>
      <trkpt lat="53.600228" lon="10.013547">
        <name>Point_Lane_32_7</name>
      </trkpt>
      <trkpt lat="53.600189" lon="10.013564">
        <name>Point_Lane_32_8</name>
      </trkpt>
      <trkpt lat="53.600151" lon="10.013584">
        <name>Point_Lane_32_9</name>
      </trkpt>
    </trkseg>
  </trk>
  <trk>
    <name>Lane_33</name>
    <trkseg>
      <trkpt lat="53.600381" lon="10.013414">
        <name>Point_Lane_33_0</name>
      </trkpt>
      <trkpt lat="53.600422" lon="10.013414">
        <name>Point_Lane_33_1</name>
      </trkpt>
      <trkpt lat="53.600463" lon="10.013410">
        <name>Point_Lane_33_2</name>
      </trkpt>
      <trkpt lat="53.600504" lon="10.013401">
        <name>Point_Lane_33_3</name>
      </trkpt>
      <trkpt lat="53.600545" lon="10.013390">
        <name>Point_Lane_33_4</name>
      </trkpt>
      <trkpt lat="53.600585" lon="10.013380">
        <name>Point_Lane_33_5</name>
      </trkpt>
      <trkpt lat="53.600626" lon="10.013372">
        <name>Point_Lane_33_6</name>
      </trkpt>
      <trkpt lat="53.600667" lon="10.013368">
        <name>Point_Lane_33_7</name>
      </trkpt>
      <trkpt lat="53.600708" lon="10.013373">
        <name>Point_Lane_33_8</name>
      </trkpt>
      <trkpt lat="53.600749" lon="10.013382">
        <name>Point_Lane_33_9</name>
      </trkpt>
    </trkseg>
  </trk>
  <trk>
    <name>Lane_34</name>
    <trkseg>
      <trkpt lat="53.600144" lon="10.013566">
        <name>Point_Lane_34_0</name>
      </trkpt>
      <trkpt lat="53.600194" lon="10.013547">
        <name>Point_Lane_34_1</name>
      </trkpt>
      <trkpt lat="53.600246" lon="10.013532">
        <name>Point_Lane_34_2</name>
      </trkpt>
      <trkpt lat="53.600298" lon="10.013522">
        <name>Point_Lane_34_3</name>
      </trkpt>
      <trkpt lat="53.600350" lon="10.013516">
        <name>Point_Lane_34_4</name>
      </trkpt>
      <trkpt lat="53.600402" lon="10.013513">
        <name>Point_Lane_34_5</name>
      </trkpt>
      <trkpt lat="53.600454" lon="10.013510">
        <name>Point_Lane_34_6</name>
      </trkpt>
      <trkpt lat="53.600506" lon="10.013505">
        <name>Point_Lane_34_7</name>
      </trkpt>
      <trkpt lat="53.600558" lon="10.013499">
        <name>Point_Lane_34_8</name>
      </trkpt>
      <trkpt lat="53.600610" lon="10.013490">
        <name>Point_Lane_34_9</name>
      </trkpt>
    </trkseg>
  </trk>
</gpx>