<?xml version='1.0' encoding='utf-8'?>
<gpx version="1.1" creator="Custom Script">
  <metadata>
    <time>2025-08-11T14:25:00.548098</time>
  </metadata>
  <trk>
    <name>Lane_0</name>
    <trkseg>
      <trkpt lat="53.567536" lon="10.001181">
        <name>Point_Lane_0_0</name>
      </trkpt>
      <trkpt lat="53.567558" lon="10.001175">
        <name>Point_Lane_0_1</name>
      </trkpt>
      <trkpt lat="53.567579" lon="10.001168">
        <name>Point_Lane_0_2</name>
      </trkpt>
      <trkpt lat="53.567601" lon="10.001162">
        <name>Point_Lane_0_3</name>
      </trkpt>
      <trkpt lat="53.567622" lon="10.001156">
        <name>Point_Lane_0_4</name>
      </trkpt>
      <trkpt lat="53.567644" lon="10.001150">
        <name>Point_Lane_0_5</name>
      </trkpt>
      <trkpt lat="53.567665" lon="10.001143">
        <name>Point_Lane_0_6</name>
      </trkpt>
      <trkpt lat="53.567686" lon="10.001137">
        <name>Point_Lane_0_7</name>
      </trkpt>
      <trkpt lat="53.567708" lon="10.001130">
        <name>Point_Lane_0_8</name>
      </trkpt>
      <trkpt lat="53.567729" lon="10.001122">
        <name>Point_Lane_0_9</name>
      </trkpt>
    </trkseg>
  </trk>
  <trk>
    <name>Lane_1</name>
    <trkseg>
      <trkpt lat="53.567729" lon="10.001070">
        <name>Point_Lane_1_0</name>
      </trkpt>
      <trkpt lat="53.567710" lon="10.001077">
        <name>Point_Lane_1_1</name>
      </trkpt>
      <trkpt lat="53.567691" lon="10.001083">
        <name>Point_Lane_1_2</name>
      </trkpt>
      <trkpt lat="53.567672" lon="10.001089">
        <name>Point_Lane_1_3</name>
      </trkpt>
      <trkpt lat="53.567653" lon="10.001095">
        <name>Point_Lane_1_4</name>
      </trkpt>
      <trkpt lat="53.567634" lon="10.001100">
        <name>Point_Lane_1_5</name>
      </trkpt>
      <trkpt lat="53.567615" lon="10.001105">
        <name>Point_Lane_1_6</name>
      </trkpt>
      <trkpt lat="53.567596" lon="10.001111">
        <name>Point_Lane_1_7</name>
      </trkpt>
      <trkpt lat="53.567577" lon="10.001117">
        <name>Point_Lane_1_8</name>
      </trkpt>
      <trkpt lat="53.567558" lon="10.001124">
        <name>Point_Lane_1_9</name>
      </trkpt>
    </trkseg>
  </trk>
  <trk>
    <name>Lane_2</name>
    <trkseg>
      <trkpt lat="53.567489" lon="10.001196">
        <name>Point_Lane_2_0</name>
      </trkpt>
      <trkpt lat="53.567443" lon="10.001205">
        <name>Point_Lane_2_1</name>
      </trkpt>
      <trkpt lat="53.567398" lon="10.001215">
        <name>Point_Lane_2_2</name>
      </trkpt>
      <trkpt lat="53.567353" lon="10.001227">
        <name>Point_Lane_2_3</name>
      </trkpt>
      <trkpt lat="53.567308" lon="10.001239">
        <name>Point_Lane_2_4</name>
      </trkpt>
      <trkpt lat="53.567262" lon="10.001250">
        <name>Point_Lane_2_5</name>
      </trkpt>
      <trkpt lat="53.567217" lon="10.001258">
        <name>Point_Lane_2_6</name>
      </trkpt>
      <trkpt lat="53.567171" lon="10.001262">
        <name>Point_Lane_2_7</name>
      </trkpt>
      <trkpt lat="53.567126" lon="10.001262">
        <name>Point_Lane_2_8</name>
      </trkpt>
      <trkpt lat="53.567080" lon="10.001258">
        <name>Point_Lane_2_9</name>
      </trkpt>
    </trkseg>
  </trk>
  <trk>
    <name>Lane_3</name>
    <trkseg>
      <trkpt lat="53.567490" lon="10.001143">
        <name>Point_Lane_3_0</name>
      </trkpt>
      <trkpt lat="53.567445" lon="10.001150">
        <name>Point_Lane_3_1</name>
      </trkpt>
      <trkpt lat="53.567399" lon="10.001158">
        <name>Point_Lane_3_2</name>
      </trkpt>
      <trkpt lat="53.567354" lon="10.001166">
        <name>Point_Lane_3_3</name>
      </trkpt>
      <trkpt lat="53.567308" lon="10.001175">
        <name>Point_Lane_3_4</name>
      </trkpt>
      <trkpt lat="53.567263" lon="10.001182">
        <name>Point_Lane_3_5</name>
      </trkpt>
      <trkpt lat="53.567218" lon="10.001189">
        <name>Point_Lane_3_6</name>
      </trkpt>
      <trkpt lat="53.567172" lon="10.001194">
        <name>Point_Lane_3_7</name>
      </trkpt>
      <trkpt lat="53.567126" lon="10.001197">
        <name>Point_Lane_3_8</name>
      </trkpt>
      <trkpt lat="53.567081" lon="10.001198">
        <name>Point_Lane_3_9</name>
      </trkpt>
    </trkseg>
  </trk>
</gpx>