<?xml version='1.0' encoding='utf-8'?>
<gpx version="1.1" creator="Custom Script">
  <metadata>
    <time>2025-08-11T14:25:14.529884</time>
  </metadata>
  <trk>
    <name>Lane_0</name>
    <trkseg>
      <trkpt lat="53.586235" lon="10.016880">
        <name>Point_Lane_0_0</name>
      </trkpt>
      <trkpt lat="53.586252" lon="10.016929">
        <name>Point_Lane_0_1</name>
      </trkpt>
      <trkpt lat="53.586269" lon="10.016978">
        <name>Point_Lane_0_2</name>
      </trkpt>
      <trkpt lat="53.586287" lon="10.017026">
        <name>Point_Lane_0_3</name>
      </trkpt>
      <trkpt lat="53.586306" lon="10.017074">
        <name>Point_Lane_0_4</name>
      </trkpt>
      <trkpt lat="53.586325" lon="10.017122">
        <name>Point_Lane_0_5</name>
      </trkpt>
      <trkpt lat="53.586344" lon="10.017169">
        <name>Point_Lane_0_6</name>
      </trkpt>
      <trkpt lat="53.586363" lon="10.017216">
        <name>Point_Lane_0_7</name>
      </trkpt>
      <trkpt lat="53.586382" lon="10.017263">
        <name>Point_Lane_0_8</name>
      </trkpt>
      <trkpt lat="53.586401" lon="10.017311">
        <name>Point_Lane_0_9</name>
      </trkpt>
    </trkseg>
  </trk>
  <trk>
    <name>Lane_1</name>
    <trkseg>
      <trkpt lat="53.586642" lon="10.017366">
        <name>Point_Lane_1_0</name>
      </trkpt>
      <trkpt lat="53.586668" lon="10.017350">
        <name>Point_Lane_1_1</name>
      </trkpt>
      <trkpt lat="53.586693" lon="10.017334">
        <name>Point_Lane_1_2</name>
      </trkpt>
      <trkpt lat="53.586719" lon="10.017318">
        <name>Point_Lane_1_3</name>
      </trkpt>
      <trkpt lat="53.586744" lon="10.017302">
        <name>Point_Lane_1_4</name>
      </trkpt>
      <trkpt lat="53.586770" lon="10.017286">
        <name>Point_Lane_1_5</name>
      </trkpt>
      <trkpt lat="53.586795" lon="10.017270">
        <name>Point_Lane_1_6</name>
      </trkpt>
      <trkpt lat="53.586821" lon="10.017255">
        <name>Point_Lane_1_7</name>
      </trkpt>
      <trkpt lat="53.586847" lon="10.017240">
        <name>Point_Lane_1_8</name>
      </trkpt>
      <trkpt lat="53.586873" lon="10.017226">
        <name>Point_Lane_1_9</name>
      </trkpt>
    </trkseg>
  </trk>
  <trk>
    <name>Lane_2</name>
    <trkseg>
      <trkpt lat="53.586725" lon="10.017557">
        <name>Point_Lane_2_0</name>
      </trkpt>
      <trkpt lat="53.586742" lon="10.017546">
        <name>Point_Lane_2_1</name>
      </trkpt>
      <trkpt lat="53.586759" lon="10.017535">
        <name>Point_Lane_2_2</name>
      </trkpt>
      <trkpt lat="53.586776" lon="10.017524">
        <name>Point_Lane_2_3</name>
      </trkpt>
      <trkpt lat="53.586793" lon="10.017512">
        <name>Point_Lane_2_4</name>
      </trkpt>
      <trkpt lat="53.586810" lon="10.017500">
        <name>Point_Lane_2_5</name>
      </trkpt>
      <trkpt lat="53.586827" lon="10.017487">
        <name>Point_Lane_2_6</name>
      </trkpt>
      <trkpt lat="53.586843" lon="10.017475">
        <name>Point_Lane_2_7</name>
      </trkpt>
      <trkpt lat="53.586860" lon="10.017463">
        <name>Point_Lane_2_8</name>
      </trkpt>
      <trkpt lat="53.586877" lon="10.017450">
        <name>Point_Lane_2_9</name>
      </trkpt>
    </trkseg>
  </trk>
  <trk>
    <name>Lane_3</name>
    <trkseg>
      <trkpt lat="53.586469" lon="10.017336">
        <name>Point_Lane_3_0</name>
      </trkpt>
      <trkpt lat="53.586443" lon="10.017289">
        <name>Point_Lane_3_1</name>
      </trkpt>
      <trkpt lat="53.586418" lon="10.017241">
        <name>Point_Lane_3_2</name>
      </trkpt>
      <trkpt lat="53.586394" lon="10.017191">
        <name>Point_Lane_3_3</name>
      </trkpt>
      <trkpt lat="53.586372" lon="10.017138">
        <name>Point_Lane_3_4</name>
      </trkpt>
      <trkpt lat="53.586351" lon="10.017085">
        <name>Point_Lane_3_5</name>
      </trkpt>
      <trkpt lat="53.586331" lon="10.017031">
        <name>Point_Lane_3_6</name>
      </trkpt>
      <trkpt lat="53.586310" lon="10.016978">
        <name>Point_Lane_3_7</name>
      </trkpt>
      <trkpt lat="53.586289" lon="10.016924">
        <name>Point_Lane_3_8</name>
      </trkpt>
      <trkpt lat="53.586268" lon="10.016871">
        <name>Point_Lane_3_9</name>
      </trkpt>
    </trkseg>
  </trk>
  <trk>
    <name>Lane_4</name>
    <trkseg>
      <trkpt lat="53.586223" lon="10.017708">
        <name>Point_Lane_4_0</name>
      </trkpt>
      <trkpt lat="53.586240" lon="10.017696">
        <name>Point_Lane_4_1</name>
      </trkpt>
      <trkpt lat="53.586256" lon="10.017683">
        <name>Point_Lane_4_2</name>
      </trkpt>
      <trkpt lat="53.586273" lon="10.017672">
        <name>Point_Lane_4_3</name>
      </trkpt>
      <trkpt lat="53.586290" lon="10.017660">
        <name>Point_Lane_4_4</name>
      </trkpt>
      <trkpt lat="53.586307" lon="10.017649">
        <name>Point_Lane_4_5</name>
      </trkpt>
      <trkpt lat="53.586324" lon="10.017638">
        <name>Point_Lane_4_6</name>
      </trkpt>
      <trkpt lat="53.586341" lon="10.017627">
        <name>Point_Lane_4_7</name>
      </trkpt>
      <trkpt lat="53.586358" lon="10.017615">
        <name>Point_Lane_4_8</name>
      </trkpt>
      <trkpt lat="53.586375" lon="10.017603">
        <name>Point_Lane_4_9</name>
      </trkpt>
    </trkseg>
  </trk>
  <trk>
    <name>Lane_5</name>
    <trkseg>
      <trkpt lat="53.586221" lon="10.017876">
        <name>Point_Lane_5_0</name>
      </trkpt>
      <trkpt lat="53.586242" lon="10.017868">
        <name>Point_Lane_5_1</name>
      </trkpt>
      <trkpt lat="53.586262" lon="10.017858">
        <name>Point_Lane_5_2</name>
      </trkpt>
      <trkpt lat="53.586283" lon="10.017847">
        <name>Point_Lane_5_3</name>
      </trkpt>
      <trkpt lat="53.586303" lon="10.017834">
        <name>Point_Lane_5_4</name>
      </trkpt>
      <trkpt lat="53.586323" lon="10.017821">
        <name>Point_Lane_5_5</name>
      </trkpt>
      <trkpt lat="53.586343" lon="10.017809">
        <name>Point_Lane_5_6</name>
      </trkpt>
      <trkpt lat="53.586363" lon="10.017797">
        <name>Point_Lane_5_7</name>
      </trkpt>
      <trkpt lat="53.586384" lon="10.017786">
        <name>Point_Lane_5_8</name>
      </trkpt>
      <trkpt lat="53.586405" lon="10.017777">
        <name>Point_Lane_5_9</name>
      </trkpt>
    </trkseg>
  </trk>
  <trk>
    <name>Lane_6</name>
    <trkseg>
      <trkpt lat="53.586663" lon="10.017404">
        <name>Point_Lane_6_0</name>
      </trkpt>
      <trkpt lat="53.586687" lon="10.017390">
        <name>Point_Lane_6_1</name>
      </trkpt>
      <trkpt lat="53.586710" lon="10.017375">
        <name>Point_Lane_6_2</name>
      </trkpt>
      <trkpt lat="53.586733" lon="10.017360">
        <name>Point_Lane_6_3</name>
      </trkpt>
      <trkpt lat="53.586756" lon="10.017344">
        <name>Point_Lane_6_4</name>
      </trkpt>
      <trkpt lat="53.586780" lon="10.017328">
        <name>Point_Lane_6_5</name>
      </trkpt>
      <trkpt lat="53.586803" lon="10.017314">
        <name>Point_Lane_6_6</name>
      </trkpt>
      <trkpt lat="53.586827" lon="10.017300">
        <name>Point_Lane_6_7</name>
      </trkpt>
      <trkpt lat="53.586851" lon="10.017288">
        <name>Point_Lane_6_8</name>
      </trkpt>
      <trkpt lat="53.586875" lon="10.017277">
        <name>Point_Lane_6_9</name>
      </trkpt>
    </trkseg>
  </trk>
  <trk>
    <name>Lane_7</name>
    <trkseg>
      <trkpt lat="53.586221" lon="10.017827">
        <name>Point_Lane_7_0</name>
      </trkpt>
      <trkpt lat="53.586240" lon="10.017818">
        <name>Point_Lane_7_1</name>
      </trkpt>
      <trkpt lat="53.586259" lon="10.017808">
        <name>Point_Lane_7_2</name>
      </trkpt>
      <trkpt lat="53.586279" lon="10.017798">
        <name>Point_Lane_7_3</name>
      </trkpt>
      <trkpt lat="53.586297" lon="10.017786">
        <name>Point_Lane_7_4</name>
      </trkpt>
      <trkpt lat="53.586316" lon="10.017774">
        <name>Point_Lane_7_5</name>
      </trkpt>
      <trkpt lat="53.586335" lon="10.017762">
        <name>Point_Lane_7_6</name>
      </trkpt>
      <trkpt lat="53.586354" lon="10.017750">
        <name>Point_Lane_7_7</name>
      </trkpt>
      <trkpt lat="53.586373" lon="10.017739">
        <name>Point_Lane_7_8</name>
      </trkpt>
      <trkpt lat="53.586392" lon="10.017729">
        <name>Point_Lane_7_9</name>
      </trkpt>
    </trkseg>
  </trk>
  <trk>
    <name>Lane_8</name>
    <trkseg>
      <trkpt lat="53.586703" lon="10.017517">
        <name>Point_Lane_8_0</name>
      </trkpt>
      <trkpt lat="53.586722" lon="10.017504">
        <name>Point_Lane_8_1</name>
      </trkpt>
      <trkpt lat="53.586741" lon="10.017490">
        <name>Point_Lane_8_2</name>
      </trkpt>
      <trkpt lat="53.586759" lon="10.017476">
        <name>Point_Lane_8_3</name>
      </trkpt>
      <trkpt lat="53.586778" lon="10.017462">
        <name>Point_Lane_8_4</name>
      </trkpt>
      <trkpt lat="53.586797" lon="10.017448">
        <name>Point_Lane_8_5</name>
      </trkpt>
      <trkpt lat="53.586816" lon="10.017434">
        <name>Point_Lane_8_6</name>
      </trkpt>
      <trkpt lat="53.586835" lon="10.017421">
        <name>Point_Lane_8_7</name>
      </trkpt>
      <trkpt lat="53.586854" lon="10.017408">
        <name>Point_Lane_8_8</name>
      </trkpt>
      <trkpt lat="53.586873" lon="10.017396">
        <name>Point_Lane_8_9</name>
      </trkpt>
    </trkseg>
  </trk>
  <trk>
    <name>Lane_9</name>
    <trkseg>
      <trkpt lat="53.586685" lon="10.017442">
        <name>Point_Lane_9_0</name>
      </trkpt>
      <trkpt lat="53.586707" lon="10.017430">
        <name>Point_Lane_9_1</name>
      </trkpt>
      <trkpt lat="53.586729" lon="10.017418">
        <name>Point_Lane_9_2</name>
      </trkpt>
      <trkpt lat="53.586750" lon="10.017405">
        <name>Point_Lane_9_3</name>
      </trkpt>
      <trkpt lat="53.586772" lon="10.017392">
        <name>Point_Lane_9_4</name>
      </trkpt>
      <trkpt lat="53.586793" lon="10.017378">
        <name>Point_Lane_9_5</name>
      </trkpt>
      <trkpt lat="53.586814" lon="10.017364">
        <name>Point_Lane_9_6</name>
      </trkpt>
      <trkpt lat="53.586836" lon="10.017351">
        <name>Point_Lane_9_7</name>
      </trkpt>
      <trkpt lat="53.586857" lon="10.017339">
        <name>Point_Lane_9_8</name>
      </trkpt>
      <trkpt lat="53.586879" lon="10.017327">
        <name>Point_Lane_9_9</name>
      </trkpt>
    </trkseg>
  </trk>
  <trk>
    <name>Lane_10</name>
    <trkseg>
      <trkpt lat="53.586220" lon="10.017777">
        <name>Point_Lane_10_0</name>
      </trkpt>
      <trkpt lat="53.586239" lon="10.017767">
        <name>Point_Lane_10_1</name>
      </trkpt>
      <trkpt lat="53.586257" lon="10.017756">
        <name>Point_Lane_10_2</name>
      </trkpt>
      <trkpt lat="53.586275" lon="10.017745">
        <name>Point_Lane_10_3</name>
      </trkpt>
      <trkpt lat="53.586293" lon="10.017733">
        <name>Point_Lane_10_4</name>
      </trkpt>
      <trkpt lat="53.586311" lon="10.017722">
        <name>Point_Lane_10_5</name>
      </trkpt>
      <trkpt lat="53.586329" lon="10.017710">
        <name>Point_Lane_10_6</name>
      </trkpt>
      <trkpt lat="53.586347" lon="10.017699">
        <name>Point_Lane_10_7</name>
      </trkpt>
      <trkpt lat="53.586365" lon="10.017688">
        <name>Point_Lane_10_8</name>
      </trkpt>
      <trkpt lat="53.586383" lon="10.017677">
        <name>Point_Lane_10_9</name>
      </trkpt>
    </trkseg>
  </trk>
  <trk>
    <name>Lane_11</name>
    <trkseg>
      <trkpt lat="53.586612" lon="10.017801">
        <name>Point_Lane_11_0</name>
      </trkpt>
      <trkpt lat="53.586634" lon="10.017858">
        <name>Point_Lane_11_1</name>
      </trkpt>
      <trkpt lat="53.586657" lon="10.017912">
        <name>Point_Lane_11_2</name>
      </trkpt>
      <trkpt lat="53.586682" lon="10.017965">
        <name>Point_Lane_11_3</name>
      </trkpt>
      <trkpt lat="53.586708" lon="10.018015">
        <name>Point_Lane_11_4</name>
      </trkpt>
      <trkpt lat="53.586734" lon="10.018065">
        <name>Point_Lane_11_5</name>
      </trkpt>
      <trkpt lat="53.586761" lon="10.018115">
        <name>Point_Lane_11_6</name>
      </trkpt>
      <trkpt lat="53.586786" lon="10.018166">
        <name>Point_Lane_11_7</name>
      </trkpt>
      <trkpt lat="53.586811" lon="10.018219">
        <name>Point_Lane_11_8</name>
      </trkpt>
      <trkpt lat="53.586834" lon="10.018273">
        <name>Point_Lane_11_9</name>
      </trkpt>
    </trkseg>
  </trk>
  <trk>
    <name>Lane_12</name>
    <trkseg>
      <trkpt lat="53.586222" lon="10.017648">
        <name>Point_Lane_12_0</name>
      </trkpt>
      <trkpt lat="53.586238" lon="10.017636">
        <name>Point_Lane_12_1</name>
      </trkpt>
      <trkpt lat="53.586254" lon="10.017624">
        <name>Point_Lane_12_2</name>
      </trkpt>
      <trkpt lat="53.586270" lon="10.017613">
        <name>Point_Lane_12_3</name>
      </trkpt>
      <trkpt lat="53.586286" lon="10.017602">
        <name>Point_Lane_12_4</name>
      </trkpt>
      <trkpt lat="53.586303" lon="10.017592">
        <name>Point_Lane_12_5</name>
      </trkpt>
      <trkpt lat="53.586319" lon="10.017582">
        <name>Point_Lane_12_6</name>
      </trkpt>
      <trkpt lat="53.586336" lon="10.017572">
        <name>Point_Lane_12_7</name>
      </trkpt>
      <trkpt lat="53.586352" lon="10.017562">
        <name>Point_Lane_12_8</name>
      </trkpt>
      <trkpt lat="53.586368" lon="10.017553">
        <name>Point_Lane_12_9</name>
      </trkpt>
    </trkseg>
  </trk>
  <trk>
    <name>Lane_13</name>
    <trkseg>
      <trkpt lat="53.586660" lon="10.017839">
        <name>Point_Lane_13_0</name>
      </trkpt>
      <trkpt lat="53.586683" lon="10.017884">
        <name>Point_Lane_13_1</name>
      </trkpt>
      <trkpt lat="53.586705" lon="10.017929">
        <name>Point_Lane_13_2</name>
      </trkpt>
      <trkpt lat="53.586726" lon="10.017976">
        <name>Point_Lane_13_3</name>
      </trkpt>
      <trkpt lat="53.586746" lon="10.018023">
        <name>Point_Lane_13_4</name>
      </trkpt>
      <trkpt lat="53.586766" lon="10.018071">
        <name>Point_Lane_13_5</name>
      </trkpt>
      <trkpt lat="53.586786" lon="10.018119">
        <name>Point_Lane_13_6</name>
      </trkpt>
      <trkpt lat="53.586807" lon="10.018166">
        <name>Point_Lane_13_7</name>
      </trkpt>
      <trkpt lat="53.586828" lon="10.018212">
        <name>Point_Lane_13_8</name>
      </trkpt>
      <trkpt lat="53.586850" lon="10.018258">
        <name>Point_Lane_13_9</name>
      </trkpt>
    </trkseg>
  </trk>
  <trk>
    <name>Lane_14</name>
    <trkseg>
      <trkpt lat="53.586691" lon="10.017595">
        <name>Point_Lane_14_0</name>
      </trkpt>
      <trkpt lat="53.586665" lon="10.017610">
        <name>Point_Lane_14_1</name>
      </trkpt>
      <trkpt lat="53.586638" lon="10.017626">
        <name>Point_Lane_14_2</name>
      </trkpt>
      <trkpt lat="53.586612" lon="10.017643">
        <name>Point_Lane_14_3</name>
      </trkpt>
      <trkpt lat="53.586586" lon="10.017660">
        <name>Point_Lane_14_4</name>
      </trkpt>
      <trkpt lat="53.586560" lon="10.017677">
        <name>Point_Lane_14_5</name>
      </trkpt>
      <trkpt lat="53.586533" lon="10.017694">
        <name>Point_Lane_14_6</name>
      </trkpt>
      <trkpt lat="53.586507" lon="10.017710">
        <name>Point_Lane_14_7</name>
      </trkpt>
      <trkpt lat="53.586480" lon="10.017725">
        <name>Point_Lane_14_8</name>
      </trkpt>
      <trkpt lat="53.586453" lon="10.017740">
        <name>Point_Lane_14_9</name>
      </trkpt>
    </trkseg>
  </trk>
</gpx>