<?xml version='1.0' encoding='utf-8'?>
<gpx version="1.1" creator="Custom Script">
  <metadata>
    <time>2025-08-11T14:25:12.889816</time>
  </metadata>
  <trk>
    <name>Lane_0</name>
    <trkseg>
      <trkpt lat="53.553495" lon="10.024741">
        <name>Point_Lane_0_0</name>
      </trkpt>
      <trkpt lat="53.553503" lon="10.024828">
        <name>Point_Lane_0_1</name>
      </trkpt>
      <trkpt lat="53.553511" lon="10.024916">
        <name>Point_Lane_0_2</name>
      </trkpt>
      <trkpt lat="53.553520" lon="10.025004">
        <name>Point_Lane_0_3</name>
      </trkpt>
      <trkpt lat="53.553528" lon="10.025092">
        <name>Point_Lane_0_4</name>
      </trkpt>
      <trkpt lat="53.553537" lon="10.025179">
        <name>Point_Lane_0_5</name>
      </trkpt>
      <trkpt lat="53.553545" lon="10.025267">
        <name>Point_Lane_0_6</name>
      </trkpt>
      <trkpt lat="53.553554" lon="10.025355">
        <name>Point_Lane_0_7</name>
      </trkpt>
      <trkpt lat="53.553563" lon="10.025443">
        <name>Point_Lane_0_8</name>
      </trkpt>
      <trkpt lat="53.553571" lon="10.025530">
        <name>Point_Lane_0_9</name>
      </trkpt>
    </trkseg>
  </trk>
  <trk>
    <name>Lane_1</name>
    <trkseg>
      <trkpt lat="53.553754" lon="10.024190">
        <name>Point_Lane_1_0</name>
      </trkpt>
      <trkpt lat="53.553792" lon="10.024155">
        <name>Point_Lane_1_1</name>
      </trkpt>
      <trkpt lat="53.553831" lon="10.024123">
        <name>Point_Lane_1_2</name>
      </trkpt>
      <trkpt lat="53.553872" lon="10.024093">
        <name>Point_Lane_1_3</name>
      </trkpt>
      <trkpt lat="53.553912" lon="10.024065">
        <name>Point_Lane_1_4</name>
      </trkpt>
      <trkpt lat="53.553952" lon="10.024034">
        <name>Point_Lane_1_5</name>
      </trkpt>
      <trkpt lat="53.553990" lon="10.024000">
        <name>Point_Lane_1_6</name>
      </trkpt>
      <trkpt lat="53.554026" lon="10.023958">
        <name>Point_Lane_1_7</name>
      </trkpt>
      <trkpt lat="53.554059" lon="10.023909">
        <name>Point_Lane_1_8</name>
      </trkpt>
      <trkpt lat="53.554089" lon="10.023856">
        <name>Point_Lane_1_9</name>
      </trkpt>
    </trkseg>
  </trk>
  <trk>
    <name>Lane_3</name>
    <trkseg>
      <trkpt lat="53.553729" lon="10.025542">
        <name>Point_Lane_3_0</name>
      </trkpt>
      <trkpt lat="53.553719" lon="10.025453">
        <name>Point_Lane_3_1</name>
      </trkpt>
      <trkpt lat="53.553710" lon="10.025364">
        <name>Point_Lane_3_2</name>
      </trkpt>
      <trkpt lat="53.553701" lon="10.025275">
        <name>Point_Lane_3_3</name>
      </trkpt>
      <trkpt lat="53.553693" lon="10.025186">
        <name>Point_Lane_3_4</name>
      </trkpt>
      <trkpt lat="53.553684" lon="10.025097">
        <name>Point_Lane_3_5</name>
      </trkpt>
      <trkpt lat="53.553676" lon="10.025008">
        <name>Point_Lane_3_6</name>
      </trkpt>
      <trkpt lat="53.553668" lon="10.024919">
        <name>Point_Lane_3_7</name>
      </trkpt>
      <trkpt lat="53.553660" lon="10.024830">
        <name>Point_Lane_3_8</name>
      </trkpt>
      <trkpt lat="53.553652" lon="10.024741">
        <name>Point_Lane_3_9</name>
      </trkpt>
    </trkseg>
  </trk>
  <trk>
    <name>Lane_4</name>
    <trkseg>
      <trkpt lat="53.553588" lon="10.024759">
        <name>Point_Lane_4_0</name>
      </trkpt>
      <trkpt lat="53.553597" lon="10.024846">
        <name>Point_Lane_4_1</name>
      </trkpt>
      <trkpt lat="53.553605" lon="10.024932">
        <name>Point_Lane_4_2</name>
      </trkpt>
      <trkpt lat="53.553613" lon="10.025019">
        <name>Point_Lane_4_3</name>
      </trkpt>
      <trkpt lat="53.553620" lon="10.025106">
        <name>Point_Lane_4_4</name>
      </trkpt>
      <trkpt lat="53.553629" lon="10.025192">
        <name>Point_Lane_4_5</name>
      </trkpt>
      <trkpt lat="53.553638" lon="10.025278">
        <name>Point_Lane_4_6</name>
      </trkpt>
      <trkpt lat="53.553648" lon="10.025364">
        <name>Point_Lane_4_7</name>
      </trkpt>
      <trkpt lat="53.553661" lon="10.025449">
        <name>Point_Lane_4_8</name>
      </trkpt>
      <trkpt lat="53.553675" lon="10.025534">
        <name>Point_Lane_4_9</name>
      </trkpt>
    </trkseg>
  </trk>
  <trk>
    <name>Lane_5</name>
    <trkseg>
      <trkpt lat="53.554121" lon="10.024035">
        <name>Point_Lane_5_0</name>
      </trkpt>
      <trkpt lat="53.554076" lon="10.024069">
        <name>Point_Lane_5_1</name>
      </trkpt>
      <trkpt lat="53.554033" lon="10.024109">
        <name>Point_Lane_5_2</name>
      </trkpt>
      <trkpt lat="53.553991" lon="10.024153">
        <name>Point_Lane_5_3</name>
      </trkpt>
      <trkpt lat="53.553950" lon="10.024199">
        <name>Point_Lane_5_4</name>
      </trkpt>
      <trkpt lat="53.553909" lon="10.024245">
        <name>Point_Lane_5_5</name>
      </trkpt>
      <trkpt lat="53.553867" lon="10.024288">
        <name>Point_Lane_5_6</name>
      </trkpt>
      <trkpt lat="53.553823" lon="10.024326">
        <name>Point_Lane_5_7</name>
      </trkpt>
      <trkpt lat="53.553777" lon="10.024355">
        <name>Point_Lane_5_8</name>
      </trkpt>
      <trkpt lat="53.553729" lon="10.024377">
        <name>Point_Lane_5_9</name>
      </trkpt>
    </trkseg>
  </trk>
  <trk>
    <name>Lane_6</name>
    <trkseg>
      <trkpt lat="53.553149" lon="10.024409">
        <name>Point_Lane_6_0</name>
      </trkpt>
      <trkpt lat="53.553184" lon="10.024403">
        <name>Point_Lane_6_1</name>
      </trkpt>
      <trkpt lat="53.553220" lon="10.024407">
        <name>Point_Lane_6_2</name>
      </trkpt>
      <trkpt lat="53.553252" lon="10.024434">
        <name>Point_Lane_6_3</name>
      </trkpt>
      <trkpt lat="53.553278" lon="10.024474">
        <name>Point_Lane_6_4</name>
      </trkpt>
      <trkpt lat="53.553302" lon="10.024519">
        <name>Point_Lane_6_5</name>
      </trkpt>
      <trkpt lat="53.553326" lon="10.024564">
        <name>Point_Lane_6_6</name>
      </trkpt>
      <trkpt lat="53.553354" lon="10.024601">
        <name>Point_Lane_6_7</name>
      </trkpt>
      <trkpt lat="53.553388" lon="10.024620">
        <name>Point_Lane_6_8</name>
      </trkpt>
      <trkpt lat="53.553423" lon="10.024625">
        <name>Point_Lane_6_9</name>
      </trkpt>
    </trkseg>
  </trk>
  <trk>
    <name>Lane_7</name>
    <trkseg>
      <trkpt lat="53.553531" lon="10.024757">
        <name>Point_Lane_7_0</name>
      </trkpt>
      <trkpt lat="53.553540" lon="10.024843">
        <name>Point_Lane_7_1</name>
      </trkpt>
      <trkpt lat="53.553549" lon="10.024929">
        <name>Point_Lane_7_2</name>
      </trkpt>
      <trkpt lat="53.553558" lon="10.025016">
        <name>Point_Lane_7_3</name>
      </trkpt>
      <trkpt lat="53.553566" lon="10.025102">
        <name>Point_Lane_7_4</name>
      </trkpt>
      <trkpt lat="53.553575" lon="10.025189">
        <name>Point_Lane_7_5</name>
      </trkpt>
      <trkpt lat="53.553584" lon="10.025275">
        <name>Point_Lane_7_6</name>
      </trkpt>
      <trkpt lat="53.553593" lon="10.025361">
        <name>Point_Lane_7_7</name>
      </trkpt>
      <trkpt lat="53.553602" lon="10.025447">
        <name>Point_Lane_7_8</name>
      </trkpt>
      <trkpt lat="53.553611" lon="10.025534">
        <name>Point_Lane_7_9</name>
      </trkpt>
    </trkseg>
  </trk>
  <trk>
    <name>Lane_8</name>
    <trkseg>
      <trkpt lat="53.553700" lon="10.025540">
        <name>Point_Lane_8_0</name>
      </trkpt>
      <trkpt lat="53.553689" lon="10.025453">
        <name>Point_Lane_8_1</name>
      </trkpt>
      <trkpt lat="53.553679" lon="10.025365">
        <name>Point_Lane_8_2</name>
      </trkpt>
      <trkpt lat="53.553670" lon="10.025278">
        <name>Point_Lane_8_3</name>
      </trkpt>
      <trkpt lat="53.553661" lon="10.025190">
        <name>Point_Lane_8_4</name>
      </trkpt>
      <trkpt lat="53.553653" lon="10.025102">
        <name>Point_Lane_8_5</name>
      </trkpt>
      <trkpt lat="53.553645" lon="10.025014">
        <name>Point_Lane_8_6</name>
      </trkpt>
      <trkpt lat="53.553637" lon="10.024926">
        <name>Point_Lane_8_7</name>
      </trkpt>
      <trkpt lat="53.553630" lon="10.024838">
        <name>Point_Lane_8_8</name>
      </trkpt>
      <trkpt lat="53.553622" lon="10.024751">
        <name>Point_Lane_8_9</name>
      </trkpt>
    </trkseg>
  </trk>
  <trk>
    <name>Lane_9</name>
    <trkseg>
      <trkpt lat="53.553449" lon="10.023400">
        <name>Point_Lane_9_0</name>
      </trkpt>
      <trkpt lat="53.553466" lon="10.023505">
        <name>Point_Lane_9_1</name>
      </trkpt>
      <trkpt lat="53.553481" lon="10.023611">
        <name>Point_Lane_9_2</name>
      </trkpt>
      <trkpt lat="53.553496" lon="10.023716">
        <name>Point_Lane_9_3</name>
      </trkpt>
      <trkpt lat="53.553509" lon="10.023822">
        <name>Point_Lane_9_4</name>
      </trkpt>
      <trkpt lat="53.553522" lon="10.023929">
        <name>Point_Lane_9_5</name>
      </trkpt>
      <trkpt lat="53.553535" lon="10.024035">
        <name>Point_Lane_9_6</name>
      </trkpt>
      <trkpt lat="53.553547" lon="10.024142">
        <name>Point_Lane_9_7</name>
      </trkpt>
      <trkpt lat="53.553559" lon="10.024248">
        <name>Point_Lane_9_8</name>
      </trkpt>
      <trkpt lat="53.553572" lon="10.024355">
        <name>Point_Lane_9_9</name>
      </trkpt>
    </trkseg>
  </trk>
  <trk>
    <name>Lane_10</name>
    <trkseg>
      <trkpt lat="53.554120" lon="10.023984">
        <name>Point_Lane_10_0</name>
      </trkpt>
      <trkpt lat="53.554078" lon="10.024006">
        <name>Point_Lane_10_1</name>
      </trkpt>
      <trkpt lat="53.554036" lon="10.024032">
        <name>Point_Lane_10_2</name>
      </trkpt>
      <trkpt lat="53.553996" lon="10.024063">
        <name>Point_Lane_10_3</name>
      </trkpt>
      <trkpt lat="53.553956" lon="10.024098">
        <name>Point_Lane_10_4</name>
      </trkpt>
      <trkpt lat="53.553917" lon="10.024135">
        <name>Point_Lane_10_5</name>
      </trkpt>
      <trkpt lat="53.553879" lon="10.024171">
        <name>Point_Lane_10_6</name>
      </trkpt>
      <trkpt lat="53.553840" lon="10.024207">
        <name>Point_Lane_10_7</name>
      </trkpt>
      <trkpt lat="53.553800" lon="10.024240">
        <name>Point_Lane_10_8</name>
      </trkpt>
      <trkpt lat="53.553759" lon="10.024270">
        <name>Point_Lane_10_9</name>
      </trkpt>
    </trkseg>
  </trk>
  <trk>
    <name>Lane_12</name>
    <trkseg>
      <trkpt lat="53.553012" lon="10.023871">
        <name>Point_Lane_12_0</name>
      </trkpt>
      <trkpt lat="53.552990" lon="10.023919">
        <name>Point_Lane_12_1</name>
      </trkpt>
      <trkpt lat="53.552966" lon="10.023965">
        <name>Point_Lane_12_2</name>
      </trkpt>
      <trkpt lat="53.552936" lon="10.023999">
        <name>Point_Lane_12_3</name>
      </trkpt>
      <trkpt lat="53.552901" lon="10.024011">
        <name>Point_Lane_12_4</name>
      </trkpt>
      <trkpt lat="53.552865" lon="10.023998">
        <name>Point_Lane_12_5</name>
      </trkpt>
      <trkpt lat="53.552833" lon="10.023971">
        <name>Point_Lane_12_6</name>
      </trkpt>
      <trkpt lat="53.552802" lon="10.023940">
        <name>Point_Lane_12_7</name>
      </trkpt>
      <trkpt lat="53.552770" lon="10.023909">
        <name>Point_Lane_12_8</name>
      </trkpt>
      <trkpt lat="53.552739" lon="10.023880">
        <name>Point_Lane_12_9</name>
      </trkpt>
    </trkseg>
  </trk>
  <trk>
    <name>Lane_13</name>
    <trkseg>
      <trkpt lat="53.553363" lon="10.023397">
        <name>Point_Lane_13_0</name>
      </trkpt>
      <trkpt lat="53.553375" lon="10.023472">
        <name>Point_Lane_13_1</name>
      </trkpt>
      <trkpt lat="53.553386" lon="10.023546">
        <name>Point_Lane_13_2</name>
      </trkpt>
      <trkpt lat="53.553397" lon="10.023621">
        <name>Point_Lane_13_3</name>
      </trkpt>
      <trkpt lat="53.553407" lon="10.023697">
        <name>Point_Lane_13_4</name>
      </trkpt>
      <trkpt lat="53.553416" lon="10.023772">
        <name>Point_Lane_13_5</name>
      </trkpt>
      <trkpt lat="53.553424" lon="10.023848">
        <name>Point_Lane_13_6</name>
      </trkpt>
      <trkpt lat="53.553432" lon="10.023924">
        <name>Point_Lane_13_7</name>
      </trkpt>
      <trkpt lat="53.553439" lon="10.024001">
        <name>Point_Lane_13_8</name>
      </trkpt>
      <trkpt lat="53.553445" lon="10.024077">
        <name>Point_Lane_13_9</name>
      </trkpt>
    </trkseg>
  </trk>
  <trk>
    <name>Lane_14</name>
    <trkseg>
      <trkpt lat="53.553487" lon="10.023415">
        <name>Point_Lane_14_0</name>
      </trkpt>
      <trkpt lat="53.553501" lon="10.023521">
        <name>Point_Lane_14_1</name>
      </trkpt>
      <trkpt lat="53.553517" lon="10.023626">
        <name>Point_Lane_14_2</name>
      </trkpt>
      <trkpt lat="53.553531" lon="10.023732">
        <name>Point_Lane_14_3</name>
      </trkpt>
      <trkpt lat="53.553546" lon="10.023838">
        <name>Point_Lane_14_4</name>
      </trkpt>
      <trkpt lat="53.553559" lon="10.023944">
        <name>Point_Lane_14_5</name>
      </trkpt>
      <trkpt lat="53.553571" lon="10.024051">
        <name>Point_Lane_14_6</name>
      </trkpt>
      <trkpt lat="53.553582" lon="10.024158">
        <name>Point_Lane_14_7</name>
      </trkpt>
      <trkpt lat="53.553590" lon="10.024266">
        <name>Point_Lane_14_8</name>
      </trkpt>
      <trkpt lat="53.553597" lon="10.024374">
        <name>Point_Lane_14_9</name>
      </trkpt>
    </trkseg>
  </trk>
  <trk>
    <name>Lane_15</name>
    <trkseg>
      <trkpt lat="53.553751" lon="10.024192">
        <name>Point_Lane_15_0</name>
      </trkpt>
      <trkpt lat="53.553782" lon="10.024167">
        <name>Point_Lane_15_1</name>
      </trkpt>
      <trkpt lat="53.553813" lon="10.024142">
        <name>Point_Lane_15_2</name>
      </trkpt>
      <trkpt lat="53.553844" lon="10.024118">
        <name>Point_Lane_15_3</name>
      </trkpt>
      <trkpt lat="53.553875" lon="10.024095">
        <name>Point_Lane_15_4</name>
      </trkpt>
      <trkpt lat="53.553906" lon="10.024071">
        <name>Point_Lane_15_5</name>
      </trkpt>
      <trkpt lat="53.553937" lon="10.024046">
        <name>Point_Lane_15_6</name>
      </trkpt>
      <trkpt lat="53.553968" lon="10.024021">
        <name>Point_Lane_15_7</name>
      </trkpt>
      <trkpt lat="53.553998" lon="10.023993">
        <name>Point_Lane_15_8</name>
      </trkpt>
      <trkpt lat="53.554028" lon="10.023965">
        <name>Point_Lane_15_9</name>
      </trkpt>
    </trkseg>
  </trk>
  <trk>
    <name>Lane_16</name>
    <trkseg>
      <trkpt lat="53.554107" lon="10.024680">
        <name>Point_Lane_16_0</name>
      </trkpt>
      <trkpt lat="53.554101" lon="10.024653">
        <name>Point_Lane_16_1</name>
      </trkpt>
      <trkpt lat="53.554094" lon="10.024627">
        <name>Point_Lane_16_2</name>
      </trkpt>
      <trkpt lat="53.554085" lon="10.024602">
        <name>Point_Lane_16_3</name>
      </trkpt>
      <trkpt lat="53.554075" lon="10.024579">
        <name>Point_Lane_16_4</name>
      </trkpt>
      <trkpt lat="53.554063" lon="10.024558">
        <name>Point_Lane_16_5</name>
      </trkpt>
      <trkpt lat="53.554050" lon="10.024539">
        <name>Point_Lane_16_6</name>
      </trkpt>
      <trkpt lat="53.554037" lon="10.024521">
        <name>Point_Lane_16_7</name>
      </trkpt>
      <trkpt lat="53.554022" lon="10.024505">
        <name>Point_Lane_16_8</name>
      </trkpt>
      <trkpt lat="53.554008" lon="10.024489">
        <name>Point_Lane_16_9</name>
      </trkpt>
    </trkseg>
  </trk>
  <trk>
    <name>Lane_17</name>
    <trkseg>
      <trkpt lat="53.554044" lon="10.024012">
        <name>Point_Lane_17_0</name>
      </trkpt>
      <trkpt lat="53.554013" lon="10.024043">
        <name>Point_Lane_17_1</name>
      </trkpt>
      <trkpt lat="53.553982" lon="10.024072">
        <name>Point_Lane_17_2</name>
      </trkpt>
      <trkpt lat="53.553951" lon="10.024102">
        <name>Point_Lane_17_3</name>
      </trkpt>
      <trkpt lat="53.553919" lon="10.024130">
        <name>Point_Lane_17_4</name>
      </trkpt>
      <trkpt lat="53.553887" lon="10.024158">
        <name>Point_Lane_17_5</name>
      </trkpt>
      <trkpt lat="53.553856" lon="10.024185">
        <name>Point_Lane_17_6</name>
      </trkpt>
      <trkpt lat="53.553823" lon="10.024212">
        <name>Point_Lane_17_7</name>
      </trkpt>
      <trkpt lat="53.553791" lon="10.024238">
        <name>Point_Lane_17_8</name>
      </trkpt>
      <trkpt lat="53.553759" lon="10.024264">
        <name>Point_Lane_17_9</name>
      </trkpt>
    </trkseg>
  </trk>
  <trk>
    <name>Lane_18</name>
    <trkseg>
      <trkpt lat="53.553004" lon="10.023981">
        <name>Point_Lane_18_0</name>
      </trkpt>
      <trkpt lat="53.552968" lon="10.023994">
        <name>Point_Lane_18_1</name>
      </trkpt>
      <trkpt lat="53.552932" lon="10.024002">
        <name>Point_Lane_18_2</name>
      </trkpt>
      <trkpt lat="53.552896" lon="10.023998">
        <name>Point_Lane_18_3</name>
      </trkpt>
      <trkpt lat="53.552861" lon="10.023982">
        <name>Point_Lane_18_4</name>
      </trkpt>
      <trkpt lat="53.552829" lon="10.023955">
        <name>Point_Lane_18_5</name>
      </trkpt>
      <trkpt lat="53.552798" lon="10.023922">
        <name>Point_Lane_18_6</name>
      </trkpt>
      <trkpt lat="53.552769" lon="10.023885">
        <name>Point_Lane_18_7</name>
      </trkpt>
      <trkpt lat="53.552741" lon="10.023847">
        <name>Point_Lane_18_8</name>
      </trkpt>
      <trkpt lat="53.552713" lon="10.023808">
        <name>Point_Lane_18_9</name>
      </trkpt>
    </trkseg>
  </trk>
</gpx>