<?xml version='1.0' encoding='utf-8'?>
<gpx version="1.1" creator="Custom Script">
  <metadata>
    <time>2025-08-11T14:25:06.858863</time>
  </metadata>
  <trk>
    <name>Lane_0</name>
    <trkseg>
      <trkpt lat="53.599792" lon="9.996656">
        <name>Point_Lane_0_0</name>
      </trkpt>
      <trkpt lat="53.599803" lon="9.996655">
        <name>Point_Lane_0_1</name>
      </trkpt>
      <trkpt lat="53.599813" lon="9.996653">
        <name>Point_Lane_0_2</name>
      </trkpt>
      <trkpt lat="53.599823" lon="9.996651">
        <name>Point_Lane_0_3</name>
      </trkpt>
      <trkpt lat="53.599833" lon="9.996649">
        <name>Point_Lane_0_4</name>
      </trkpt>
      <trkpt lat="53.599843" lon="9.996647">
        <name>Point_Lane_0_5</name>
      </trkpt>
      <trkpt lat="53.599854" lon="9.996644">
        <name>Point_Lane_0_6</name>
      </trkpt>
      <trkpt lat="53.599864" lon="9.996642">
        <name>Point_Lane_0_7</name>
      </trkpt>
      <trkpt lat="53.599874" lon="9.996640">
        <name>Point_Lane_0_8</name>
      </trkpt>
      <trkpt lat="53.599884" lon="9.996639">
        <name>Point_Lane_0_9</name>
      </trkpt>
    </trkseg>
  </trk>
  <trk>
    <name>Lane_1</name>
    <trkseg>
      <trkpt lat="53.600077" lon="9.996795">
        <name>Point_Lane_1_0</name>
      </trkpt>
      <trkpt lat="53.600067" lon="9.996812">
        <name>Point_Lane_1_1</name>
      </trkpt>
      <trkpt lat="53.600059" lon="9.996793">
        <name>Point_Lane_1_2</name>
      </trkpt>
      <trkpt lat="53.600054" lon="9.996770">
        <name>Point_Lane_1_3</name>
      </trkpt>
      <trkpt lat="53.600051" lon="9.996746">
        <name>Point_Lane_1_4</name>
      </trkpt>
      <trkpt lat="53.600049" lon="9.996721">
        <name>Point_Lane_1_5</name>
      </trkpt>
      <trkpt lat="53.600046" lon="9.996697">
        <name>Point_Lane_1_6</name>
      </trkpt>
      <trkpt lat="53.600044" lon="9.996673">
        <name>Point_Lane_1_7</name>
      </trkpt>
      <trkpt lat="53.600043" lon="9.996648">
        <name>Point_Lane_1_8</name>
      </trkpt>
      <trkpt lat="53.600041" lon="9.996624">
        <name>Point_Lane_1_9</name>
      </trkpt>
    </trkseg>
  </trk>
  <trk>
    <name>Lane_3</name>
    <trkseg>
      <trkpt lat="53.599940" lon="9.996575">
        <name>Point_Lane_3_0</name>
      </trkpt>
      <trkpt lat="53.599965" lon="9.996571">
        <name>Point_Lane_3_1</name>
      </trkpt>
      <trkpt lat="53.599991" lon="9.996566">
        <name>Point_Lane_3_2</name>
      </trkpt>
      <trkpt lat="53.600016" lon="9.996561">
        <name>Point_Lane_3_3</name>
      </trkpt>
      <trkpt lat="53.600042" lon="9.996557">
        <name>Point_Lane_3_4</name>
      </trkpt>
      <trkpt lat="53.600067" lon="9.996553">
        <name>Point_Lane_3_5</name>
      </trkpt>
      <trkpt lat="53.600092" lon="9.996549">
        <name>Point_Lane_3_6</name>
      </trkpt>
      <trkpt lat="53.600118" lon="9.996546">
        <name>Point_Lane_3_7</name>
      </trkpt>
      <trkpt lat="53.600143" lon="9.996542">
        <name>Point_Lane_3_8</name>
      </trkpt>
      <trkpt lat="53.600169" lon="9.996539">
        <name>Point_Lane_3_9</name>
      </trkpt>
    </trkseg>
  </trk>
  <trk>
    <name>Lane_4</name>
    <trkseg>
      <trkpt lat="53.600158" lon="9.996594">
        <name>Point_Lane_4_0</name>
      </trkpt>
      <trkpt lat="53.600133" lon="9.996599">
        <name>Point_Lane_4_1</name>
      </trkpt>
      <trkpt lat="53.600108" lon="9.996603">
        <name>Point_Lane_4_2</name>
      </trkpt>
      <trkpt lat="53.600083" lon="9.996606">
        <name>Point_Lane_4_3</name>
      </trkpt>
      <trkpt lat="53.600058" lon="9.996610">
        <name>Point_Lane_4_4</name>
      </trkpt>
      <trkpt lat="53.600033" lon="9.996613">
        <name>Point_Lane_4_5</name>
      </trkpt>
      <trkpt lat="53.600008" lon="9.996617">
        <name>Point_Lane_4_6</name>
      </trkpt>
      <trkpt lat="53.599983" lon="9.996622">
        <name>Point_Lane_4_7</name>
      </trkpt>
      <trkpt lat="53.599958" lon="9.996627">
        <name>Point_Lane_4_8</name>
      </trkpt>
      <trkpt lat="53.599933" lon="9.996633">
        <name>Point_Lane_4_9</name>
      </trkpt>
    </trkseg>
  </trk>
  <trk>
    <name>Lane_5</name>
    <trkseg>
      <trkpt lat="53.599900" lon="9.996598">
        <name>Point_Lane_5_0</name>
      </trkpt>
      <trkpt lat="53.599889" lon="9.996592">
        <name>Point_Lane_5_1</name>
      </trkpt>
      <trkpt lat="53.599878" lon="9.996587">
        <name>Point_Lane_5_2</name>
      </trkpt>
      <trkpt lat="53.599867" lon="9.996586">
        <name>Point_Lane_5_3</name>
      </trkpt>
      <trkpt lat="53.599855" lon="9.996587">
        <name>Point_Lane_5_4</name>
      </trkpt>
      <trkpt lat="53.599844" lon="9.996590">
        <name>Point_Lane_5_5</name>
      </trkpt>
      <trkpt lat="53.599833" lon="9.996593">
        <name>Point_Lane_5_6</name>
      </trkpt>
      <trkpt lat="53.599821" lon="9.996596">
        <name>Point_Lane_5_7</name>
      </trkpt>
      <trkpt lat="53.599810" lon="9.996598">
        <name>Point_Lane_5_8</name>
      </trkpt>
      <trkpt lat="53.599798" lon="9.996600">
        <name>Point_Lane_5_9</name>
      </trkpt>
    </trkseg>
  </trk>
</gpx>