<?xml version='1.0' encoding='utf-8'?>
<gpx version="1.1" creator="Custom Script">
  <metadata>
    <time>2025-08-11T14:25:08.401369</time>
  </metadata>
  <trk>
    <name>Lane_0</name>
    <trkseg>
      <trkpt lat="53.567973" lon="10.023354">
        <name>Point_Lane_0_0</name>
      </trkpt>
      <trkpt lat="53.567952" lon="10.023320">
        <name>Point_Lane_0_1</name>
      </trkpt>
      <trkpt lat="53.567931" lon="10.023285">
        <name>Point_Lane_0_2</name>
      </trkpt>
      <trkpt lat="53.567909" lon="10.023252">
        <name>Point_Lane_0_3</name>
      </trkpt>
      <trkpt lat="53.567887" lon="10.023218">
        <name>Point_Lane_0_4</name>
      </trkpt>
      <trkpt lat="53.567866" lon="10.023184">
        <name>Point_Lane_0_5</name>
      </trkpt>
      <trkpt lat="53.567844" lon="10.023151">
        <name>Point_Lane_0_6</name>
      </trkpt>
      <trkpt lat="53.567823" lon="10.023117">
        <name>Point_Lane_0_7</name>
      </trkpt>
      <trkpt lat="53.567801" lon="10.023082">
        <name>Point_Lane_0_8</name>
      </trkpt>
      <trkpt lat="53.567780" lon="10.023048">
        <name>Point_Lane_0_9</name>
      </trkpt>
    </trkseg>
  </trk>
  <trk>
    <name>Lane_1</name>
    <trkseg>
      <trkpt lat="53.567715" lon="10.023148">
        <name>Point_Lane_1_0</name>
      </trkpt>
      <trkpt lat="53.567743" lon="10.023191">
        <name>Point_Lane_1_1</name>
      </trkpt>
      <trkpt lat="53.567771" lon="10.023235">
        <name>Point_Lane_1_2</name>
      </trkpt>
      <trkpt lat="53.567799" lon="10.023278">
        <name>Point_Lane_1_3</name>
      </trkpt>
      <trkpt lat="53.567827" lon="10.023322">
        <name>Point_Lane_1_4</name>
      </trkpt>
      <trkpt lat="53.567855" lon="10.023365">
        <name>Point_Lane_1_5</name>
      </trkpt>
      <trkpt lat="53.567883" lon="10.023409">
        <name>Point_Lane_1_6</name>
      </trkpt>
      <trkpt lat="53.567911" lon="10.023452">
        <name>Point_Lane_1_7</name>
      </trkpt>
      <trkpt lat="53.567939" lon="10.023496">
        <name>Point_Lane_1_8</name>
      </trkpt>
      <trkpt lat="53.567967" lon="10.023539">
        <name>Point_Lane_1_9</name>
      </trkpt>
    </trkseg>
  </trk>
  <trk>
    <name>Lane_3</name>
    <trkseg>
      <trkpt lat="53.567970" lon="10.023410">
        <name>Point_Lane_3_0</name>
      </trkpt>
      <trkpt lat="53.567946" lon="10.023377">
        <name>Point_Lane_3_1</name>
      </trkpt>
      <trkpt lat="53.567922" lon="10.023343">
        <name>Point_Lane_3_2</name>
      </trkpt>
      <trkpt lat="53.567898" lon="10.023308">
        <name>Point_Lane_3_3</name>
      </trkpt>
      <trkpt lat="53.567875" lon="10.023273">
        <name>Point_Lane_3_4</name>
      </trkpt>
      <trkpt lat="53.567852" lon="10.023237">
        <name>Point_Lane_3_5</name>
      </trkpt>
      <trkpt lat="53.567830" lon="10.023201">
        <name>Point_Lane_3_6</name>
      </trkpt>
      <trkpt lat="53.567807" lon="10.023164">
        <name>Point_Lane_3_7</name>
      </trkpt>
      <trkpt lat="53.567785" lon="10.023126">
        <name>Point_Lane_3_8</name>
      </trkpt>
      <trkpt lat="53.567764" lon="10.023088">
        <name>Point_Lane_3_9</name>
      </trkpt>
    </trkseg>
  </trk>
  <trk>
    <name>Lane_4</name>
    <trkseg>
      <trkpt lat="53.567977" lon="10.022522">
        <name>Point_Lane_4_0</name>
      </trkpt>
      <trkpt lat="53.567955" lon="10.022562">
        <name>Point_Lane_4_1</name>
      </trkpt>
      <trkpt lat="53.567933" lon="10.022600">
        <name>Point_Lane_4_2</name>
      </trkpt>
      <trkpt lat="53.567909" lon="10.022635">
        <name>Point_Lane_4_3</name>
      </trkpt>
      <trkpt lat="53.567884" lon="10.022668">
        <name>Point_Lane_4_4</name>
      </trkpt>
      <trkpt lat="53.567858" lon="10.022700">
        <name>Point_Lane_4_5</name>
      </trkpt>
      <trkpt lat="53.567832" lon="10.022731">
        <name>Point_Lane_4_6</name>
      </trkpt>
      <trkpt lat="53.567806" lon="10.022763">
        <name>Point_Lane_4_7</name>
      </trkpt>
      <trkpt lat="53.567781" lon="10.022795">
        <name>Point_Lane_4_8</name>
      </trkpt>
      <trkpt lat="53.567756" lon="10.022827">
        <name>Point_Lane_4_9</name>
      </trkpt>
    </trkseg>
  </trk>
  <trk>
    <name>Lane_5</name>
    <trkseg>
      <trkpt lat="53.567535" lon="10.022812">
        <name>Point_Lane_5_0</name>
      </trkpt>
      <trkpt lat="53.567514" lon="10.022773">
        <name>Point_Lane_5_1</name>
      </trkpt>
      <trkpt lat="53.567492" lon="10.022734">
        <name>Point_Lane_5_2</name>
      </trkpt>
      <trkpt lat="53.567469" lon="10.022697">
        <name>Point_Lane_5_3</name>
      </trkpt>
      <trkpt lat="53.567445" lon="10.022661">
        <name>Point_Lane_5_4</name>
      </trkpt>
      <trkpt lat="53.567422" lon="10.022625">
        <name>Point_Lane_5_5</name>
      </trkpt>
      <trkpt lat="53.567398" lon="10.022590">
        <name>Point_Lane_5_6</name>
      </trkpt>
      <trkpt lat="53.567374" lon="10.022554">
        <name>Point_Lane_5_7</name>
      </trkpt>
      <trkpt lat="53.567351" lon="10.022517">
        <name>Point_Lane_5_8</name>
      </trkpt>
      <trkpt lat="53.567329" lon="10.022479">
        <name>Point_Lane_5_9</name>
      </trkpt>
    </trkseg>
  </trk>
  <trk>
    <name>Lane_6</name>
    <trkseg>
      <trkpt lat="53.567344" lon="10.022368">
        <name>Point_Lane_6_0</name>
      </trkpt>
      <trkpt lat="53.567369" lon="10.022412">
        <name>Point_Lane_6_1</name>
      </trkpt>
      <trkpt lat="53.567396" lon="10.022455">
        <name>Point_Lane_6_2</name>
      </trkpt>
      <trkpt lat="53.567423" lon="10.022497">
        <name>Point_Lane_6_3</name>
      </trkpt>
      <trkpt lat="53.567450" lon="10.022539">
        <name>Point_Lane_6_4</name>
      </trkpt>
      <trkpt lat="53.567477" lon="10.022580">
        <name>Point_Lane_6_5</name>
      </trkpt>
      <trkpt lat="53.567504" lon="10.022621">
        <name>Point_Lane_6_6</name>
      </trkpt>
      <trkpt lat="53.567531" lon="10.022663">
        <name>Point_Lane_6_7</name>
      </trkpt>
      <trkpt lat="53.567558" lon="10.022706">
        <name>Point_Lane_6_8</name>
      </trkpt>
      <trkpt lat="53.567584" lon="10.022750">
        <name>Point_Lane_6_9</name>
      </trkpt>
    </trkseg>
  </trk>
  <trk>
    <name>Lane_7</name>
    <trkseg>
      <trkpt lat="53.567334" lon="10.022529">
        <name>Point_Lane_7_0</name>
      </trkpt>
      <trkpt lat="53.567350" lon="10.022569">
        <name>Point_Lane_7_1</name>
      </trkpt>
      <trkpt lat="53.567369" lon="10.022607">
        <name>Point_Lane_7_2</name>
      </trkpt>
      <trkpt lat="53.567389" lon="10.022642">
        <name>Point_Lane_7_3</name>
      </trkpt>
      <trkpt lat="53.567411" lon="10.022675">
        <name>Point_Lane_7_4</name>
      </trkpt>
      <trkpt lat="53.567433" lon="10.022707">
        <name>Point_Lane_7_5</name>
      </trkpt>
      <trkpt lat="53.567455" lon="10.022739">
        <name>Point_Lane_7_6</name>
      </trkpt>
      <trkpt lat="53.567476" lon="10.022772">
        <name>Point_Lane_7_7</name>
      </trkpt>
      <trkpt lat="53.567496" lon="10.022809">
        <name>Point_Lane_7_8</name>
      </trkpt>
      <trkpt lat="53.567514" lon="10.022847">
        <name>Point_Lane_7_9</name>
      </trkpt>
    </trkseg>
  </trk>
  <trk>
    <name>Lane_8</name>
    <trkseg>
      <trkpt lat="53.567300" lon="10.023516">
        <name>Point_Lane_8_0</name>
      </trkpt>
      <trkpt lat="53.567345" lon="10.023518">
        <name>Point_Lane_8_1</name>
      </trkpt>
      <trkpt lat="53.567390" lon="10.023518">
        <name>Point_Lane_8_2</name>
      </trkpt>
      <trkpt lat="53.567435" lon="10.023508">
        <name>Point_Lane_8_3</name>
      </trkpt>
      <trkpt lat="53.567477" lon="10.023480">
        <name>Point_Lane_8_4</name>
      </trkpt>
      <trkpt lat="53.567510" lon="10.023428">
        <name>Point_Lane_8_5</name>
      </trkpt>
      <trkpt lat="53.567532" lon="10.023361">
        <name>Point_Lane_8_6</name>
      </trkpt>
      <trkpt lat="53.567548" lon="10.023290">
        <name>Point_Lane_8_7</name>
      </trkpt>
      <trkpt lat="53.567569" lon="10.023223">
        <name>Point_Lane_8_8</name>
      </trkpt>
      <trkpt lat="53.567599" lon="10.023164">
        <name>Point_Lane_8_9</name>
      </trkpt>
    </trkseg>
  </trk>
  <trk>
    <name>Lane_9</name>
    <trkseg>
      <trkpt lat="53.567732" lon="10.023114">
        <name>Point_Lane_9_0</name>
      </trkpt>
      <trkpt lat="53.567758" lon="10.023150">
        <name>Point_Lane_9_1</name>
      </trkpt>
      <trkpt lat="53.567784" lon="10.023187">
        <name>Point_Lane_9_2</name>
      </trkpt>
      <trkpt lat="53.567809" lon="10.023226">
        <name>Point_Lane_9_3</name>
      </trkpt>
      <trkpt lat="53.567834" lon="10.023265">
        <name>Point_Lane_9_4</name>
      </trkpt>
      <trkpt lat="53.567858" lon="10.023305">
        <name>Point_Lane_9_5</name>
      </trkpt>
      <trkpt lat="53.567883" lon="10.023344">
        <name>Point_Lane_9_6</name>
      </trkpt>
      <trkpt lat="53.567908" lon="10.023382">
        <name>Point_Lane_9_7</name>
      </trkpt>
      <trkpt lat="53.567935" lon="10.023419">
        <name>Point_Lane_9_8</name>
      </trkpt>
      <trkpt lat="53.567961" lon="10.023454">
        <name>Point_Lane_9_9</name>
      </trkpt>
    </trkseg>
  </trk>
</gpx>