<?xml version='1.0' encoding='utf-8'?>
<gpx version="1.1" creator="Custom Script">
  <metadata>
    <time>2025-08-11T14:25:05.763664</time>
  </metadata>
  <trk>
    <name>Lane_0</name>
    <trkseg>
      <trkpt lat="53.556296" lon="9.928860">
        <name>Point_Lane_0_0</name>
      </trkpt>
      <trkpt lat="53.556286" lon="9.928820">
        <name>Point_Lane_0_1</name>
      </trkpt>
      <trkpt lat="53.556275" lon="9.928780">
        <name>Point_Lane_0_2</name>
      </trkpt>
      <trkpt lat="53.556262" lon="9.928741">
        <name>Point_Lane_0_3</name>
      </trkpt>
      <trkpt lat="53.556249" lon="9.928703">
        <name>Point_Lane_0_4</name>
      </trkpt>
      <trkpt lat="53.556236" lon="9.928665">
        <name>Point_Lane_0_5</name>
      </trkpt>
      <trkpt lat="53.556223" lon="9.928627">
        <name>Point_Lane_0_6</name>
      </trkpt>
      <trkpt lat="53.556211" lon="9.928587">
        <name>Point_Lane_0_7</name>
      </trkpt>
      <trkpt lat="53.556200" lon="9.928547">
        <name>Point_Lane_0_8</name>
      </trkpt>
      <trkpt lat="53.556191" lon="9.928506">
        <name>Point_Lane_0_9</name>
      </trkpt>
    </trkseg>
  </trk>
  <trk>
    <name>Lane_1</name>
    <trkseg>
      <trkpt lat="53.556620" lon="9.928154">
        <name>Point_Lane_1_0</name>
      </trkpt>
      <trkpt lat="53.556583" lon="9.928169">
        <name>Point_Lane_1_1</name>
      </trkpt>
      <trkpt lat="53.556546" lon="9.928184">
        <name>Point_Lane_1_2</name>
      </trkpt>
      <trkpt lat="53.556510" lon="9.928200">
        <name>Point_Lane_1_3</name>
      </trkpt>
      <trkpt lat="53.556473" lon="9.928216">
        <name>Point_Lane_1_4</name>
      </trkpt>
      <trkpt lat="53.556437" lon="9.928234">
        <name>Point_Lane_1_5</name>
      </trkpt>
      <trkpt lat="53.556401" lon="9.928254">
        <name>Point_Lane_1_6</name>
      </trkpt>
      <trkpt lat="53.556365" lon="9.928276">
        <name>Point_Lane_1_7</name>
      </trkpt>
      <trkpt lat="53.556331" lon="9.928300">
        <name>Point_Lane_1_8</name>
      </trkpt>
      <trkpt lat="53.556296" lon="9.928327">
        <name>Point_Lane_1_9</name>
      </trkpt>
    </trkseg>
  </trk>
  <trk>
    <name>Lane_2</name>
    <trkseg>
      <trkpt lat="53.556338" lon="9.928848">
        <name>Point_Lane_2_0</name>
      </trkpt>
      <trkpt lat="53.556333" lon="9.928816">
        <name>Point_Lane_2_1</name>
      </trkpt>
      <trkpt lat="53.556326" lon="9.928785">
        <name>Point_Lane_2_2</name>
      </trkpt>
      <trkpt lat="53.556319" lon="9.928754">
        <name>Point_Lane_2_3</name>
      </trkpt>
      <trkpt lat="53.556310" lon="9.928724">
        <name>Point_Lane_2_4</name>
      </trkpt>
      <trkpt lat="53.556301" lon="9.928694">
        <name>Point_Lane_2_5</name>
      </trkpt>
      <trkpt lat="53.556292" lon="9.928665">
        <name>Point_Lane_2_6</name>
      </trkpt>
      <trkpt lat="53.556283" lon="9.928635">
        <name>Point_Lane_2_7</name>
      </trkpt>
      <trkpt lat="53.556274" lon="9.928605">
        <name>Point_Lane_2_8</name>
      </trkpt>
      <trkpt lat="53.556266" lon="9.928575">
        <name>Point_Lane_2_9</name>
      </trkpt>
    </trkseg>
  </trk>
  <trk>
    <name>Lane_3</name>
    <trkseg>
      <trkpt lat="53.555811" lon="9.928458">
        <name>Point_Lane_3_0</name>
      </trkpt>
      <trkpt lat="53.555829" lon="9.928449">
        <name>Point_Lane_3_1</name>
      </trkpt>
      <trkpt lat="53.555847" lon="9.928441">
        <name>Point_Lane_3_2</name>
      </trkpt>
      <trkpt lat="53.555865" lon="9.928434">
        <name>Point_Lane_3_3</name>
      </trkpt>
      <trkpt lat="53.555884" lon="9.928428">
        <name>Point_Lane_3_4</name>
      </trkpt>
      <trkpt lat="53.555903" lon="9.928423">
        <name>Point_Lane_3_5</name>
      </trkpt>
      <trkpt lat="53.555921" lon="9.928417">
        <name>Point_Lane_3_6</name>
      </trkpt>
      <trkpt lat="53.555939" lon="9.928410">
        <name>Point_Lane_3_7</name>
      </trkpt>
      <trkpt lat="53.555958" lon="9.928401">
        <name>Point_Lane_3_8</name>
      </trkpt>
      <trkpt lat="53.555976" lon="9.928391">
        <name>Point_Lane_3_9</name>
      </trkpt>
    </trkseg>
  </trk>
  <trk>
    <name>Lane_4</name>
    <trkseg>
      <trkpt lat="53.556613" lon="9.928096">
        <name>Point_Lane_4_0</name>
      </trkpt>
      <trkpt lat="53.556576" lon="9.928112">
        <name>Point_Lane_4_1</name>
      </trkpt>
      <trkpt lat="53.556540" lon="9.928126">
        <name>Point_Lane_4_2</name>
      </trkpt>
      <trkpt lat="53.556503" lon="9.928138">
        <name>Point_Lane_4_3</name>
      </trkpt>
      <trkpt lat="53.556466" lon="9.928150">
        <name>Point_Lane_4_4</name>
      </trkpt>
      <trkpt lat="53.556429" lon="9.928162">
        <name>Point_Lane_4_5</name>
      </trkpt>
      <trkpt lat="53.556392" lon="9.928174">
        <name>Point_Lane_4_6</name>
      </trkpt>
      <trkpt lat="53.556355" lon="9.928187">
        <name>Point_Lane_4_7</name>
      </trkpt>
      <trkpt lat="53.556318" lon="9.928202">
        <name>Point_Lane_4_8</name>
      </trkpt>
      <trkpt lat="53.556282" lon="9.928218">
        <name>Point_Lane_4_9</name>
      </trkpt>
    </trkseg>
  </trk>
  <trk>
    <name>Lane_5</name>
    <trkseg>
      <trkpt lat="53.555794" lon="9.928378">
        <name>Point_Lane_5_0</name>
      </trkpt>
      <trkpt lat="53.555815" lon="9.928373">
        <name>Point_Lane_5_1</name>
      </trkpt>
      <trkpt lat="53.555837" lon="9.928366">
        <name>Point_Lane_5_2</name>
      </trkpt>
      <trkpt lat="53.555858" lon="9.928359">
        <name>Point_Lane_5_3</name>
      </trkpt>
      <trkpt lat="53.555879" lon="9.928350">
        <name>Point_Lane_5_4</name>
      </trkpt>
      <trkpt lat="53.555900" lon="9.928342">
        <name>Point_Lane_5_5</name>
      </trkpt>
      <trkpt lat="53.555921" lon="9.928335">
        <name>Point_Lane_5_6</name>
      </trkpt>
      <trkpt lat="53.555943" lon="9.928330">
        <name>Point_Lane_5_7</name>
      </trkpt>
      <trkpt lat="53.555964" lon="9.928327">
        <name>Point_Lane_5_8</name>
      </trkpt>
      <trkpt lat="53.555986" lon="9.928327">
        <name>Point_Lane_5_9</name>
      </trkpt>
    </trkseg>
  </trk>
  <trk>
    <name>Lane_6</name>
    <trkseg>
      <trkpt lat="53.555955" lon="9.927829">
        <name>Point_Lane_6_0</name>
      </trkpt>
      <trkpt lat="53.555974" lon="9.927867">
        <name>Point_Lane_6_1</name>
      </trkpt>
      <trkpt lat="53.555992" lon="9.927904">
        <name>Point_Lane_6_2</name>
      </trkpt>
      <trkpt lat="53.556011" lon="9.927941">
        <name>Point_Lane_6_3</name>
      </trkpt>
      <trkpt lat="53.556030" lon="9.927978">
        <name>Point_Lane_6_4</name>
      </trkpt>
      <trkpt lat="53.556049" lon="9.928014">
        <name>Point_Lane_6_5</name>
      </trkpt>
      <trkpt lat="53.556068" lon="9.928051">
        <name>Point_Lane_6_6</name>
      </trkpt>
      <trkpt lat="53.556087" lon="9.928088">
        <name>Point_Lane_6_7</name>
      </trkpt>
      <trkpt lat="53.556105" lon="9.928126">
        <name>Point_Lane_6_8</name>
      </trkpt>
      <trkpt lat="53.556123" lon="9.928164">
        <name>Point_Lane_6_9</name>
      </trkpt>
    </trkseg>
  </trk>
  <trk>
    <name>Lane_7</name>
    <trkseg>
      <trkpt lat="53.555909" lon="9.927861">
        <name>Point_Lane_7_0</name>
      </trkpt>
      <trkpt lat="53.555921" lon="9.927887">
        <name>Point_Lane_7_1</name>
      </trkpt>
      <trkpt lat="53.555934" lon="9.927914">
        <name>Point_Lane_7_2</name>
      </trkpt>
      <trkpt lat="53.555947" lon="9.927940">
        <name>Point_Lane_7_3</name>
      </trkpt>
      <trkpt lat="53.555960" lon="9.927966">
        <name>Point_Lane_7_4</name>
      </trkpt>
      <trkpt lat="53.555973" lon="9.927992">
        <name>Point_Lane_7_5</name>
      </trkpt>
      <trkpt lat="53.555987" lon="9.928017">
        <name>Point_Lane_7_6</name>
      </trkpt>
      <trkpt lat="53.556000" lon="9.928043">
        <name>Point_Lane_7_7</name>
      </trkpt>
      <trkpt lat="53.556013" lon="9.928068">
        <name>Point_Lane_7_8</name>
      </trkpt>
      <trkpt lat="53.556027" lon="9.928094">
        <name>Point_Lane_7_9</name>
      </trkpt>
    </trkseg>
  </trk>
  <trk>
    <name>Lane_8</name>
    <trkseg>
      <trkpt lat="53.556385" lon="9.928826">
        <name>Point_Lane_8_0</name>
      </trkpt>
      <trkpt lat="53.556375" lon="9.928793">
        <name>Point_Lane_8_1</name>
      </trkpt>
      <trkpt lat="53.556365" lon="9.928761">
        <name>Point_Lane_8_2</name>
      </trkpt>
      <trkpt lat="53.556355" lon="9.928729">
        <name>Point_Lane_8_3</name>
      </trkpt>
      <trkpt lat="53.556345" lon="9.928696">
        <name>Point_Lane_8_4</name>
      </trkpt>
      <trkpt lat="53.556336" lon="9.928664">
        <name>Point_Lane_8_5</name>
      </trkpt>
      <trkpt lat="53.556327" lon="9.928631">
        <name>Point_Lane_8_6</name>
      </trkpt>
      <trkpt lat="53.556318" lon="9.928597">
        <name>Point_Lane_8_7</name>
      </trkpt>
      <trkpt lat="53.556311" lon="9.928563">
        <name>Point_Lane_8_8</name>
      </trkpt>
      <trkpt lat="53.556304" lon="9.928529">
        <name>Point_Lane_8_9</name>
      </trkpt>
    </trkseg>
  </trk>
</gpx>