<?xml version='1.0' encoding='utf-8'?>
<gpx version="1.1" creator="GPX Generator Script">
  <trk>
    <name>MAP_ITS_17_1729_2.1 - Lane 10</name>
    <trkseg>
      <trkpt lat="53.55346225642301" lon="10.024361356633918">
        <desc>Width: 26 cm</desc>
      </trkpt>
      <trkpt lat="53.55346225642301" lon="10.024361356633918">
        <desc>Width: 26 cm</desc>
      </trkpt>
      <trkpt lat="53.55346225642301" lon="10.024361356633918">
        <desc>Width: 26 cm</desc>
      </trkpt>
      <trkpt lat="53.55346225642301" lon="10.024361356633918">
        <desc>Width: 26 cm</desc>
      </trkpt>
      <trkpt lat="53.55346225642301" lon="10.024361356633918">
        <desc>Width: 26 cm</desc>
      </trkpt>
      <trkpt lat="53.55346225642301" lon="10.024361356633918">
        <desc>Width: 26 cm</desc>
      </trkpt>
      <trkpt lat="53.55346225642301" lon="10.024361356633918">
        <desc>Width: 26 cm</desc>
      </trkpt>
      <trkpt lat="53.55346225642301" lon="10.024361356633918">
        <desc>Width: 26 cm</desc>
      </trkpt>
      <trkpt lat="53.55346225642301" lon="10.024361356633918">
        <desc>Width: 26 cm</desc>
      </trkpt>
      <trkpt lat="53.55346225642301" lon="10.024361356633918">
        <desc>Width: 26 cm</desc>
      </trkpt>
    </trkseg>
  </trk>
  <trk>
    <name>MAP_ITS_17_1729_2.1 - Lane 11</name>
    <trkseg>
      <trkpt lat="53.55346378548215" lon="10.02418281654763">
        <desc>Width: 23 cm</desc>
      </trkpt>
      <trkpt lat="53.55346409307132" lon="10.02414689723835">
        <desc>Width: 23 cm</desc>
      </trkpt>
      <trkpt lat="53.553464374803205" lon="10.024113996357837">
        <desc>Width: 23 cm</desc>
      </trkpt>
      <trkpt lat="53.553464639726286" lon="10.02408305745593">
        <desc>Width: 23 cm</desc>
      </trkpt>
      <trkpt lat="53.55346488784213" lon="10.024054080532723">
        <desc>Width: 23 cm</desc>
      </trkpt>
      <trkpt lat="53.55346516179521" lon="10.024022085179515">
        <desc>Width: 23 cm</desc>
      </trkpt>
      <trkpt lat="53.553465460290944" lon="10.023987222317635">
        <desc>Width: 23 cm</desc>
      </trkpt>
      <trkpt lat="53.5534658272588" lon="10.023944360616458">
        <desc>Width: 23 cm</desc>
      </trkpt>
      <trkpt lat="53.553466253645816" lon="10.023894556525878">
        <desc>Width: 23 cm</desc>
      </trkpt>
      <trkpt lat="53.553466713603704" lon="10.023840828475217">
        <desc>Width: 23 cm</desc>
      </trkpt>
    </trkseg>
  </trk>
  <trk>
    <name>MAP_ITS_17_1729_2.1 - Lane 12</name>
    <trkseg>
      <trkpt lat="53.55346225642301" lon="10.024361356633918">
        <desc>Width: 23 cm</desc>
      </trkpt>
      <trkpt lat="53.55346225642301" lon="10.024361356633918">
        <desc>Width: 23 cm</desc>
      </trkpt>
      <trkpt lat="53.55346225642301" lon="10.024361356633918">
        <desc>Width: 23 cm</desc>
      </trkpt>
      <trkpt lat="53.55346225642301" lon="10.024361356633918">
        <desc>Width: 23 cm</desc>
      </trkpt>
      <trkpt lat="53.55346225642301" lon="10.024361356633918">
        <desc>Width: 23 cm</desc>
      </trkpt>
      <trkpt lat="53.55346225642301" lon="10.024361356633918">
        <desc>Width: 23 cm</desc>
      </trkpt>
      <trkpt lat="53.55346225642301" lon="10.024361356633918">
        <desc>Width: 23 cm</desc>
      </trkpt>
      <trkpt lat="53.55346225642301" lon="10.024361356633918">
        <desc>Width: 23 cm</desc>
      </trkpt>
      <trkpt lat="53.55346225642301" lon="10.024361356633918">
        <desc>Width: 23 cm</desc>
      </trkpt>
      <trkpt lat="53.55346225642301" lon="10.024361356633918">
        <desc>Width: 23 cm</desc>
      </trkpt>
    </trkseg>
  </trk>
  <trk>
    <name>MAP_ITS_17_1729_2.1 - Lane 13</name>
    <trkseg>
      <trkpt lat="53.55346225642301" lon="10.024361356633918">
        <desc>Width: 25 cm</desc>
      </trkpt>
      <trkpt lat="53.55346225642301" lon="10.024361356633918">
        <desc>Width: 25 cm</desc>
      </trkpt>
      <trkpt lat="53.55346225642301" lon="10.024361356633918">
        <desc>Width: 25 cm</desc>
      </trkpt>
      <trkpt lat="53.55346225642301" lon="10.024361356633918">
        <desc>Width: 25 cm</desc>
      </trkpt>
      <trkpt lat="53.55346225642301" lon="10.024361356633918">
        <desc>Width: 25 cm</desc>
      </trkpt>
      <trkpt lat="53.55346225642301" lon="10.024361356633918">
        <desc>Width: 25 cm</desc>
      </trkpt>
      <trkpt lat="53.55346225642301" lon="10.024361356633918">
        <desc>Width: 25 cm</desc>
      </trkpt>
      <trkpt lat="53.55346225642301" lon="10.024361356633918">
        <desc>Width: 25 cm</desc>
      </trkpt>
      <trkpt lat="53.55346225642301" lon="10.024361356633918">
        <desc>Width: 25 cm</desc>
      </trkpt>
      <trkpt lat="53.55346225642301" lon="10.024361356633918">
        <desc>Width: 25 cm</desc>
      </trkpt>
    </trkseg>
  </trk>
  <trk>
    <name>MAP_ITS_17_1729_2.1 - Lane 14</name>
    <trkseg>
      <trkpt lat="53.5534651876394" lon="10.024019066749938">
        <desc>Width: 39 cm</desc>
      </trkpt>
      <trkpt lat="53.55346488784213" lon="10.024054080532723">
        <desc>Width: 39 cm</desc>
      </trkpt>
      <trkpt lat="53.55346453634262" lon="10.024095131173807">
        <desc>Width: 39 cm</desc>
      </trkpt>
      <trkpt lat="53.55346415122772" lon="10.024140105772233">
        <desc>Width: 39 cm</desc>
      </trkpt>
      <trkpt lat="53.55346374929449" lon="10.024187042348677">
        <desc>Width: 39 cm</desc>
      </trkpt>
      <trkpt lat="53.55346334605035" lon="10.024234129845452">
        <desc>Width: 39 cm</desc>
      </trkpt>
      <trkpt lat="53.55346296993093" lon="10.024278047990455">
        <desc>Width: 39 cm</desc>
      </trkpt>
      <trkpt lat="53.55346263515817" lon="10.024317136647886">
        <desc>Width: 39 cm</desc>
      </trkpt>
      <trkpt lat="53.55346237663765" lon="10.0243473209388">
        <desc>Width: 39 cm</desc>
      </trkpt>
      <trkpt lat="53.55346225642301" lon="10.024361356633918">
        <desc>Width: 39 cm</desc>
      </trkpt>
    </trkseg>
  </trk>
  <trk>
    <name>MAP_ITS_17_1729_2.1 - Lane 15</name>
    <trkseg>
      <trkpt lat="53.55314941361333" lon="10.024353800386724">
        <desc>Width: 51 cm</desc>
      </trkpt>
      <trkpt lat="53.5531843736409" lon="10.024354644786506">
        <desc>Width: 51 cm</desc>
      </trkpt>
      <trkpt lat="53.55322041212666" lon="10.024355515236463">
        <desc>Width: 51 cm</desc>
      </trkpt>
      <trkpt lat="53.55325258613621" lon="10.024356292347994">
        <desc>Width: 51 cm</desc>
      </trkpt>
      <trkpt lat="53.553278918495835" lon="10.02435692836497">
        <desc>Width: 51 cm</desc>
      </trkpt>
      <trkpt lat="53.553303363553155" lon="10.024357518798015">
        <desc>Width: 51 cm</desc>
      </trkpt>
      <trkpt lat="53.55332771873879" lon="10.024358107061209">
        <desc>Width: 51 cm</desc>
      </trkpt>
      <trkpt lat="53.553356028271814" lon="10.024358790836853">
        <desc>Width: 51 cm</desc>
      </trkpt>
      <trkpt lat="53.55339017945431" lon="10.024359615710605">
        <desc>Width: 51 cm</desc>
      </trkpt>
      <trkpt lat="53.55342522935192" lon="10.02436046229332">
        <desc>Width: 51 cm</desc>
      </trkpt>
    </trkseg>
  </trk>
  <trk>
    <name>MAP_ITS_17_1729_2.1 - Lane 16</name>
    <trkseg>
      <trkpt lat="53.55346225642301" lon="10.024361356633918">
        <desc>Width: 24 cm</desc>
      </trkpt>
      <trkpt lat="53.55346225642301" lon="10.024361356633918">
        <desc>Width: 24 cm</desc>
      </trkpt>
      <trkpt lat="53.55346225642301" lon="10.024361356633918">
        <desc>Width: 24 cm</desc>
      </trkpt>
      <trkpt lat="53.55346225642301" lon="10.024361356633918">
        <desc>Width: 24 cm</desc>
      </trkpt>
      <trkpt lat="53.55346225642301" lon="10.024361356633918">
        <desc>Width: 24 cm</desc>
      </trkpt>
      <trkpt lat="53.55346225642301" lon="10.024361356633918">
        <desc>Width: 24 cm</desc>
      </trkpt>
      <trkpt lat="53.55346225642301" lon="10.024361356633918">
        <desc>Width: 24 cm</desc>
      </trkpt>
      <trkpt lat="53.55346225642301" lon="10.024361356633918">
        <desc>Width: 24 cm</desc>
      </trkpt>
      <trkpt lat="53.55346225642301" lon="10.024361356633918">
        <desc>Width: 24 cm</desc>
      </trkpt>
      <trkpt lat="53.55346225642301" lon="10.024361356633918">
        <desc>Width: 24 cm</desc>
      </trkpt>
    </trkseg>
  </trk>
  <trk>
    <name>MAP_ITS_17_1729_2.1 - Lane 17</name>
    <trkseg>
      <trkpt lat="53.55346225642301" lon="10.024361356633918">
        <desc>Width: 17 cm</desc>
      </trkpt>
      <trkpt lat="53.55346225642301" lon="10.024361356633918">
        <desc>Width: 17 cm</desc>
      </trkpt>
      <trkpt lat="53.55346225642301" lon="10.024361356633918">
        <desc>Width: 17 cm</desc>
      </trkpt>
      <trkpt lat="53.55346225642301" lon="10.024361356633918">
        <desc>Width: 17 cm</desc>
      </trkpt>
      <trkpt lat="53.55346225642301" lon="10.024361356633918">
        <desc>Width: 17 cm</desc>
      </trkpt>
      <trkpt lat="53.55346225642301" lon="10.024361356633918">
        <desc>Width: 17 cm</desc>
      </trkpt>
      <trkpt lat="53.55346225642301" lon="10.024361356633918">
        <desc>Width: 17 cm</desc>
      </trkpt>
      <trkpt lat="53.55346225642301" lon="10.024361356633918">
        <desc>Width: 17 cm</desc>
      </trkpt>
      <trkpt lat="53.55346225642301" lon="10.024361356633918">
        <desc>Width: 17 cm</desc>
      </trkpt>
      <trkpt lat="53.55346225642301" lon="10.024361356633918">
        <desc>Width: 17 cm</desc>
      </trkpt>
    </trkseg>
  </trk>
  <trk>
    <name>MAP_ITS_17_1729_2.1 - Lane 18</name>
    <trkseg>
      <trkpt lat="53.553448913624436" lon="10.023399919022813">
        <desc>Width: 25 cm</desc>
      </trkpt>
      <trkpt lat="53.55346590435159" lon="10.023504788277826">
        <desc>Width: 25 cm</desc>
      </trkpt>
      <trkpt lat="53.55346868494755" lon="10.023610522263715">
        <desc>Width: 25 cm</desc>
      </trkpt>
      <trkpt lat="53.5534677897592" lon="10.023715110867728">
        <desc>Width: 25 cm</desc>
      </trkpt>
      <trkpt lat="53.55346688414376" lon="10.023820906838075">
        <desc>Width: 25 cm</desc>
      </trkpt>
      <trkpt lat="53.55346597197428" lon="10.023927457410103">
        <desc>Width: 25 cm</desc>
      </trkpt>
      <trkpt lat="53.55346506746327" lon="10.024033102447424">
        <desc>Width: 25 cm</desc>
      </trkpt>
      <trkpt lat="53.55346415381244" lon="10.024139803929295">
        <desc>Width: 25 cm</desc>
      </trkpt>
      <trkpt lat="53.553463247821405" lon="10.024245599876544">
        <desc>Width: 25 cm</desc>
      </trkpt>
      <trkpt lat="53.553462335273665" lon="10.024352150425305">
        <desc>Width: 25 cm</desc>
      </trkpt>
    </trkseg>
  </trk>
  <trk>
    <name>MAP_ITS_17_1729_2.1 - Lane 19</name>
    <trkseg>
      <trkpt lat="53.55346562439466" lon="10.023968055289407">
        <desc>Width: 23 cm</desc>
      </trkpt>
      <trkpt lat="53.5534654279867" lon="10.023990995354666">
        <desc>Width: 23 cm</desc>
      </trkpt>
      <trkpt lat="53.55346519668485" lon="10.024018010299587">
        <desc>Width: 23 cm</desc>
      </trkpt>
      <trkpt lat="53.55346492273286" lon="10.024050005652864">
        <desc>Width: 23 cm</desc>
      </trkpt>
      <trkpt lat="53.55346461517278" lon="10.024085924963932">
        <desc>Width: 23 cm</desc>
      </trkpt>
      <trkpt lat="53.55346428950918" lon="10.024123957174933">
        <desc>Width: 23 cm</desc>
      </trkpt>
      <trkpt lat="53.55346397417259" lon="10.024160782013444">
        <desc>Width: 23 cm</desc>
      </trkpt>
      <trkpt lat="53.55346365753222" lon="10.024197757772722">
        <desc>Width: 23 cm</desc>
      </trkpt>
      <trkpt lat="53.55346336672998" lon="10.024231715102054">
        <desc>Width: 23 cm</desc>
      </trkpt>
      <trkpt lat="53.553463101768436" lon="10.024262654001596">
        <desc>Width: 23 cm</desc>
      </trkpt>
    </trkseg>
  </trk>
  <trk>
    <name>MAP_ITS_17_1729_2.1 - Lane 20</name>
    <trkseg>
      <trkpt lat="53.55301197162836" lon="10.023870909184387">
        <desc>Width: 74 cm</desc>
      </trkpt>
      <trkpt lat="53.55298989783858" lon="10.023918831551315">
        <desc>Width: 74 cm</desc>
      </trkpt>
      <trkpt lat="53.552965952232775" lon="10.02396489726481">
        <desc>Width: 74 cm</desc>
      </trkpt>
      <trkpt lat="53.552935907554776" lon="10.023998890551724">
        <desc>Width: 74 cm</desc>
      </trkpt>
      <trkpt lat="53.552900927558134" lon="10.024010876777856">
        <desc>Width: 74 cm</desc>
      </trkpt>
      <trkpt lat="53.55286490386146" lon="10.0239977799941">
        <desc>Width: 74 cm</desc>
      </trkpt>
      <trkpt lat="53.55283295338865" lon="10.023970894138623">
        <desc>Width: 74 cm</desc>
      </trkpt>
      <trkpt lat="53.55280193780374" lon="10.023939804286414">
        <desc>Width: 74 cm</desc>
      </trkpt>
      <trkpt lat="53.55276993233123" lon="10.023908841531984">
        <desc>Width: 74 cm</desc>
      </trkpt>
      <trkpt lat="53.5527388986412" lon="10.023879864636367">
        <desc>Width: 74 cm</desc>
      </trkpt>
    </trkseg>
  </trk>
  <trk>
    <name>MAP_ITS_17_1729_2.1 - Lane 21</name>
    <trkseg>
      <trkpt lat="53.553362915582106" lon="10.023396787140205">
        <desc>Width: 13 cm</desc>
      </trkpt>
      <trkpt lat="53.553374948195184" lon="10.02347179891155">
        <desc>Width: 13 cm</desc>
      </trkpt>
      <trkpt lat="53.553385910052015" lon="10.02354587916957">
        <desc>Width: 13 cm</desc>
      </trkpt>
      <trkpt lat="53.553396953984084" lon="10.023620867162004">
        <desc>Width: 13 cm</desc>
      </trkpt>
      <trkpt lat="53.55340691036772" lon="10.023696885610105">
        <desc>Width: 13 cm</desc>
      </trkpt>
      <trkpt lat="53.55341597703064" lon="10.023771825949273">
        <desc>Width: 13 cm</desc>
      </trkpt>
      <trkpt lat="53.553423956143945" lon="10.023847796733603">
        <desc>Width: 13 cm</desc>
      </trkpt>
      <trkpt lat="53.553431933916755" lon="10.023923918467272">
        <desc>Width: 13 cm</desc>
      </trkpt>
      <trkpt lat="53.5534389153009" lon="10.024000921887666">
        <desc>Width: 13 cm</desc>
      </trkpt>
      <trkpt lat="53.5534449170944" lon="10.024076845011514">
        <desc>Width: 13 cm</desc>
      </trkpt>
    </trkseg>
  </trk>
  <trk>
    <name>MAP_ITS_17_1729_2.1 - Lane 22</name>
    <trkseg>
      <trkpt lat="53.55347036269493" lon="10.02341447521161">
        <desc>Width: 21 cm</desc>
      </trkpt>
      <trkpt lat="53.553469458636954" lon="10.023520120276784">
        <desc>Width: 21 cm</desc>
      </trkpt>
      <trkpt lat="53.553468563527645" lon="10.023624708885656">
        <desc>Width: 21 cm</desc>
      </trkpt>
      <trkpt lat="53.553467659283996" lon="10.023730353939419">
        <desc>Width: 21 cm</desc>
      </trkpt>
      <trkpt lat="53.55346675494705" lon="10.023835998987442">
        <desc>Width: 21 cm</desc>
      </trkpt>
      <trkpt lat="53.5534658505168" lon="10.023941644029733">
        <desc>Width: 21 cm</desc>
      </trkpt>
      <trkpt lat="53.553464936947556" lon="10.024048345516622">
        <desc>Width: 21 cm</desc>
      </trkpt>
      <trkpt lat="53.55346402328312" lon="10.024155046997656">
        <desc>Width: 21 cm</desc>
      </trkpt>
      <trkpt lat="53.55346310047593" lon="10.024262804923056">
        <desc>Width: 21 cm</desc>
      </trkpt>
      <trkpt lat="53.55346225642301" lon="10.024361356633918">
        <desc>Width: 21 cm</desc>
      </trkpt>
    </trkseg>
  </trk>
  <trk>
    <name>MAP_ITS_17_1729_2.1 - Lane 23</name>
    <trkseg>
      <trkpt lat="53.55346376738833" lon="10.024184929448154">
        <desc>Width: 23 cm</desc>
      </trkpt>
      <trkpt lat="53.55346398838881" lon="10.024159121877297">
        <desc>Width: 23 cm</desc>
      </trkpt>
      <trkpt lat="53.553464208091384" lon="10.024133465227566">
        <desc>Width: 23 cm</desc>
      </trkpt>
      <trkpt lat="53.55346442003453" lon="10.024108714106328">
        <desc>Width: 23 cm</desc>
      </trkpt>
      <trkpt lat="53.55346462421881" lon="10.024084868513617">
        <desc>Width: 23 cm</desc>
      </trkpt>
      <trkpt lat="53.553464834859646" lon="10.024060268313235">
        <desc>Width: 23 cm</desc>
      </trkpt>
      <trkpt lat="53.553465055833236" lon="10.024034460740724">
        <desc>Width: 23 cm</desc>
      </trkpt>
      <trkpt lat="53.55346527680126" lon="10.024008653167868">
        <desc>Width: 23 cm</desc>
      </trkpt>
      <trkpt lat="53.55346552231475" lon="10.023979978086517">
        <desc>Width: 23 cm</desc>
      </trkpt>
      <trkpt lat="53.553465767821386" lon="10.023951303004742">
        <desc>Width: 23 cm</desc>
      </trkpt>
    </trkseg>
  </trk>
  <trk>
    <name>MAP_ITS_17_1729_2.1 - Lane 24</name>
    <trkseg>
      <trkpt lat="53.55346225642301" lon="10.024361356633918">
        <desc>Width: 47 cm</desc>
      </trkpt>
      <trkpt lat="53.55346225642301" lon="10.024361356633918">
        <desc>Width: 47 cm</desc>
      </trkpt>
      <trkpt lat="53.55346225642301" lon="10.024361356633918">
        <desc>Width: 47 cm</desc>
      </trkpt>
      <trkpt lat="53.55346225642301" lon="10.024361356633918">
        <desc>Width: 47 cm</desc>
      </trkpt>
      <trkpt lat="53.55346225642301" lon="10.024361356633918">
        <desc>Width: 47 cm</desc>
      </trkpt>
      <trkpt lat="53.55346225642301" lon="10.024361356633918">
        <desc>Width: 47 cm</desc>
      </trkpt>
      <trkpt lat="53.55346225642301" lon="10.024361356633918">
        <desc>Width: 47 cm</desc>
      </trkpt>
      <trkpt lat="53.55346225642301" lon="10.024361356633918">
        <desc>Width: 47 cm</desc>
      </trkpt>
      <trkpt lat="53.55346225642301" lon="10.024361356633918">
        <desc>Width: 47 cm</desc>
      </trkpt>
      <trkpt lat="53.55346225642301" lon="10.024361356633918">
        <desc>Width: 47 cm</desc>
      </trkpt>
    </trkseg>
  </trk>
  <trk>
    <name>MAP_ITS_17_1729_2.1 - Lane 25</name>
    <trkseg>
      <trkpt lat="53.55346536854658" lon="10.02399793774278">
        <desc>Width: 28 cm</desc>
      </trkpt>
      <trkpt lat="53.5534650971844" lon="10.024029631253432">
        <desc>Width: 28 cm</desc>
      </trkpt>
      <trkpt lat="53.5534648426132" lon="10.024059362784381">
        <desc>Width: 28 cm</desc>
      </trkpt>
      <trkpt lat="53.55346457898853" lon="10.024090150765192">
        <desc>Width: 28 cm</desc>
      </trkpt>
      <trkpt lat="53.55346433344863" lon="10.02411882584492">
        <desc>Width: 28 cm</desc>
      </trkpt>
      <trkpt lat="53.55346408660948" lon="10.024147651845693">
        <desc>Width: 28 cm</desc>
      </trkpt>
      <trkpt lat="53.55346384881021" lon="10.024175421395773">
        <desc>Width: 28 cm</desc>
      </trkpt>
      <trkpt lat="53.55346361100452" lon="10.024203190945459">
        <desc>Width: 28 cm</desc>
      </trkpt>
      <trkpt lat="53.553463382239684" lon="10.024229904044505">
        <desc>Width: 28 cm</desc>
      </trkpt>
      <trkpt lat="53.55346315217637" lon="10.02425676806465">
        <desc>Width: 28 cm</desc>
      </trkpt>
    </trkseg>
  </trk>
  <trk>
    <name>MAP_ITS_17_1729_2.1 - Lane 26</name>
    <trkseg>
      <trkpt lat="53.55300392855566" lon="10.023980909267406">
        <desc>Width: 66 cm</desc>
      </trkpt>
      <trkpt lat="53.552967952221024" lon="10.02399377717611">
        <desc>Width: 66 cm</desc>
      </trkpt>
      <trkpt lat="53.552931927363076" lon="10.024001813466798">
        <desc>Width: 66 cm</desc>
      </trkpt>
      <trkpt lat="53.55289591471505" lon="10.02399792493744">
        <desc>Width: 66 cm</desc>
      </trkpt>
      <trkpt lat="53.55286090544698" lon="10.023981833648413">
        <desc>Width: 66 cm</desc>
      </trkpt>
      <trkpt lat="53.55282895626263" lon="10.023954796888257">
        <desc>Width: 66 cm</desc>
      </trkpt>
      <trkpt lat="53.552797956178345" lon="10.023921896021426">
        <desc>Width: 66 cm</desc>
      </trkpt>
      <trkpt lat="53.55276896943568" lon="10.023884817203529">
        <desc>Width: 66 cm</desc>
      </trkpt>
      <trkpt lat="53.552740979020136" lon="10.023846856788422">
        <desc>Width: 66 cm</desc>
      </trkpt>
      <trkpt lat="53.55271299763569" lon="10.023807839991818">
        <desc>Width: 66 cm</desc>
      </trkpt>
    </trkseg>
  </trk>
</gpx>