<?xml version='1.0' encoding='utf-8'?>
<gpx version="1.1" creator="GPX Generator Script">
  <trk>
    <name>MAP_ITS_17_1729_2.1 - Lane 10</name>
    <trkseg>
      <trkpt lat="53.586234861343165" lon="10.016879907842698">
        <desc>Width: 39 cm</desc>
      </trkpt>
      <trkpt lat="53.586251884275946" lon="10.016928809777701">
        <desc>Width: 39 cm</desc>
      </trkpt>
      <trkpt lat="53.586268905904646" lon="10.016977862790487">
        <desc>Width: 39 cm</desc>
      </trkpt>
      <trkpt lat="53.586286925084075" lon="10.017025882307045">
        <desc>Width: 39 cm</desc>
      </trkpt>
      <trkpt lat="53.5863059341116" lon="10.017073774562148">
        <desc>Width: 39 cm</desc>
      </trkpt>
      <trkpt lat="53.58632485196443" lon="10.017121815740959">
        <desc>Width: 39 cm</desc>
      </trkpt>
      <trkpt lat="53.58634386865766" lon="10.017168801848271">
        <desc>Width: 39 cm</desc>
      </trkpt>
      <trkpt lat="53.586362885332164" lon="10.01721578799764">
        <desc>Width: 39 cm</desc>
      </trkpt>
      <trkpt lat="53.58638190198797" lon="10.017262774189069">
        <desc>Width: 39 cm</desc>
      </trkpt>
      <trkpt lat="53.586400909635096" lon="10.017310817696284">
        <desc>Width: 39 cm</desc>
      </trkpt>
    </trkseg>
  </trk>
  <trk>
    <name>MAP_ITS_17_1729_2.1 - Lane 11</name>
    <trkseg>
      <trkpt lat="53.58664188506656" lon="10.017365854185991">
        <desc>Width: 33 cm</desc>
      </trkpt>
      <trkpt lat="53.58666790925746" lon="10.017349861434345">
        <desc>Width: 33 cm</desc>
      </trkpt>
      <trkpt lat="53.58669285499147" lon="10.017333842761754">
        <desc>Width: 33 cm</desc>
      </trkpt>
      <trkpt lat="53.586718879178036" lon="10.017317849971551">
        <desc>Width: 33 cm</desc>
      </trkpt>
      <trkpt lat="53.58674391477896" lon="10.017301833419564">
        <desc>Width: 33 cm</desc>
      </trkpt>
      <trkpt lat="53.586769849089976" lon="10.017285838432413">
        <desc>Width: 33 cm</desc>
      </trkpt>
      <trkpt lat="53.586794884686576" lon="10.01726982184257">
        <desc>Width: 33 cm</desc>
      </trkpt>
      <trkpt lat="53.586820899874986" lon="10.017254886259444">
        <desc>Width: 33 cm</desc>
      </trkpt>
      <trkpt lat="53.58684691634571" lon="10.017239799617462">
        <desc>Width: 33 cm</desc>
      </trkpt>
      <trkpt lat="53.58687292382526" lon="10.01722577024267">
        <desc>Width: 33 cm</desc>
      </trkpt>
    </trkseg>
  </trk>
  <trk>
    <name>MAP_ITS_17_1729_2.1 - Lane 12</name>
    <trkseg>
      <trkpt lat="53.586724847007865" lon="10.017556836716878">
        <desc>Width: 39 cm</desc>
      </trkpt>
      <trkpt lat="53.58674193029711" lon="10.017545765691732">
        <desc>Width: 39 cm</desc>
      </trkpt>
      <trkpt lat="53.58675892242953" lon="10.017534843539217">
        <desc>Width: 39 cm</desc>
      </trkpt>
      <trkpt lat="53.5867759158455" lon="10.017523770337583">
        <desc>Width: 39 cm</desc>
      </trkpt>
      <trkpt lat="53.586792916967696" lon="10.017511790884189">
        <desc>Width: 39 cm</desc>
      </trkpt>
      <trkpt lat="53.58680991808869" lon="10.017499811421253">
        <desc>Width: 39 cm</desc>
      </trkpt>
      <trkpt lat="53.586826928200054" lon="10.017486774664471">
        <desc>Width: 39 cm</desc>
      </trkpt>
      <trkpt lat="53.586842850863896" lon="10.017474769276818">
        <desc>Width: 39 cm</desc>
      </trkpt>
      <trkpt lat="53.586859851981174" lon="10.017462789785112">
        <desc>Width: 39 cm</desc>
      </trkpt>
      <trkpt lat="53.58687686080403" lon="10.0174499040391">
        <desc>Width: 39 cm</desc>
      </trkpt>
    </trkseg>
  </trk>
  <trk>
    <name>MAP_ITS_17_1729_2.1 - Lane 13</name>
    <trkseg>
      <trkpt lat="53.586468922832545" lon="10.017335867011885">
        <desc>Width: 44 cm</desc>
      </trkpt>
      <trkpt lat="53.586442894966076" lon="10.017288863379632">
        <desc>Width: 44 cm</desc>
      </trkpt>
      <trkpt lat="53.58641786465366" lon="10.017240826271568">
        <desc>Width: 44 cm</desc>
      </trkpt>
      <trkpt lat="53.58639392947011" lon="10.017190851609715">
        <desc>Width: 44 cm</desc>
      </trkpt>
      <trkpt lat="53.586371907242565" lon="10.017137901542526">
        <desc>Width: 44 cm</desc>
      </trkpt>
      <trkpt lat="53.58635087485885" lon="10.017084824228212">
        <desc>Width: 44 cm</desc>
      </trkpt>
      <trkpt lat="53.586330928609726" lon="10.01703086662667">
        <desc>Width: 44 cm</desc>
      </trkpt>
      <trkpt lat="53.58630989617791" lon="10.016977789416492">
        <desc>Width: 44 cm</desc>
      </trkpt>
      <trkpt lat="53.58628887142497" lon="10.016923806026519">
        <desc>Width: 44 cm</desc>
      </trkpt>
      <trkpt lat="53.58626792624881" lon="10.016871033156594">
        <desc>Width: 44 cm</desc>
      </trkpt>
    </trkseg>
  </trk>
  <trk>
    <name>MAP_ITS_17_1729_2.1 - Lane 14</name>
    <trkseg>
      <trkpt lat="53.58622296800119" lon="10.017707784302727">
        <desc>Width: 38 cm</desc>
      </trkpt>
      <trkpt lat="53.586239879271076" lon="10.017695802917714">
        <desc>Width: 38 cm</desc>
      </trkpt>
      <trkpt lat="53.586255899536035" lon="10.01768289370015">
        <desc>Width: 38 cm</desc>
      </trkpt>
      <trkpt lat="53.58627289296623" lon="10.017671820686946">
        <desc>Width: 38 cm</desc>
      </trkpt>
      <trkpt lat="53.58628989410373" lon="10.017659841432781">
        <desc>Width: 38 cm</desc>
      </trkpt>
      <trkpt lat="53.58630688753179" lon="10.017648768401594">
        <desc>Width: 38 cm</desc>
      </trkpt>
      <trkpt lat="53.586323879674126" lon="10.01763784640041">
        <desc>Width: 38 cm</desc>
      </trkpt>
      <trkpt lat="53.586340873100156" lon="10.017626773351665">
        <desc>Width: 38 cm</desc>
      </trkpt>
      <trkpt lat="53.586357874233116" lon="10.017614794060494">
        <desc>Width: 38 cm</desc>
      </trkpt>
      <trkpt lat="53.58637487536487" lon="10.017602814759782">
        <desc>Width: 38 cm</desc>
      </trkpt>
    </trkseg>
  </trk>
  <trk>
    <name>MAP_ITS_17_1729_2.1 - Lane 15</name>
    <trkseg>
      <trkpt lat="53.58622099869663" lon="10.017875877133884">
        <desc>Width: 37 cm</desc>
      </trkpt>
      <trkpt lat="53.586241922063365" lon="10.017867768959047">
        <desc>Width: 37 cm</desc>
      </trkpt>
      <trkpt lat="53.58626187226578" lon="10.017857824558424">
        <desc>Width: 37 cm</desc>
      </trkpt>
      <trkpt lat="53.586282909916626" lon="10.017846848792109">
        <desc>Width: 37 cm</desc>
      </trkpt>
      <trkpt lat="53.58630288581608" lon="10.017833883597648">
        <desc>Width: 37 cm</desc>
      </trkpt>
      <trkpt lat="53.58632286299903" lon="10.017820767352257">
        <desc>Width: 37 cm</desc>
      </trkpt>
      <trkpt lat="53.58634291977249" lon="10.017808861565024">
        <desc>Width: 37 cm</desc>
      </trkpt>
      <trkpt lat="53.58636288795844" lon="10.017796802568268">
        <desc>Width: 37 cm</desc>
      </trkpt>
      <trkpt lat="53.58638392560361" lon="10.017785826746056">
        <desc>Width: 37 cm</desc>
      </trkpt>
      <trkpt lat="53.58640485667325" lon="10.01777681226195">
        <desc>Width: 37 cm</desc>
      </trkpt>
    </trkseg>
  </trk>
  <trk>
    <name>MAP_ITS_17_1729_2.1 - Lane 16</name>
    <trkseg>
      <trkpt lat="53.58666286602103" lon="10.0174038236842">
        <desc>Width: 32 cm</desc>
      </trkpt>
      <trkpt lat="53.5866868950685" lon="10.017389898021332">
        <desc>Width: 32 cm</desc>
      </trkpt>
      <trkpt lat="53.58670985465023" lon="10.017374889158843">
        <desc>Width: 32 cm</desc>
      </trkpt>
      <trkpt lat="53.586732904101275" lon="10.017359882438734">
        <desc>Width: 32 cm</desc>
      </trkpt>
      <trkpt lat="53.586755872669514" lon="10.017343816261377">
        <desc>Width: 32 cm</desc>
      </trkpt>
      <trkpt lat="53.58677991969029" lon="10.01732777596813">
        <desc>Width: 32 cm</desc>
      </trkpt>
      <trkpt lat="53.58680287027414" lon="10.017313824323324">
        <desc>Width: 32 cm</desc>
      </trkpt>
      <trkpt lat="53.586826899311035" lon="10.017299898564275">
        <desc>Width: 32 cm</desc>
      </trkpt>
      <trkpt lat="53.58685091293519" lon="10.017287785278096">
        <desc>Width: 32 cm</desc>
      </trkpt>
      <trkpt lat="53.586874916284145" lon="10.017276880304712">
        <desc>Width: 32 cm</desc>
      </trkpt>
    </trkseg>
  </trk>
  <trk>
    <name>MAP_ITS_17_1729_2.1 - Lane 17</name>
    <trkseg>
      <trkpt lat="53.58622096695265" lon="10.017826778844263">
        <desc>Width: 34 cm</desc>
      </trkpt>
      <trkpt lat="53.586239919573934" lon="10.017817867944727">
        <desc>Width: 34 cm</desc>
      </trkpt>
      <trkpt lat="53.5862588811889" lon="10.017807899767304">
        <desc>Width: 34 cm</desc>
      </trkpt>
      <trkpt lat="53.586278922542526" lon="10.017797806455302">
        <desc>Width: 34 cm</desc>
      </trkpt>
      <trkpt lat="53.586296912275806" lon="10.017785851003417">
        <desc>Width: 34 cm</desc>
      </trkpt>
      <trkpt lat="53.58631589187616" lon="10.01777376825564">
        <desc>Width: 34 cm</desc>
      </trkpt>
      <trkpt lat="53.58633487019043" lon="10.017761836535978">
        <desc>Width: 34 cm</desc>
      </trkpt>
      <trkpt lat="53.58635384850351" lon="10.017749904805722">
        <desc>Width: 34 cm</desc>
      </trkpt>
      <trkpt lat="53.58637290897767" lon="10.01773888145806">
        <desc>Width: 34 cm</desc>
      </trkpt>
      <trkpt lat="53.58639187187075" lon="10.017728762175622">
        <desc>Width: 34 cm</desc>
      </trkpt>
    </trkseg>
  </trk>
  <trk>
    <name>MAP_ITS_17_1729_2.1 - Lane 18</name>
    <trkseg>
      <trkpt lat="53.58670289421849" lon="10.01751687981799">
        <desc>Width: 37 cm</desc>
      </trkpt>
      <trkpt lat="53.58672188149868" lon="10.01750389059448">
        <desc>Width: 37 cm</desc>
      </trkpt>
      <trkpt lat="53.586740877769046" lon="10.017489844077264">
        <desc>Width: 37 cm</desc>
      </trkpt>
      <trkpt lat="53.58675888545434" lon="10.017475773801156">
        <desc>Width: 37 cm</desc>
      </trkpt>
      <trkpt lat="53.58677788043691" lon="10.017461878299677">
        <desc>Width: 37 cm</desc>
      </trkpt>
      <trkpt lat="53.58679687670236" lon="10.017447831745313">
        <desc>Width: 37 cm</desc>
      </trkpt>
      <trkpt lat="53.58681587296614" lon="10.017433785178445">
        <desc>Width: 37 cm</desc>
      </trkpt>
      <trkpt lat="53.58683486023728" lon="10.017420795883586">
        <desc>Width: 37 cm</desc>
      </trkpt>
      <trkpt lat="53.586853847507015" lon="10.017407806577175">
        <desc>Width: 37 cm</desc>
      </trkpt>
      <trkpt lat="53.58687291565579" lon="10.017395876703294">
        <desc>Width: 37 cm</desc>
      </trkpt>
    </trkseg>
  </trk>
  <trk>
    <name>MAP_ITS_17_1729_2.1 - Lane 19</name>
    <trkseg>
      <trkpt lat="53.58668492541784" lon="10.017441819124212">
        <desc>Width: 41 cm</desc>
      </trkpt>
      <trkpt lat="53.58670687073381" lon="10.017429807349226">
        <desc>Width: 41 cm</desc>
      </trkpt>
      <trkpt lat="53.58672890591977" lon="10.017417797720556">
        <desc>Width: 41 cm</desc>
      </trkpt>
      <trkpt lat="53.58674987035629" lon="10.017404855934114">
        <desc>Width: 41 cm</desc>
      </trkpt>
      <trkpt lat="53.58677191453044" lon="10.017391788997578">
        <desc>Width: 41 cm</desc>
      </trkpt>
      <trkpt lat="53.586792887954694" lon="10.017377789901872">
        <desc>Width: 41 cm</desc>
      </trkpt>
      <trkpt lat="53.58681386137731" lon="10.01736379079242">
        <desc>Width: 41 cm</desc>
      </trkpt>
      <trkpt lat="53.58683590426261" lon="10.0173508748558">
        <desc>Width: 41 cm</desc>
      </trkpt>
      <trkpt lat="53.586856860985854" lon="10.01733883924851">
        <desc>Width: 41 cm</desc>
      </trkpt>
      <trkpt lat="53.58687889616257" lon="10.017326829530898">
        <desc>Width: 41 cm</desc>
      </trkpt>
    </trkseg>
  </trk>
  <trk>
    <name>MAP_ITS_17_1729_2.1 - Lane 20</name>
    <trkseg>
      <trkpt lat="53.58621995302941" lon="10.017776901609304">
        <desc>Width: 39 cm</desc>
      </trkpt>
      <trkpt lat="53.58623891592593" lon="10.01776678237957">
        <desc>Width: 39 cm</desc>
      </trkpt>
      <trkpt lat="53.58625689666236" lon="10.017755884195525">
        <desc>Width: 39 cm</desc>
      </trkpt>
      <trkpt lat="53.58627487868261" lon="10.017744834963683">
        <desc>Width: 39 cm</desc>
      </trkpt>
      <trkpt lat="53.586292868410695" lon="10.017732879490348">
        <desc>Width: 39 cm</desc>
      </trkpt>
      <trkpt lat="53.586310850428816" lon="10.017721830239525">
        <desc>Width: 39 cm</desc>
      </trkpt>
      <trkpt lat="53.586328930025815" lon="10.017709876905666">
        <desc>Width: 39 cm</desc>
      </trkpt>
      <trkpt lat="53.58634691204178" lon="10.017698827635844">
        <desc>Width: 39 cm</desc>
      </trkpt>
      <trkpt lat="53.58636489405672" lon="10.01768777835673">
        <desc>Width: 39 cm</desc>
      </trkpt>
      <trkpt lat="53.586382874785876" lon="10.017676880107341">
        <desc>Width: 39 cm</desc>
      </trkpt>
    </trkseg>
  </trk>
  <trk>
    <name>MAP_ITS_17_1729_2.1 - Lane 21</name>
    <trkseg>
      <trkpt lat="53.58661184793017" lon="10.01780082066692">
        <desc>Width: 50 cm</desc>
      </trkpt>
      <trkpt lat="53.58663392503742" lon="10.017857851613591">
        <desc>Width: 50 cm</desc>
      </trkpt>
      <trkpt lat="53.58665692653012" lon="10.017911883416597">
        <desc>Width: 50 cm</desc>
      </trkpt>
      <trkpt lat="53.586681914160444" lon="10.017964905513116">
        <desc>Width: 50 cm</desc>
      </trkpt>
      <trkpt lat="53.586707917338856" lon="10.018014779587597">
        <desc>Width: 50 cm</desc>
      </trkpt>
      <trkpt lat="53.58673391921084" lon="10.018064804763505">
        <desc>Width: 50 cm</desc>
      </trkpt>
      <trkpt lat="53.586760909644745" lon="10.018114853762066">
        <desc>Width: 50 cm</desc>
      </trkpt>
      <trkpt lat="53.58678626222066" lon="10.018124980623723">
        <desc>Width: 50 cm</desc>
      </trkpt>
      <trkpt lat="53.58681169577085" lon="10.018125591944305">
        <desc>Width: 50 cm</desc>
      </trkpt>
      <trkpt lat="53.58683515215449" lon="10.01812615574256">
        <desc>Width: 50 cm</desc>
      </trkpt>
    </trkseg>
  </trk>
  <trk>
    <name>MAP_ITS_17_1729_2.1 - Lane 22</name>
    <trkseg>
      <trkpt lat="53.586221950232684" lon="10.017647785332377">
        <desc>Width: 38 cm</desc>
      </trkpt>
      <trkpt lat="53.5862378729132" lon="10.017635780173945">
        <desc>Width: 38 cm</desc>
      </trkpt>
      <trkpt lat="53.58625388546375" lon="10.017623777165586">
        <desc>Width: 38 cm</desc>
      </trkpt>
      <trkpt lat="53.58626988902046" lon="10.017612831418575">
        <desc>Width: 38 cm</desc>
      </trkpt>
      <trkpt lat="53.586285892576186" lon="10.017601885663357">
        <desc>Width: 38 cm</desc>
      </trkpt>
      <trkpt lat="53.58630287700657" lon="10.017591869881064">
        <desc>Width: 38 cm</desc>
      </trkpt>
      <trkpt lat="53.58631887285261" lon="10.017581830342332">
        <desc>Width: 38 cm</desc>
      </trkpt>
      <trkpt lat="53.5863358572813" lon="10.017571814544349">
        <desc>Width: 38 cm</desc>
      </trkpt>
      <trkpt lat="53.58635185312564" lon="10.017561774990368">
        <desc>Width: 38 cm</desc>
      </trkpt>
      <trkpt lat="53.586367929848294" lon="10.017552794860594">
        <desc>Width: 38 cm</desc>
      </trkpt>
    </trkseg>
  </trk>
  <trk>
    <name>MAP_ITS_17_1729_2.1 - Lane 23</name>
    <trkseg>
      <trkpt lat="53.58665988512055" lon="10.017838836208446">
        <desc>Width: 40 cm</desc>
      </trkpt>
      <trkpt lat="53.586682873851295" lon="10.017883803469978">
        <desc>Width: 40 cm</desc>
      </trkpt>
      <trkpt lat="53.58670487269649" lon="10.017928898063511">
        <desc>Width: 40 cm</desc>
      </trkpt>
      <trkpt lat="53.58672586751959" lon="10.017975781428602">
        <desc>Width: 40 cm</desc>
      </trkpt>
      <trkpt lat="53.5867458724556" lon="10.01802279212123">
        <desc>Width: 40 cm</desc>
      </trkpt>
      <trkpt lat="53.58676586837613" lon="10.01807086014073">
        <desc>Width: 40 cm</desc>
      </trkpt>
      <trkpt lat="53.58678586556239" lon="10.018118777165045">
        <desc>Width: 40 cm</desc>
      </trkpt>
      <trkpt lat="53.58680720221075" lon="10.018125483937068">
        <desc>Width: 40 cm</desc>
      </trkpt>
      <trkpt lat="53.586828591556774" lon="10.018125998051781">
        <desc>Width: 40 cm</desc>
      </trkpt>
      <trkpt lat="53.58685096948593" lon="10.018126535928806">
        <desc>Width: 40 cm</desc>
      </trkpt>
    </trkseg>
  </trk>
  <trk>
    <name>MAP_ITS_17_1729_2.1 - Lane 24</name>
    <trkseg>
      <trkpt lat="53.586690905024575" lon="10.017594846589645">
        <desc>Width: 39 cm</desc>
      </trkpt>
      <trkpt lat="53.586664889794335" lon="10.017609781918628">
        <desc>Width: 39 cm</desc>
      </trkpt>
      <trkpt lat="53.586637875701356" lon="10.017625901799166">
        <desc>Width: 39 cm</desc>
      </trkpt>
      <trkpt lat="53.58661193363728" lon="10.017642802767785">
        <desc>Width: 39 cm</desc>
      </trkpt>
      <trkpt lat="53.58658590041486" lon="10.017659852596486">
        <desc>Width: 39 cm</desc>
      </trkpt>
      <trkpt lat="53.58655986719001" lon="10.017676902404409">
        <desc>Width: 39 cm</desc>
      </trkpt>
      <trkpt lat="53.586532846664056" lon="10.017693777400712">
        <desc>Width: 39 cm</desc>
      </trkpt>
      <trkpt lat="53.58650691229905" lon="10.017709772049793">
        <desc>Width: 39 cm</desc>
      </trkpt>
      <trkpt lat="53.58647990718612" lon="10.017724834532023">
        <desc>Width: 39 cm</desc>
      </trkpt>
      <trkpt lat="53.58645290207124" lon="10.017739896995248">
        <desc>Width: 39 cm</desc>
      </trkpt>
    </trkseg>
  </trk>
</gpx>