<?xml version='1.0' encoding='utf-8'?>
<gpx version="1.1" creator="GPX Generator Script">
  <trk>
    <name>MAP_ITS_17_1729_2.1 - Lane 10</name>
    <trkseg>
      <trkpt lat="53.58273089809715" lon="10.05532592956046">
        <desc>Width: 55 cm</desc>
      </trkpt>
      <trkpt lat="53.582754896212315" lon="10.055305832496456">
        <desc>Width: 55 cm</desc>
      </trkpt>
      <trkpt lat="53.58277783186748" lon="10.055283896253524">
        <desc>Width: 55 cm</desc>
      </trkpt>
      <trkpt lat="53.582800876038604" lon="10.055259847883125">
        <desc>Width: 55 cm</desc>
      </trkpt>
      <trkpt lat="53.58282284043033" lon="10.055235923648647">
        <desc>Width: 55 cm</desc>
      </trkpt>
      <trkpt lat="53.58284489601957" lon="10.055211850603328">
        <desc>Width: 55 cm</desc>
      </trkpt>
      <trkpt lat="53.58286784897408" lon="10.055187950942223">
        <desc>Width: 55 cm</desc>
      </trkpt>
      <trkpt lat="53.58289005765409" lon="10.055166902818973">
        <desc>Width: 55 cm</desc>
      </trkpt>
      <trkpt lat="53.58289023081337" lon="10.055147269597278">
        <desc>Width: 55 cm</desc>
      </trkpt>
      <trkpt lat="53.58289038665396" lon="10.055129599697576">
        <desc>Width: 55 cm</desc>
      </trkpt>
    </trkseg>
  </trk>
  <trk>
    <name>MAP_ITS_17_1729_2.1 - Lane 11</name>
    <trkseg>
      <trkpt lat="53.582217904360036" lon="10.055915862434217">
        <desc>Width: 53 cm</desc>
      </trkpt>
      <trkpt lat="53.58224690618252" lon="10.05587882136245">
        <desc>Width: 53 cm</desc>
      </trkpt>
      <trkpt lat="53.5822768872359" lon="10.055842862035687">
        <desc>Width: 53 cm</desc>
      </trkpt>
      <trkpt lat="53.58230784885392" lon="10.0558078334311">
        <desc>Width: 53 cm</desc>
      </trkpt>
      <trkpt lat="53.58233790243043" lon="10.055773839538503">
        <desc>Width: 53 cm</desc>
      </trkpt>
      <trkpt lat="53.582368854699375" lon="10.055739867993621">
        <desc>Width: 53 cm</desc>
      </trkpt>
      <trkpt lat="53.58239891758547" lon="10.055704816843152">
        <desc>Width: 53 cm</desc>
      </trkpt>
      <trkpt lat="53.58242891591123" lon="10.055666893964496">
        <desc>Width: 53 cm</desc>
      </trkpt>
      <trkpt lat="53.58245685653847" lon="10.055627862364684">
        <desc>Width: 53 cm</desc>
      </trkpt>
      <trkpt lat="53.58248383389896" lon="10.055585936638566">
        <desc>Width: 53 cm</desc>
      </trkpt>
    </trkseg>
  </trk>
  <trk>
    <name>MAP_ITS_17_1729_2.1 - Lane 12</name>
    <trkseg>
      <trkpt lat="53.58247784756872" lon="10.055316906923712">
        <desc>Width: 66 cm</desc>
      </trkpt>
      <trkpt lat="53.582463874544665" lon="10.055290879257324">
        <desc>Width: 66 cm</desc>
      </trkpt>
      <trkpt lat="53.58244990950758" lon="10.055263945468841">
        <desc>Width: 66 cm</desc>
      </trkpt>
      <trkpt lat="53.582436844498524" lon="10.055236883060115">
        <desc>Width: 66 cm</desc>
      </trkpt>
      <trkpt lat="53.582422888773436" lon="10.055208892144774">
        <desc>Width: 66 cm</desc>
      </trkpt>
      <trkpt lat="53.582409913621916" lon="10.055181832008627">
        <desc>Width: 66 cm</desc>
      </trkpt>
      <trkpt lat="53.58239585868961" lon="10.055154896051967">
        <desc>Width: 66 cm</desc>
      </trkpt>
      <trkpt lat="53.58238188562962" lon="10.055128868489273">
        <desc>Width: 66 cm</desc>
      </trkpt>
      <trkpt lat="53.5823659167722" lon="10.055104906023557">
        <desc>Width: 66 cm</desc>
      </trkpt>
      <trkpt lat="53.58234985004829" lon="10.055081847474902">
        <desc>Width: 66 cm</desc>
      </trkpt>
    </trkseg>
  </trk>
  <trk>
    <name>MAP_ITS_17_1729_2.1 - Lane 13</name>
    <trkseg>
      <trkpt lat="53.582493865246455" lon="10.055691926172194">
        <desc>Width: 54 cm</desc>
      </trkpt>
      <trkpt lat="53.58246689526666" lon="10.055722824903647">
        <desc>Width: 54 cm</desc>
      </trkpt>
      <trkpt lat="53.58243883617464" lon="10.055754904905665">
        <desc>Width: 54 cm</desc>
      </trkpt>
      <trkpt lat="53.582411856849255" lon="10.055786860718472">
        <desc>Width: 54 cm</desc>
      </trkpt>
      <trkpt lat="53.58238389694016" lon="10.055817885715793">
        <desc>Width: 54 cm</desc>
      </trkpt>
      <trkpt lat="53.58235691759807" lon="10.055849841447294">
        <desc>Width: 54 cm</desc>
      </trkpt>
      <trkpt lat="53.58232984704444" lon="10.055881945921087">
        <desc>Width: 54 cm</desc>
      </trkpt>
      <trkpt lat="53.58230187911327" lon="10.055913876931887">
        <desc>Width: 54 cm</desc>
      </trkpt>
      <trkpt lat="53.58227489974579" lon="10.055945832540756">
        <desc>Width: 54 cm</desc>
      </trkpt>
      <trkpt lat="53.582247829166626" lon="10.055977936891416">
        <desc>Width: 54 cm</desc>
      </trkpt>
    </trkseg>
  </trk>
  <trk>
    <name>MAP_ITS_17_1729_2.1 - Lane 14</name>
    <trkseg>
      <trkpt lat="53.58288993777272" lon="10.055180495049258">
        <desc>Width: 51 cm</desc>
      </trkpt>
      <trkpt lat="53.582889736634925" lon="10.055203299790962">
        <desc>Width: 51 cm</desc>
      </trkpt>
      <trkpt lat="53.5828895195078" lon="10.05522791682971">
        <desc>Width: 51 cm</desc>
      </trkpt>
      <trkpt lat="53.58288927440115" lon="10.055255705388403">
        <desc>Width: 51 cm</desc>
      </trkpt>
      <trkpt lat="53.582867884478745" lon="10.055285837332699">
        <desc>Width: 51 cm</desc>
      </trkpt>
      <trkpt lat="53.58283984282146" lon="10.055315954606044">
        <desc>Width: 51 cm</desc>
      </trkpt>
      <trkpt lat="53.58281190168468" lon="10.055344865882494">
        <desc>Width: 51 cm</desc>
      </trkpt>
      <trkpt lat="53.58278289009213" lon="10.055372844108593">
        <desc>Width: 51 cm</desc>
      </trkpt>
      <trkpt lat="53.58275291523448" lon="10.055397928207405">
        <desc>Width: 51 cm</desc>
      </trkpt>
      <trkpt lat="53.58272188058171" lon="10.055420871065332">
        <desc>Width: 51 cm</desc>
      </trkpt>
    </trkseg>
  </trk>
  <trk>
    <name>MAP_ITS_17_1729_2.1 - Lane 15</name>
    <trkseg>
      <trkpt lat="53.5823938906834" lon="10.055000920781271">
        <desc>Width: 57 cm</desc>
      </trkpt>
      <trkpt lat="53.58240984421759" lon="10.055036816285154">
        <desc>Width: 57 cm</desc>
      </trkpt>
      <trkpt lat="53.58242588627918" lon="10.05507286507731">
        <desc>Width: 57 cm</desc>
      </trkpt>
      <trkpt lat="53.58244291690212" lon="10.055108938517415">
        <desc>Width: 57 cm</desc>
      </trkpt>
      <trkpt lat="53.58245987629136" lon="10.055142895422657">
        <desc>Width: 57 cm</desc>
      </trkpt>
      <trkpt lat="53.58247790478927" lon="10.05517793637895">
        <desc>Width: 57 cm</desc>
      </trkpt>
      <trkpt lat="53.58249485483417" lon="10.055212950503375">
        <desc>Width: 57 cm</desc>
      </trkpt>
      <trkpt lat="53.58251089817387" lon="10.055248848410855">
        <desc>Width: 57 cm</desc>
      </trkpt>
      <trkpt lat="53.582525844410014" lon="10.055286833810626">
        <desc>Width: 57 cm</desc>
      </trkpt>
      <trkpt lat="53.58254088050413" lon="10.055324821475821">
        <desc>Width: 57 cm</desc>
      </trkpt>
    </trkseg>
  </trk>
  <trk>
    <name>MAP_ITS_17_1729_2.1 - Lane 16</name>
    <trkseg>
      <trkpt lat="53.58281287954038" lon="10.055875858019027">
        <desc>Width: 59 cm</desc>
      </trkpt>
      <trkpt lat="53.58280490261884" lon="10.05585284949684">
        <desc>Width: 59 cm</desc>
      </trkpt>
      <trkpt lat="53.58279582859072" lon="10.055831928447411">
        <desc>Width: 59 cm</desc>
      </trkpt>
      <trkpt lat="53.582785857189776" lon="10.0558108339849">
        <desc>Width: 59 cm</desc>
      </trkpt>
      <trkpt lat="53.582774878553856" lon="10.055791829236174">
        <desc>Width: 59 cm</desc>
      </trkpt>
      <trkpt lat="53.582763907911435" lon="10.055771918351484">
        <desc>Width: 59 cm</desc>
      </trkpt>
      <trkpt lat="53.582753837300345" lon="10.05575187884919">
        <desc>Width: 59 cm</desc>
      </trkpt>
      <trkpt lat="53.58274486245346" lon="10.05572990291645">
        <desc>Width: 59 cm</desc>
      </trkpt>
      <trkpt lat="53.58273689483225" lon="10.055705837289013">
        <desc>Width: 59 cm</desc>
      </trkpt>
      <trkpt lat="53.58273090435046" lon="10.055681820939263">
        <desc>Width: 59 cm</desc>
      </trkpt>
    </trkseg>
  </trk>
  <trk>
    <name>MAP_ITS_17_1729_2.1 - Lane 17</name>
    <trkseg>
      <trkpt lat="53.58265585173254" lon="10.055721944581192">
        <desc>Width: 56 cm</desc>
      </trkpt>
      <trkpt lat="53.58267283569048" lon="10.055742911599497">
        <desc>Width: 56 cm</desc>
      </trkpt>
      <trkpt lat="53.582688911613396" lon="10.055764913406342">
        <desc>Width: 56 cm</desc>
      </trkpt>
      <trkpt lat="53.58270289386189" lon="10.05578988419836">
        <desc>Width: 56 cm</desc>
      </trkpt>
      <trkpt lat="53.58271686677533" lon="10.055815912175781">
        <desc>Width: 56 cm</desc>
      </trkpt>
      <trkpt lat="53.58272984311372" lon="10.055842821677349">
        <desc>Width: 56 cm</desc>
      </trkpt>
      <trkpt lat="53.582742907983274" lon="10.055869884459478">
        <desc>Width: 56 cm</desc>
      </trkpt>
      <trkpt lat="53.58275589230688" lon="10.055895887848457">
        <desc>Width: 56 cm</desc>
      </trkpt>
      <trkpt lat="53.582769865196795" lon="10.055921915893325">
        <desc>Width: 56 cm</desc>
      </trkpt>
      <trkpt lat="53.582784835983944" lon="10.05594691142537">
        <desc>Width: 56 cm</desc>
      </trkpt>
    </trkseg>
  </trk>
</gpx>