<?xml version='1.0' encoding='utf-8'?>
<gpx version="1.1" creator="GPX Generator Script">
  <trk>
    <name>MAP_ITS_17_1729_2.1 - Lane 10</name>
    <trkseg>
      <trkpt lat="53.599791991091955" lon="9.99665591700472">
        <desc>Width: 88 cm</desc>
      </trkpt>
      <trkpt lat="53.59980287688116" lon="9.99665481320155">
        <desc>Width: 88 cm</desc>
      </trkpt>
      <trkpt lat="53.59981287150487" lon="9.996652781714488">
        <desc>Width: 88 cm</desc>
      </trkpt>
      <trkpt lat="53.5998229547417" lon="9.996650903430023">
        <desc>Width: 88 cm</desc>
      </trkpt>
      <trkpt lat="53.59983294936529" lon="9.996648871941138">
        <desc>Width: 88 cm</desc>
      </trkpt>
      <trkpt lat="53.59984294398886" lon="9.99664684045132">
        <desc>Width: 88 cm</desc>
      </trkpt>
      <trkpt lat="53.599853936008806" lon="9.996643774615636">
        <desc>Width: 88 cm</desc>
      </trkpt>
      <trkpt lat="53.59986392937387" lon="9.996641894211754">
        <desc>Width: 88 cm</desc>
      </trkpt>
      <trkpt lat="53.59987392399726" lon="9.996639862718895">
        <desc>Width: 88 cm</desc>
      </trkpt>
      <trkpt lat="53.59988390981182" lon="9.996638888842185">
        <desc>Width: 88 cm</desc>
      </trkpt>
    </trkseg>
  </trk>
  <trk>
    <name>MAP_ITS_17_1729_2.1 - Lane 11</name>
    <trkseg>
      <trkpt lat="53.60007695117848" lon="9.996794853750425">
        <desc>Width: 75 cm</desc>
      </trkpt>
      <trkpt lat="53.60006692182169" lon="9.996811845122826">
        <desc>Width: 75 cm</desc>
      </trkpt>
      <trkpt lat="53.6000589008334" lon="9.996792766475016">
        <desc>Width: 75 cm</desc>
      </trkpt>
      <trkpt lat="53.600053878327444" lon="9.996769829350509">
        <desc>Width: 75 cm</desc>
      </trkpt>
      <trkpt lat="53.60005093167345" lon="9.996745883273867">
        <desc>Width: 75 cm</desc>
      </trkpt>
      <trkpt lat="53.60004889254015" lon="9.996720900736927">
        <desc>Width: 75 cm</desc>
      </trkpt>
      <trkpt lat="53.60004594713482" lon="9.99669680357766">
        <desc>Width: 75 cm</desc>
      </trkpt>
      <trkpt lat="53.60004389918211" lon="9.996672878666956">
        <desc>Width: 75 cm</desc>
      </trkpt>
      <trkpt lat="53.600042939751084" lon="9.996647770435986">
        <desc>Width: 75 cm</desc>
      </trkpt>
      <trkpt lat="53.60004089178855" lon="9.99662384552923">
        <desc>Width: 75 cm</desc>
      </trkpt>
    </trkseg>
  </trk>
  <trk>
    <name>MAP_ITS_17_1729_2.1 - Lane 12</name>
    <trkseg>
      <trkpt lat="53.5999399054586" lon="9.99657477289403">
        <desc>Width: 85 cm</desc>
      </trkpt>
      <trkpt lat="53.59996492751252" lon="9.996570828333013">
        <desc>Width: 85 cm</desc>
      </trkpt>
      <trkpt lat="53.599990946961974" lon="9.996565849417431">
        <desc>Width: 85 cm</desc>
      </trkpt>
      <trkpt lat="53.60001588795197" lon="9.996560845110954">
        <desc>Width: 85 cm</desc>
      </trkpt>
      <trkpt lat="53.600041899851036" lon="9.996556772715966">
        <desc>Width: 85 cm</desc>
      </trkpt>
      <trkpt lat="53.60006692190403" lon="9.996552828135576">
        <desc>Width: 85 cm</desc>
      </trkpt>
      <trkpt lat="53.6000919439568" lon="9.996548883550705">
        <desc>Width: 85 cm</desc>
      </trkpt>
      <trkpt lat="53.600117947047195" lon="9.9965458687646">
        <desc>Width: 85 cm</desc>
      </trkpt>
      <trkpt lat="53.600142880486246" lon="9.996541770966783">
        <desc>Width: 85 cm</desc>
      </trkpt>
      <trkpt lat="53.600168882318" lon="9.99653890726225">
        <desc>Width: 85 cm</desc>
      </trkpt>
    </trkseg>
  </trk>
  <trk>
    <name>MAP_ITS_17_1729_2.1 - Lane 13</name>
    <trkseg>
      <trkpt lat="53.600157908056325" lon="9.996593807297273">
        <desc>Width: 89 cm</desc>
      </trkpt>
      <trkpt lat="53.60013287719394" lon="9.996598809484524">
        <desc>Width: 89 cm</desc>
      </trkpt>
      <trkpt lat="53.600107943753045" lon="9.996602907247834">
        <desc>Width: 89 cm</desc>
      </trkpt>
      <trkpt lat="53.60008293050725" lon="9.996605794180063">
        <desc>Width: 89 cm</desc>
      </trkpt>
      <trkpt lat="53.60005790719434" lon="9.996609889819279">
        <desc>Width: 89 cm</desc>
      </trkpt>
      <trkpt lat="53.6000328939482" lon="9.996612776744348">
        <desc>Width: 89 cm</desc>
      </trkpt>
      <trkpt lat="53.600007870634904" lon="9.99661687237497">
        <desc>Width: 89 cm</desc>
      </trkpt>
      <trkpt lat="53.59998292964268" lon="9.996621876647524">
        <desc>Width: 89 cm</desc>
      </trkpt>
      <trkpt lat="53.59995789877858" lon="9.996626878798816">
        <desc>Width: 89 cm</desc>
      </trkpt>
      <trkpt lat="53.599932950235434" lon="9.996632789589915">
        <desc>Width: 89 cm</desc>
      </trkpt>
    </trkseg>
  </trk>
  <trk>
    <name>MAP_ITS_17_1729_2.1 - Lane 14</name>
    <trkseg>
      <trkpt lat="53.59989989226502" lon="9.99659785878181">
        <desc>Width: 86 cm</desc>
      </trkpt>
      <trkpt lat="53.599888885875586" lon="9.996591857226727">
        <desc>Width: 86 cm</desc>
      </trkpt>
      <trkpt lat="53.59987787067747" lon="9.99658691329174">
        <desc>Width: 86 cm</desc>
      </trkpt>
      <trkpt lat="53.59986691263408" lon="9.996585899765293">
        <desc>Width: 86 cm</desc>
      </trkpt>
      <trkpt lat="53.599854949644666" lon="9.996586827114099">
        <desc>Width: 86 cm</desc>
      </trkpt>
      <trkpt lat="53.59984386775451" lon="9.996589890849192">
        <desc>Width: 86 cm</desc>
      </trkpt>
      <trkpt lat="53.59983287699421" lon="9.996592805610216">
        <desc>Width: 86 cm</desc>
      </trkpt>
      <trkpt lat="53.599820896387875" lon="9.99659584818748">
        <desc>Width: 86 cm</desc>
      </trkpt>
      <trkpt lat="53.599809913177495" lon="9.9965978564181">
        <desc>Width: 86 cm</desc>
      </trkpt>
      <trkpt lat="53.599797941379464" lon="9.996599841377428">
        <desc>Width: 86 cm</desc>
      </trkpt>
    </trkseg>
  </trk>
</gpx>