<?xml version='1.0' encoding='utf-8'?>
<gpx version="1.1" creator="GPX Generator Script">
  <trk>
    <name>MAP_ITS_17_1729_2.1 - Lane 10</name>
    <trkseg>
      <trkpt lat="53.57331495276794" lon="9.893587862519361">
        <desc>Width: 34 cm</desc>
      </trkpt>
      <trkpt lat="53.573337903458984" lon="9.893547872599246">
        <desc>Width: 34 cm</desc>
      </trkpt>
      <trkpt lat="53.573360944011434" lon="9.893507884530644">
        <desc>Width: 34 cm</desc>
      </trkpt>
      <trkpt lat="53.57338291282113" lon="9.893466967692557">
        <desc>Width: 34 cm</desc>
      </trkpt>
      <trkpt lat="53.573404897404906" lon="9.893423936836717">
        <desc>Width: 34 cm</desc>
      </trkpt>
      <trkpt lat="53.5734258933519" lon="9.893380885095878">
        <desc>Width: 34 cm</desc>
      </trkpt>
      <trkpt lat="53.573446888155914" lon="9.893337984310712">
        <desc>Width: 34 cm</desc>
      </trkpt>
      <trkpt lat="53.57346797394687" lon="9.89329493437891">
        <desc>Width: 34 cm</desc>
      </trkpt>
      <trkpt lat="53.57348896984776" lon="9.89325188250991">
        <desc>Width: 34 cm</desc>
      </trkpt>
      <trkpt lat="53.57351095435465" lon="9.893208851434549">
        <desc>Width: 34 cm</desc>
      </trkpt>
    </trkseg>
  </trk>
  <trk>
    <name>MAP_ITS_17_1729_2.1 - Lane 11</name>
    <trkseg>
      <trkpt lat="53.573523511361024" lon="9.893236602170544">
        <desc>Width: 35 cm</desc>
      </trkpt>
      <trkpt lat="53.57351391489109" lon="9.893281857648564">
        <desc>Width: 35 cm</desc>
      </trkpt>
      <trkpt lat="53.57349290432083" lon="9.893326872508986">
        <desc>Width: 35 cm</desc>
      </trkpt>
      <trkpt lat="53.573471893733746" lon="9.893371887324701">
        <desc>Width: 35 cm</desc>
      </trkpt>
      <trkpt lat="53.57345097300448" lon="9.893416903990358">
        <desc>Width: 35 cm</desc>
      </trkpt>
      <trkpt lat="53.57342897376237" lon="9.89346189787455">
        <desc>Width: 35 cm</desc>
      </trkpt>
      <trkpt lat="53.57340689139566" lon="9.893505983827689">
        <desc>Width: 35 cm</desc>
      </trkpt>
      <trkpt lat="53.573384907910416" lon="9.893548863644481">
        <desc>Width: 35 cm</desc>
      </trkpt>
      <trkpt lat="53.57336095280683" lon="9.893590946736028">
        <desc>Width: 35 cm</desc>
      </trkpt>
      <trkpt lat="53.57333691570969" lon="9.893631970898989">
        <desc>Width: 35 cm</desc>
      </trkpt>
    </trkseg>
  </trk>
  <trk>
    <name>MAP_ITS_17_1729_2.1 - Lane 12</name>
    <trkseg>
      <trkpt lat="53.57344297329516" lon="9.893115899238685">
        <desc>Width: 36 cm</desc>
      </trkpt>
      <trkpt lat="53.573421940554745" lon="9.893151852314585">
        <desc>Width: 36 cm</desc>
      </trkpt>
      <trkpt lat="53.57340189529763" lon="9.893187977188814">
        <desc>Width: 36 cm</desc>
      </trkpt>
      <trkpt lat="53.57338193426707" lon="9.893224858913905">
        <desc>Width: 36 cm</desc>
      </trkpt>
      <trkpt lat="53.573361972097686" lon="9.89326189160232">
        <desc>Width: 36 cm</desc>
      </trkpt>
      <trkpt lat="53.57334192004226" lon="9.893298922361431">
        <desc>Width: 36 cm</desc>
      </trkpt>
      <trkpt lat="53.57332195785012" lon="9.893335954979948">
        <desc>Width: 36 cm</desc>
      </trkpt>
      <trkpt lat="53.57330191366541" lon="9.893371928683907">
        <desc>Width: 36 cm</desc>
      </trkpt>
      <trkpt lat="53.573280887614686" lon="9.893406975526227">
        <desc>Width: 36 cm</desc>
      </trkpt>
      <trkpt lat="53.57325897070116" lon="9.89344094640285">
        <desc>Width: 36 cm</desc>
      </trkpt>
    </trkseg>
  </trk>
  <trk>
    <name>MAP_ITS_17_1729_2.1 - Lane 13</name>
    <trkseg>
      <trkpt lat="53.573117440609884" lon="9.89421692902131">
        <desc>Width: 60 cm</desc>
      </trkpt>
      <trkpt lat="53.573125169830256" lon="9.89421709210528">
        <desc>Width: 60 cm</desc>
      </trkpt>
      <trkpt lat="53.573130831933526" lon="9.894217211573816">
        <desc>Width: 60 cm</desc>
      </trkpt>
      <trkpt lat="53.57313442691974" lon="9.894217287426876">
        <desc>Width: 60 cm</desc>
      </trkpt>
      <trkpt lat="53.5731381117806" lon="9.89421736517628">
        <desc>Width: 60 cm</desc>
      </trkpt>
      <trkpt lat="53.57314194224316" lon="9.894197964278286">
        <desc>Width: 60 cm</desc>
      </trkpt>
      <trkpt lat="53.57314694529268" lon="9.894153971677794">
        <desc>Width: 60 cm</desc>
      </trkpt>
      <trkpt lat="53.57315491531831" lon="9.894109890640738">
        <desc>Width: 60 cm</desc>
      </trkpt>
      <trkpt lat="53.573166907117" lon="9.894068914854516">
        <desc>Width: 60 cm</desc>
      </trkpt>
      <trkpt lat="53.57318095134878" lon="9.894029945617708">
        <desc>Width: 60 cm</desc>
      </trkpt>
    </trkseg>
  </trk>
  <trk>
    <name>MAP_ITS_17_1729_2.1 - Lane 14</name>
    <trkseg>
      <trkpt lat="53.57341095741902" lon="9.893081848671025">
        <desc>Width: 34 cm</desc>
      </trkpt>
      <trkpt lat="53.57339395439408" lon="9.893119849944284">
        <desc>Width: 34 cm</desc>
      </trkpt>
      <trkpt lat="53.57337489100377" lon="9.89315690163392">
        <desc>Width: 34 cm</desc>
      </trkpt>
      <trkpt lat="53.573355925368695" lon="9.893192898197867">
        <desc>Width: 34 cm</desc>
      </trkpt>
      <trkpt lat="53.57333695972285" lon="9.893228894729566">
        <desc>Width: 34 cm</desc>
      </trkpt>
      <trkpt lat="53.573316930227726" lon="9.893262905524102">
        <desc>Width: 34 cm</desc>
      </trkpt>
      <trkpt lat="53.57329690072299" lon="9.893296916286488">
        <desc>Width: 34 cm</desc>
      </trkpt>
      <trkpt lat="53.57327597246191" lon="9.893330908072157">
        <desc>Width: 34 cm</desc>
      </trkpt>
      <trkpt lat="53.57325594293796" lon="9.893364918769535">
        <desc>Width: 34 cm</desc>
      </trkpt>
      <trkpt lat="53.57323591340442" lon="9.893398929434762">
        <desc>Width: 34 cm</desc>
      </trkpt>
    </trkseg>
  </trk>
</gpx>