<?xml version='1.0' encoding='utf-8'?>
<gpx version="1.1" creator="GPX Generator Script">
  <trk>
    <name>MAP_ITS_17_1729_2.1 - Lane 10</name>
    <trkseg>
      <trkpt lat="53.599467181325075" lon="10.01340204823617">
        <desc>Width: 21 cm</desc>
      </trkpt>
      <trkpt lat="53.59949090730653" lon="10.0134026161315">
        <desc>Width: 21 cm</desc>
      </trkpt>
      <trkpt lat="53.599515801612746" lon="10.013403211992244">
        <desc>Width: 21 cm</desc>
      </trkpt>
      <trkpt lat="53.59954069591884" lon="10.013403807853882">
        <desc>Width: 21 cm</desc>
      </trkpt>
      <trkpt lat="53.59956568009597" lon="10.01340440586754">
        <desc>Width: 21 cm</desc>
      </trkpt>
      <trkpt lat="53.59958958581931" lon="10.013404978068497">
        <desc>Width: 21 cm</desc>
      </trkpt>
      <trkpt lat="53.59961448012509" lon="10.013405573932776">
        <desc>Width: 21 cm</desc>
      </trkpt>
      <trkpt lat="53.59963937443076" lon="10.013406169797946">
        <desc>Width: 21 cm</desc>
      </trkpt>
      <trkpt lat="53.599662201700106" lon="10.013406716187731">
        <desc>Width: 21 cm</desc>
      </trkpt>
      <trkpt lat="53.59968502896939" lon="10.013407262578264">
        <desc>Width: 21 cm</desc>
      </trkpt>
    </trkseg>
  </trk>
  <trk>
    <name>MAP_ITS_17_1729_2.1 - Lane 11</name>
    <trkseg>
      <trkpt lat="53.60020936745117" lon="10.013182707312023">
        <desc>Width: 23 cm</desc>
      </trkpt>
      <trkpt lat="53.600210365242795" lon="10.013064858240297">
        <desc>Width: 23 cm</desc>
      </trkpt>
      <trkpt lat="53.600211362918394" lon="10.012947009161502">
        <desc>Width: 23 cm</desc>
      </trkpt>
      <trkpt lat="53.60021234768945" lon="10.012830670961405">
        <desc>Width: 23 cm</desc>
      </trkpt>
      <trkpt lat="53.60021329270754" lon="10.012719016500547">
        <desc>Width: 23 cm</desc>
      </trkpt>
      <trkpt lat="53.600214171135676" lon="10.012615218640182">
        <desc>Width: 23 cm</desc>
      </trkpt>
      <trkpt lat="53.600215007284916" lon="10.012516406698147">
        <desc>Width: 23 cm</desc>
      </trkpt>
      <trkpt lat="53.60021579477597" lon="10.012423336118234">
        <desc>Width: 23 cm</desc>
      </trkpt>
      <trkpt lat="53.60021655663024" lon="10.012333287306204">
        <desc>Width: 23 cm</desc>
      </trkpt>
      <trkpt lat="53.6002173107481" lon="10.012244145021777">
        <desc>Width: 23 cm</desc>
      </trkpt>
    </trkseg>
  </trk>
  <trk>
    <name>MAP_ITS_17_1729_2.1 - Lane 12</name>
    <trkseg>
      <trkpt lat="53.5999748875686" lon="10.013230894128487">
        <desc>Width: 21 cm</desc>
      </trkpt>
      <trkpt lat="53.599958854986596" lon="10.013117927326624">
        <desc>Width: 21 cm</desc>
      </trkpt>
      <trkpt lat="53.59994390970469" lon="10.01300392879948">
        <desc>Width: 21 cm</desc>
      </trkpt>
      <trkpt lat="53.599929864304194" lon="10.012889800764572">
        <desc>Width: 21 cm</desc>
      </trkpt>
      <trkpt lat="53.59991690492095" lon="10.012774792076756">
        <desc>Width: 21 cm</desc>
      </trkpt>
      <trkpt lat="53.59990592259224" lon="10.012659830748637">
        <desc>Width: 21 cm</desc>
      </trkpt>
      <trkpt lat="53.59989485028163" lon="10.012544867329426">
        <desc>Width: 21 cm</desc>
      </trkpt>
      <trkpt lat="53.59988486526258" lon="10.012428872145998">
        <desc>Width: 21 cm</desc>
      </trkpt>
      <trkpt lat="53.59987684962735" lon="10.012313830814696">
        <desc>Width: 21 cm</desc>
      </trkpt>
      <trkpt lat="53.599868931420744" lon="10.012197885149847">
        <desc>Width: 21 cm</desc>
      </trkpt>
    </trkseg>
  </trk>
  <trk>
    <name>MAP_ITS_17_1729_2.1 - Lane 13</name>
    <trkseg>
      <trkpt lat="53.60020919986196" lon="10.013202499911838">
        <desc>Width: 19 cm</desc>
      </trkpt>
      <trkpt lat="53.60021026674802" lon="10.013076492059229">
        <desc>Width: 19 cm</desc>
      </trkpt>
      <trkpt lat="53.60021132710641" lon="10.012951239641376">
        <desc>Width: 19 cm</desc>
      </trkpt>
      <trkpt lat="53.6002123387375" lon="10.012831728581435">
        <desc>Width: 19 cm</desc>
      </trkpt>
      <trkpt lat="53.60021327736302" lon="10.012720829563563">
        <desc>Width: 19 cm</desc>
      </trkpt>
      <trkpt lat="53.60021414939981" lon="10.012617787146253">
        <desc>Width: 19 cm</desc>
      </trkpt>
      <trkpt lat="53.600214962538935" lon="10.012521694799146">
        <desc>Width: 19 cm</desc>
      </trkpt>
      <trkpt lat="53.60021576793088" lon="10.012426508978987">
        <desc>Width: 19 cm</desc>
      </trkpt>
      <trkpt lat="53.60021657324711" lon="10.012331323154218">
        <desc>Width: 19 cm</desc>
      </trkpt>
      <trkpt lat="53.600217411718155" lon="10.012232209020675">
        <desc>Width: 19 cm</desc>
      </trkpt>
    </trkseg>
  </trk>
  <trk>
    <name>MAP_ITS_17_1729_2.1 - Lane 14</name>
    <trkseg>
      <trkpt lat="53.59980891920592" lon="10.01219388141058">
        <desc>Width: 22 cm</desc>
      </trkpt>
      <trkpt lat="53.59981592975828" lon="10.012310863032274">
        <desc>Width: 22 cm</desc>
      </trkpt>
      <trkpt lat="53.599825914892826" lon="10.012426858000282">
        <desc>Width: 22 cm</desc>
      </trkpt>
      <trkpt lat="53.59983788602955" lon="10.012541842695892">
        <desc>Width: 22 cm</desc>
      </trkpt>
      <trkpt lat="53.59985192409206" lon="10.01265687689514">
        <desc>Width: 22 cm</desc>
      </trkpt>
      <trkpt lat="53.599864875917135" lon="10.012772791895593">
        <desc>Width: 22 cm</desc>
      </trkpt>
      <trkpt lat="53.59987486827619" lon="10.012887880576741">
        <desc>Width: 22 cm</desc>
      </trkpt>
      <trkpt lat="53.59988187814863" lon="10.01300486248687">
        <desc>Width: 22 cm</desc>
      </trkpt>
      <trkpt lat="53.599882865260675" lon="10.013121851434452">
        <desc>Width: 22 cm</desc>
      </trkpt>
      <trkpt lat="53.59987989664877" lon="10.01323889683803">
        <desc>Width: 22 cm</desc>
      </trkpt>
    </trkseg>
  </trk>
  <trk>
    <name>MAP_ITS_17_1729_2.1 - Lane 15</name>
    <trkseg>
      <trkpt lat="53.599471585011024" lon="10.013402153640923">
        <desc>Width: 17 cm</desc>
      </trkpt>
      <trkpt lat="53.59949441228107" lon="10.013402700025198">
        <desc>Width: 17 cm</desc>
      </trkpt>
      <trkpt lat="53.5995183180047" lon="10.013403272223707">
        <desc>Width: 17 cm</desc>
      </trkpt>
      <trkpt lat="53.59954222372824" lon="10.013403844423037">
        <desc>Width: 17 cm</desc>
      </trkpt>
      <trkpt lat="53.599566219322824" lon="10.01340441877432">
        <desc>Width: 17 cm</desc>
      </trkpt>
      <trkpt lat="53.599590125046156" lon="10.013404990975296">
        <desc>Width: 17 cm</desc>
      </trkpt>
      <trkpt lat="53.59961403076938" lon="10.013405563177095">
        <desc>Width: 17 cm</desc>
      </trkpt>
      <trkpt lat="53.59963793649251" lon="10.013406135379716">
        <desc>Width: 17 cm</desc>
      </trkpt>
      <trkpt lat="53.59966085363303" lon="10.013406683920595">
        <desc>Width: 17 cm</desc>
      </trkpt>
      <trkpt lat="53.5996836809023" lon="10.013407230311085">
        <desc>Width: 17 cm</desc>
      </trkpt>
    </trkseg>
  </trk>
  <trk>
    <name>MAP_ITS_17_1729_2.1 - Lane 16</name>
    <trkseg>
      <trkpt lat="53.60002213560059" lon="10.013415331606062">
        <desc>Width: 25 cm</desc>
      </trkpt>
      <trkpt lat="53.60007830505866" lon="10.01341667610139">
        <desc>Width: 25 cm</desc>
      </trkpt>
      <trkpt lat="53.60012755443904" lon="10.013417854958627">
        <desc>Width: 25 cm</desc>
      </trkpt>
      <trkpt lat="53.60016583954101" lon="10.013418771371956">
        <desc>Width: 25 cm</desc>
      </trkpt>
      <trkpt lat="53.600194148947246" lon="10.013419449002887">
        <desc>Width: 25 cm</desc>
      </trkpt>
      <trkpt lat="53.60020736000344" lon="10.01341976523105">
        <desc>Width: 25 cm</desc>
      </trkpt>
      <trkpt lat="53.60020736000344" lon="10.01341976523105">
        <desc>Width: 25 cm</desc>
      </trkpt>
      <trkpt lat="53.60020736000344" lon="10.01341976523105">
        <desc>Width: 25 cm</desc>
      </trkpt>
      <trkpt lat="53.60020736000344" lon="10.01341976523105">
        <desc>Width: 25 cm</desc>
      </trkpt>
      <trkpt lat="53.60020736000344" lon="10.01341976523105">
        <desc>Width: 25 cm</desc>
      </trkpt>
    </trkseg>
  </trk>
  <trk>
    <name>MAP_ITS_17_1729_2.1 - Lane 17</name>
    <trkseg>
      <trkpt lat="53.60020736000344" lon="10.01341976523105">
        <desc>Width: 28 cm</desc>
      </trkpt>
      <trkpt lat="53.60020736000344" lon="10.01341976523105">
        <desc>Width: 28 cm</desc>
      </trkpt>
      <trkpt lat="53.60020736000344" lon="10.01341976523105">
        <desc>Width: 28 cm</desc>
      </trkpt>
      <trkpt lat="53.60020736000344" lon="10.01341976523105">
        <desc>Width: 28 cm</desc>
      </trkpt>
      <trkpt lat="53.60020736000344" lon="10.01341976523105">
        <desc>Width: 28 cm</desc>
      </trkpt>
      <trkpt lat="53.60020736000344" lon="10.01341976523105">
        <desc>Width: 28 cm</desc>
      </trkpt>
      <trkpt lat="53.60020736000344" lon="10.01341976523105">
        <desc>Width: 28 cm</desc>
      </trkpt>
      <trkpt lat="53.60020736000344" lon="10.01341976523105">
        <desc>Width: 28 cm</desc>
      </trkpt>
      <trkpt lat="53.6002073945524" lon="10.013415685840716">
        <desc>Width: 28 cm</desc>
      </trkpt>
      <trkpt lat="53.6002075877681" lon="10.013392871472393">
        <desc>Width: 28 cm</desc>
      </trkpt>
    </trkseg>
  </trk>
  <trk>
    <name>MAP_ITS_17_1729_2.1 - Lane 18</name>
    <trkseg>
      <trkpt lat="53.59984958302193" lon="10.013411201344804">
        <desc>Width: 31 cm</desc>
      </trkpt>
      <trkpt lat="53.59986881544502" lon="10.013411661694718">
        <desc>Width: 31 cm</desc>
      </trkpt>
      <trkpt lat="53.59988912632166" lon="10.013412147859224">
        <desc>Width: 31 cm</desc>
      </trkpt>
      <trkpt lat="53.59991141436323" lon="10.013412681350163">
        <desc>Width: 31 cm</desc>
      </trkpt>
      <trkpt lat="53.59993361253354" lon="10.013413212690638">
        <desc>Width: 31 cm</desc>
      </trkpt>
      <trkpt lat="53.599956889157404" lon="10.013413769845988">
        <desc>Width: 31 cm</desc>
      </trkpt>
      <trkpt lat="53.59998115436364" lon="10.013414350665133">
        <desc>Width: 31 cm</desc>
      </trkpt>
      <trkpt lat="53.60000443098729" lon="10.013414907822074">
        <desc>Width: 31 cm</desc>
      </trkpt>
      <trkpt lat="53.600027707610856" lon="10.013415464979795">
        <desc>Width: 31 cm</desc>
      </trkpt>
      <trkpt lat="53.60004999565187" lon="10.013415998475176">
        <desc>Width: 31 cm</desc>
      </trkpt>
    </trkseg>
  </trk>
  <trk>
    <name>MAP_ITS_17_1729_2.1 - Lane 19</name>
    <trkseg>
      <trkpt lat="53.599700931120914" lon="10.01218691730956">
        <desc>Width: 25 cm</desc>
      </trkpt>
      <trkpt lat="53.59969792252371" lon="10.012308797064279">
        <desc>Width: 25 cm</desc>
      </trkpt>
      <trkpt lat="53.5996988668554" lon="10.012430922446063">
        <desc>Width: 25 cm</desc>
      </trkpt>
      <trkpt lat="53.59970691344118" lon="10.012552915455474">
        <desc>Width: 25 cm</desc>
      </trkpt>
      <trkpt lat="53.59971884226323" lon="10.012672885726666">
        <desc>Width: 25 cm</desc>
      </trkpt>
      <trkpt lat="53.599732927872374" lon="10.012792907660216">
        <desc>Width: 25 cm</desc>
      </trkpt>
      <trkpt lat="53.59974692348957" lon="10.012912927522018">
        <desc>Width: 25 cm</desc>
      </trkpt>
      <trkpt lat="53.599759930403366" lon="10.013032923807739">
        <desc>Width: 25 cm</desc>
      </trkpt>
      <trkpt lat="53.59976788650285" lon="10.013154914949046">
        <desc>Width: 25 cm</desc>
      </trkpt>
      <trkpt lat="53.599772876730114" lon="10.013276835155708">
        <desc>Width: 25 cm</desc>
      </trkpt>
    </trkseg>
  </trk>
  <trk>
    <name>MAP_ITS_17_1729_2.1 - Lane 20</name>
    <trkseg>
      <trkpt lat="53.59946700158279" lon="10.013402043933935">
        <desc>Width: 23 cm</desc>
      </trkpt>
      <trkpt lat="53.59949090730653" lon="10.0134026161315">
        <desc>Width: 23 cm</desc>
      </trkpt>
      <trkpt lat="53.599515801612746" lon="10.013403211992244">
        <desc>Width: 23 cm</desc>
      </trkpt>
      <trkpt lat="53.599539797207434" lon="10.013403786342614">
        <desc>Width: 23 cm</desc>
      </trkpt>
      <trkpt lat="53.59956370293087" lon="10.013404358542685">
        <desc>Width: 23 cm</desc>
      </trkpt>
      <trkpt lat="53.59958868710791" lon="10.013404956557169">
        <desc>Width: 23 cm</desc>
      </trkpt>
      <trkpt lat="53.59961259283115" lon="10.013405528758918">
        <desc>Width: 23 cm</desc>
      </trkpt>
      <trkpt lat="53.59963658842543" lon="10.01340610311263">
        <desc>Width: 23 cm</desc>
      </trkpt>
      <trkpt lat="53.599660494148466" lon="10.013406675316027">
        <desc>Width: 23 cm</desc>
      </trkpt>
      <trkpt lat="53.59968439987141" lon="10.013407247520247">
        <desc>Width: 23 cm</desc>
      </trkpt>
    </trkseg>
  </trk>
  <trk>
    <name>MAP_ITS_17_1729_2.1 - Lane 21</name>
    <trkseg>
      <trkpt lat="53.59970785033178" lon="10.012197812060208">
        <desc>Width: 17 cm</desc>
      </trkpt>
      <trkpt lat="53.59972790242664" lon="10.01231389628837">
        <desc>Width: 17 cm</desc>
      </trkpt>
      <trkpt lat="53.59974588737151" lon="10.012429931196404">
        <desc>Width: 17 cm</desc>
      </trkpt>
      <trkpt lat="53.59975990125196" lon="10.01254783576211">
        <desc>Width: 17 cm</desc>
      </trkpt>
      <trkpt lat="53.59977184670057" lon="10.012665842051122">
        <desc>Width: 17 cm</desc>
      </trkpt>
      <trkpt lat="53.59978189578675" lon="10.012784860868125">
        <desc>Width: 17 cm</desc>
      </trkpt>
      <trkpt lat="53.59979284346576" lon="10.01290390124097">
        <desc>Width: 17 cm</desc>
      </trkpt>
      <trkpt lat="53.59980388217629" lon="10.013022792737098">
        <desc>Width: 17 cm</desc>
      </trkpt>
      <trkpt lat="53.59981690560895" lon="10.01314082508384">
        <desc>Width: 17 cm</desc>
      </trkpt>
      <trkpt lat="53.59983290362815" lon="10.0132578708691">
        <desc>Width: 17 cm</desc>
      </trkpt>
    </trkseg>
  </trk>
  <trk>
    <name>MAP_ITS_17_1729_2.1 - Lane 22</name>
    <trkseg>
      <trkpt lat="53.60014633750554" lon="10.01341830456021">
        <desc>Width: 19 cm</desc>
      </trkpt>
      <trkpt lat="53.60020736000344" lon="10.01341976523105">
        <desc>Width: 19 cm</desc>
      </trkpt>
      <trkpt lat="53.60020736000344" lon="10.01341976523105">
        <desc>Width: 19 cm</desc>
      </trkpt>
      <trkpt lat="53.60020736000344" lon="10.01341976523105">
        <desc>Width: 19 cm</desc>
      </trkpt>
      <trkpt lat="53.60020736000344" lon="10.01341976523105">
        <desc>Width: 19 cm</desc>
      </trkpt>
      <trkpt lat="53.60020736000344" lon="10.01341976523105">
        <desc>Width: 19 cm</desc>
      </trkpt>
      <trkpt lat="53.60020736000344" lon="10.01341976523105">
        <desc>Width: 19 cm</desc>
      </trkpt>
      <trkpt lat="53.60020736000344" lon="10.01341976523105">
        <desc>Width: 19 cm</desc>
      </trkpt>
      <trkpt lat="53.60020736000344" lon="10.01341976523105">
        <desc>Width: 19 cm</desc>
      </trkpt>
      <trkpt lat="53.60020736000344" lon="10.01341976523105">
        <desc>Width: 19 cm</desc>
      </trkpt>
    </trkseg>
  </trk>
  <trk>
    <name>MAP_ITS_17_1729_2.1 - Lane 23</name>
    <trkseg>
      <trkpt lat="53.60020741502579" lon="10.013413268424218">
        <desc>Width: 20 cm</desc>
      </trkpt>
      <trkpt lat="53.60020745597242" lon="10.013408433591211">
        <desc>Width: 20 cm</desc>
      </trkpt>
      <trkpt lat="53.6002075225103" lon="10.013400576987552">
        <desc>Width: 20 cm</desc>
      </trkpt>
      <trkpt lat="53.60020760568191" lon="10.013390756232933">
        <desc>Width: 20 cm</desc>
      </trkpt>
      <trkpt lat="53.60020769780953" lon="10.01337987785853">
        <desc>Width: 20 cm</desc>
      </trkpt>
      <trkpt lat="53.60020780657002" lon="10.013367035333117">
        <desc>Width: 20 cm</desc>
      </trkpt>
      <trkpt lat="53.60020790637256" lon="10.013355250427367">
        <desc>Width: 20 cm</desc>
      </trkpt>
      <trkpt lat="53.600208006173936" lon="10.013343465521546">
        <desc>Width: 20 cm</desc>
      </trkpt>
      <trkpt lat="53.60020809062035" lon="10.013333493678104">
        <desc>Width: 20 cm</desc>
      </trkpt>
      <trkpt lat="53.60020817378645" lon="10.013323672923152">
        <desc>Width: 20 cm</desc>
      </trkpt>
    </trkseg>
  </trk>
  <trk>
    <name>MAP_ITS_17_1729_2.1 - Lane 24</name>
    <trkseg>
      <trkpt lat="53.600207452133695" lon="10.013408886856807">
        <desc>Width: 15 cm</desc>
      </trkpt>
      <trkpt lat="53.600207413746205" lon="10.013413419512748">
        <desc>Width: 15 cm</desc>
      </trkpt>
      <trkpt lat="53.60020740734828" lon="10.013414174955404">
        <desc>Width: 15 cm</desc>
      </trkpt>
      <trkpt lat="53.60020744445621" lon="10.013409793387995">
        <desc>Width: 15 cm</desc>
      </trkpt>
      <trkpt lat="53.60020752378987" lon="10.01340042589902">
        <desc>Width: 15 cm</desc>
      </trkpt>
      <trkpt lat="53.60020763639123" lon="10.01338713010814">
        <desc>Width: 15 cm</desc>
      </trkpt>
      <trkpt lat="53.60020776690459" lon="10.013371719077687">
        <desc>Width: 15 cm</desc>
      </trkpt>
      <trkpt lat="53.60020790509305" lon="10.013355401515902">
        <desc>Width: 15 cm</desc>
      </trkpt>
      <trkpt lat="53.60020804327928" lon="10.01333908395398">
        <desc>Width: 15 cm</desc>
      </trkpt>
      <trkpt lat="53.60020818146328" lon="10.013322766391923">
        <desc>Width: 15 cm</desc>
      </trkpt>
    </trkseg>
  </trk>
  <trk>
    <name>MAP_ITS_17_1729_2.1 - Lane 25</name>
    <trkseg>
      <trkpt lat="53.60020736000344" lon="10.01341976523105">
        <desc>Width: 25 cm</desc>
      </trkpt>
      <trkpt lat="53.60020736000344" lon="10.01341976523105">
        <desc>Width: 25 cm</desc>
      </trkpt>
      <trkpt lat="53.60020736000344" lon="10.01341976523105">
        <desc>Width: 25 cm</desc>
      </trkpt>
      <trkpt lat="53.60020736000344" lon="10.01341976523105">
        <desc>Width: 25 cm</desc>
      </trkpt>
      <trkpt lat="53.60020736000344" lon="10.01341976523105">
        <desc>Width: 25 cm</desc>
      </trkpt>
      <trkpt lat="53.60020736000344" lon="10.01341976523105">
        <desc>Width: 25 cm</desc>
      </trkpt>
      <trkpt lat="53.60020736000344" lon="10.01341976523105">
        <desc>Width: 25 cm</desc>
      </trkpt>
      <trkpt lat="53.60020736000344" lon="10.01341976523105">
        <desc>Width: 25 cm</desc>
      </trkpt>
      <trkpt lat="53.600195676756464" lon="10.013419485573479">
        <desc>Width: 25 cm</desc>
      </trkpt>
      <trkpt lat="53.60015981817524" lon="10.013418627241084">
        <desc>Width: 25 cm</desc>
      </trkpt>
    </trkseg>
  </trk>
  <trk>
    <name>MAP_ITS_17_1729_2.1 - Lane 26</name>
    <trkseg>
      <trkpt lat="53.60020921777241" lon="10.01320038467217">
        <desc>Width: 19 cm</desc>
      </trkpt>
      <trkpt lat="53.60020979344564" lon="10.013132394824574">
        <desc>Width: 19 cm</desc>
      </trkpt>
      <trkpt lat="53.60021037803425" lon="10.013063347354715">
        <desc>Width: 19 cm</desc>
      </trkpt>
      <trkpt lat="53.60021095362963" lon="10.012995357502374">
        <desc>Width: 19 cm</desc>
      </trkpt>
      <trkpt lat="53.60021152279151" lon="10.012928123090525">
        <desc>Width: 19 cm</desc>
      </trkpt>
      <trkpt lat="53.600212090636745" lon="10.012861039764951">
        <desc>Width: 19 cm</desc>
      </trkpt>
      <trkpt lat="53.60021263542588" lon="10.012796676031504">
        <desc>Width: 19 cm</desc>
      </trkpt>
      <trkpt lat="53.600213163556944" lon="10.012734276447535">
        <desc>Width: 19 cm</desc>
      </trkpt>
      <trkpt lat="53.60021365841053" lon="10.012675805164875">
        <desc>Width: 19 cm</desc>
      </trkpt>
      <trkpt lat="53.60021413661399" lon="10.012619298032178">
        <desc>Width: 19 cm</desc>
      </trkpt>
    </trkseg>
  </trk>
  <trk>
    <name>MAP_ITS_17_1729_2.1 - Lane 27</name>
    <trkseg>
      <trkpt lat="53.60013591245429" lon="10.013418055020512">
        <desc>Width: 17 cm</desc>
      </trkpt>
      <trkpt lat="53.60017489575183" lon="10.013410827718351">
        <desc>Width: 17 cm</desc>
      </trkpt>
      <trkpt lat="53.600207513553315" lon="10.013401634607275">
        <desc>Width: 17 cm</desc>
      </trkpt>
      <trkpt lat="53.600207589047656" lon="10.01339272038386">
        <desc>Width: 17 cm</desc>
      </trkpt>
      <trkpt lat="53.600207655584505" lon="10.01338486378014">
        <desc>Width: 17 cm</desc>
      </trkpt>
      <trkpt lat="53.60020771444358" lon="10.01337791370759">
        <desc>Width: 17 cm</desc>
      </trkpt>
      <trkpt lat="53.60020776562506" lon="10.013371870166221">
        <desc>Width: 17 cm</desc>
      </trkpt>
      <trkpt lat="53.60020780784954" lon="10.013366884244581">
        <desc>Width: 17 cm</desc>
      </trkpt>
      <trkpt lat="53.60020784879431" lon="10.013362049411459">
        <desc>Width: 17 cm</desc>
      </trkpt>
      <trkpt lat="53.600207874384694" lon="10.013359027640753">
        <desc>Width: 17 cm</desc>
      </trkpt>
    </trkseg>
  </trk>
  <trk>
    <name>MAP_ITS_17_1729_2.1 - Lane 28</name>
    <trkseg>
      <trkpt lat="53.599748929125454" lon="10.012197887440806">
        <desc>Width: 19 cm</desc>
      </trkpt>
      <trkpt lat="53.5997579002239" lon="10.01231688030226">
        <desc>Width: 19 cm</desc>
      </trkpt>
      <trkpt lat="53.59976885731781" lon="10.012434862883527">
        <desc>Width: 19 cm</desc>
      </trkpt>
      <trkpt lat="53.599782869914556" lon="10.012552918601921">
        <desc>Width: 19 cm</desc>
      </trkpt>
      <trkpt lat="53.599797872255806" lon="10.012670846955407">
        <desc>Width: 19 cm</desc>
      </trkpt>
      <trkpt lat="53.599812882153124" lon="10.012787868868108">
        <desc>Width: 19 cm</desc>
      </trkpt>
      <trkpt lat="53.59982689440039" lon="10.012905924821748">
        <desc>Width: 19 cm</desc>
      </trkpt>
      <trkpt lat="53.59983991922725" lon="10.013023806111054">
        <desc>Width: 19 cm</desc>
      </trkpt>
      <trkpt lat="53.59984987808483" lon="10.013142823049355">
        <desc>Width: 19 cm</desc>
      </trkpt>
      <trkpt lat="53.599856869796746" lon="10.013261920151367">
        <desc>Width: 19 cm</desc>
      </trkpt>
    </trkseg>
  </trk>
  <trk>
    <name>MAP_ITS_17_1729_2.1 - Lane 29</name>
    <trkseg>
      <trkpt lat="53.60020784623527" lon="10.01336235158853">
        <desc>Width: 19 cm</desc>
      </trkpt>
      <trkpt lat="53.600207954993884" lon="10.013349509063001">
        <desc>Width: 19 cm</desc>
      </trkpt>
      <trkpt lat="53.60020806375112" lon="10.013336666537386">
        <desc>Width: 19 cm</desc>
      </trkpt>
      <trkpt lat="53.600208172506974" lon="10.013323824011689">
        <desc>Width: 19 cm</desc>
      </trkpt>
      <trkpt lat="53.60020828126146" lon="10.013310981485906">
        <desc>Width: 19 cm</desc>
      </trkpt>
      <trkpt lat="53.600208373381825" lon="10.013300103111062">
        <desc>Width: 19 cm</desc>
      </trkpt>
      <trkpt lat="53.600208465501204" lon="10.013289224736157">
        <desc>Width: 19 cm</desc>
      </trkpt>
      <trkpt lat="53.60020853970775" lon="10.01328046160077">
        <desc>Width: 19 cm</desc>
      </trkpt>
      <trkpt lat="53.60020859856077" lon="10.013273511527853">
        <desc>Width: 19 cm</desc>
      </trkpt>
      <trkpt lat="53.60020863950176" lon="10.013268676694503">
        <desc>Width: 19 cm</desc>
      </trkpt>
    </trkseg>
  </trk>
  <trk>
    <name>MAP_ITS_17_1729_2.1 - Lane 30</name>
    <trkseg>
      <trkpt lat="53.60020763767079" lon="10.013386979019606">
        <desc>Width: 18 cm</desc>
      </trkpt>
      <trkpt lat="53.60020770676633" lon="10.013378820238792">
        <desc>Width: 18 cm</desc>
      </trkpt>
      <trkpt lat="53.60020779377475" lon="10.013368546218462">
        <desc>Width: 18 cm</desc>
      </trkpt>
      <trkpt lat="53.60020790637256" lon="10.013355250427367">
        <desc>Width: 18 cm</desc>
      </trkpt>
      <trkpt lat="53.600208035602314" lon="10.0133399904852">
        <desc>Width: 18 cm</desc>
      </trkpt>
      <trkpt lat="53.60020817378645" lon="10.013323672923152">
        <desc>Width: 18 cm</desc>
      </trkpt>
      <trkpt lat="53.60020831964506" lon="10.013306448829729">
        <desc>Width: 18 cm</desc>
      </trkpt>
      <trkpt lat="53.600208465501204" lon="10.013289224736157">
        <desc>Width: 18 cm</desc>
      </trkpt>
      <trkpt lat="53.600208620310696" lon="10.01327094302264">
        <desc>Width: 18 cm</desc>
      </trkpt>
      <trkpt lat="53.60020876616172" lon="10.013253718928754">
        <desc>Width: 18 cm</desc>
      </trkpt>
    </trkseg>
  </trk>
  <trk>
    <name>MAP_ITS_17_1729_2.1 - Lane 31</name>
    <trkseg>
      <trkpt lat="53.59968790276571" lon="10.012196881815512">
        <desc>Width: 23 cm</desc>
      </trkpt>
      <trkpt lat="53.59969190410971" lon="10.012318929141063">
        <desc>Width: 23 cm</desc>
      </trkpt>
      <trkpt lat="53.59970085846997" lon="10.012439885994171">
        <desc>Width: 23 cm</desc>
      </trkpt>
      <trkpt lat="53.59971287727673" lon="10.01255985836716">
        <desc>Width: 23 cm</desc>
      </trkpt>
      <trkpt lat="53.59972787066165" lon="10.012678844135717">
        <desc>Width: 23 cm</desc>
      </trkpt>
      <trkpt lat="53.59974385251053" lon="10.012797853635494">
        <desc>Width: 23 cm</desc>
      </trkpt>
      <trkpt lat="53.59975992411174" lon="10.012916865373766">
        <desc>Width: 23 cm</desc>
      </trkpt>
      <trkpt lat="53.59977293102139" lon="10.013036861697543">
        <desc>Width: 23 cm</desc>
      </trkpt>
      <trkpt lat="53.59978287323665" lon="10.013157842581599">
        <desc>Width: 23 cm</desc>
      </trkpt>
      <trkpt lat="53.599788859719695" lon="10.013278879969194">
        <desc>Width: 23 cm</desc>
      </trkpt>
    </trkseg>
  </trk>
  <trk>
    <name>MAP_ITS_17_1729_2.1 - Lane 32</name>
    <trkseg>
      <trkpt lat="53.60014687673233" lon="10.013418317467439">
        <desc>Width: 26 cm</desc>
      </trkpt>
      <trkpt lat="53.60020736000344" lon="10.01341976523105">
        <desc>Width: 26 cm</desc>
      </trkpt>
      <trkpt lat="53.60020736000344" lon="10.01341976523105">
        <desc>Width: 26 cm</desc>
      </trkpt>
      <trkpt lat="53.60020736000344" lon="10.01341976523105">
        <desc>Width: 26 cm</desc>
      </trkpt>
      <trkpt lat="53.60020736000344" lon="10.01341976523105">
        <desc>Width: 26 cm</desc>
      </trkpt>
      <trkpt lat="53.60020736000344" lon="10.01341976523105">
        <desc>Width: 26 cm</desc>
      </trkpt>
      <trkpt lat="53.60020736000344" lon="10.01341976523105">
        <desc>Width: 26 cm</desc>
      </trkpt>
      <trkpt lat="53.60020736000344" lon="10.01341976523105">
        <desc>Width: 26 cm</desc>
      </trkpt>
      <trkpt lat="53.60020736000344" lon="10.01341976523105">
        <desc>Width: 26 cm</desc>
      </trkpt>
      <trkpt lat="53.60020736000344" lon="10.01341976523105">
        <desc>Width: 26 cm</desc>
      </trkpt>
    </trkseg>
  </trk>
  <trk>
    <name>MAP_ITS_17_1729_2.1 - Lane 33</name>
    <trkseg>
      <trkpt lat="53.60020736128303" lon="10.013419614142519">
        <desc>Width: 24 cm</desc>
      </trkpt>
      <trkpt lat="53.60020736000344" lon="10.01341976523105">
        <desc>Width: 24 cm</desc>
      </trkpt>
      <trkpt lat="53.60020736000344" lon="10.01341976523105">
        <desc>Width: 24 cm</desc>
      </trkpt>
      <trkpt lat="53.60020736000344" lon="10.01341976523105">
        <desc>Width: 24 cm</desc>
      </trkpt>
      <trkpt lat="53.60020736000344" lon="10.01341976523105">
        <desc>Width: 24 cm</desc>
      </trkpt>
      <trkpt lat="53.60020736000344" lon="10.01341976523105">
        <desc>Width: 24 cm</desc>
      </trkpt>
      <trkpt lat="53.60020736000344" lon="10.01341976523105">
        <desc>Width: 24 cm</desc>
      </trkpt>
      <trkpt lat="53.60020736000344" lon="10.01341976523105">
        <desc>Width: 24 cm</desc>
      </trkpt>
      <trkpt lat="53.60020736000344" lon="10.01341976523105">
        <desc>Width: 24 cm</desc>
      </trkpt>
      <trkpt lat="53.60020736000344" lon="10.01341976523105">
        <desc>Width: 24 cm</desc>
      </trkpt>
    </trkseg>
  </trk>
  <trk>
    <name>MAP_ITS_17_1729_2.1 - Lane 34</name>
    <trkseg>
      <trkpt lat="53.60014957286628" lon="10.013418382003593">
        <desc>Width: 21 cm</desc>
      </trkpt>
      <trkpt lat="53.60018534157644" lon="10.013419238184252">
        <desc>Width: 21 cm</desc>
      </trkpt>
      <trkpt lat="53.60020736000344" lon="10.01341976523105">
        <desc>Width: 21 cm</desc>
      </trkpt>
      <trkpt lat="53.60020736000344" lon="10.01341976523105">
        <desc>Width: 21 cm</desc>
      </trkpt>
      <trkpt lat="53.60020736000344" lon="10.01341976523105">
        <desc>Width: 21 cm</desc>
      </trkpt>
      <trkpt lat="53.60020736000344" lon="10.01341976523105">
        <desc>Width: 21 cm</desc>
      </trkpt>
      <trkpt lat="53.60020736000344" lon="10.01341976523105">
        <desc>Width: 21 cm</desc>
      </trkpt>
      <trkpt lat="53.60020736000344" lon="10.01341976523105">
        <desc>Width: 21 cm</desc>
      </trkpt>
      <trkpt lat="53.60020736000344" lon="10.01341976523105">
        <desc>Width: 21 cm</desc>
      </trkpt>
      <trkpt lat="53.60020736000344" lon="10.01341976523105">
        <desc>Width: 21 cm</desc>
      </trkpt>
    </trkseg>
  </trk>
  <trk>
    <name>MAP_ITS_17_1729_2.1 - Lane 35</name>
    <trkseg>
      <trkpt lat="53.59980990899421" lon="10.013032910710795">
        <desc>Width: 19 cm</desc>
      </trkpt>
      <trkpt lat="53.59980889945989" lon="10.012939798032889">
        <desc>Width: 19 cm</desc>
      </trkpt>
      <trkpt lat="53.59980491387416" lon="10.012847823106606">
        <desc>Width: 19 cm</desc>
      </trkpt>
      <trkpt lat="53.5997998497638" lon="10.012755822399466">
        <desc>Width: 19 cm</desc>
      </trkpt>
      <trkpt lat="53.5997919084269" lon="10.01266390401408">
        <desc>Width: 19 cm</desc>
      </trkpt>
      <trkpt lat="53.59978189998255" lon="10.012571936226529">
        <desc>Width: 19 cm</desc>
      </trkpt>
      <trkpt lat="53.59977188379689" lon="10.012480875003696">
        <desc>Width: 19 cm</desc>
      </trkpt>
      <trkpt lat="53.59976087895888" lon="10.012389790184166">
        <desc>Width: 19 cm</desc>
      </trkpt>
      <trkpt lat="53.59975086135599" lon="10.012298880134852">
        <desc>Width: 19 cm</desc>
      </trkpt>
      <trkpt lat="53.59973985637901" lon="10.012207795406123">
        <desc>Width: 19 cm</desc>
      </trkpt>
    </trkseg>
  </trk>
  <trk>
    <name>MAP_ITS_17_1729_2.1 - Lane 36</name>
    <trkseg>
      <trkpt lat="53.60020736000344" lon="10.01341976523105">
        <desc>Width: 30 cm</desc>
      </trkpt>
      <trkpt lat="53.60020736000344" lon="10.01341976523105">
        <desc>Width: 30 cm</desc>
      </trkpt>
      <trkpt lat="53.60020736000344" lon="10.01341976523105">
        <desc>Width: 30 cm</desc>
      </trkpt>
      <trkpt lat="53.60020736000344" lon="10.01341976523105">
        <desc>Width: 30 cm</desc>
      </trkpt>
      <trkpt lat="53.60020736000344" lon="10.01341976523105">
        <desc>Width: 30 cm</desc>
      </trkpt>
      <trkpt lat="53.60020736000344" lon="10.01341976523105">
        <desc>Width: 30 cm</desc>
      </trkpt>
      <trkpt lat="53.60020736000344" lon="10.01341976523105">
        <desc>Width: 30 cm</desc>
      </trkpt>
      <trkpt lat="53.60020736000344" lon="10.01341976523105">
        <desc>Width: 30 cm</desc>
      </trkpt>
      <trkpt lat="53.60019010474637" lon="10.0134193521984">
        <desc>Width: 30 cm</desc>
      </trkpt>
      <trkpt lat="53.60015226900022" lon="10.013418446539761">
        <desc>Width: 30 cm</desc>
      </trkpt>
    </trkseg>
  </trk>
  <trk>
    <name>MAP_ITS_17_1729_2.1 - Lane 37</name>
    <trkseg>
      <trkpt lat="53.60020744573579" lon="10.013409642299463">
        <desc>Width: 18 cm</desc>
      </trkpt>
      <trkpt lat="53.60020745341327" lon="10.013408735768275">
        <desc>Width: 18 cm</desc>
      </trkpt>
      <trkpt lat="53.6002074956393" lon="10.013403749846725">
        <desc>Width: 18 cm</desc>
      </trkpt>
      <trkpt lat="53.60020758009073" lon="10.01339377800359">
        <desc>Width: 18 cm</desc>
      </trkpt>
      <trkpt lat="53.60020768117545" lon="10.01338184200947">
        <desc>Width: 18 cm</desc>
      </trkpt>
      <trkpt lat="53.60020777458178" lon="10.013370812546482">
        <desc>Width: 18 cm</desc>
      </trkpt>
      <trkpt lat="53.600207850073836" lon="10.013361898322923">
        <desc>Width: 18 cm</desc>
      </trkpt>
      <trkpt lat="53.60020789229792" lon="10.013356912401257">
        <desc>Width: 18 cm</desc>
      </trkpt>
      <trkpt lat="53.60020785903047" lon="10.013360840703179">
        <desc>Width: 18 cm</desc>
      </trkpt>
      <trkpt lat="53.60020779121568" lon="10.013368848395531">
        <desc>Width: 18 cm</desc>
      </trkpt>
    </trkseg>
  </trk>
  <trk>
    <name>MAP_ITS_17_1729_2.1 - Lane 38</name>
    <trkseg>
      <trkpt lat="53.60014516918084" lon="10.013418276594546">
        <desc>Width: 31 cm</desc>
      </trkpt>
      <trkpt lat="53.60019495778742" lon="10.013419468363788">
        <desc>Width: 31 cm</desc>
      </trkpt>
      <trkpt lat="53.60020736000344" lon="10.01341976523105">
        <desc>Width: 31 cm</desc>
      </trkpt>
      <trkpt lat="53.60020736000344" lon="10.01341976523105">
        <desc>Width: 31 cm</desc>
      </trkpt>
      <trkpt lat="53.60020736000344" lon="10.01341976523105">
        <desc>Width: 31 cm</desc>
      </trkpt>
      <trkpt lat="53.60020736000344" lon="10.01341976523105">
        <desc>Width: 31 cm</desc>
      </trkpt>
      <trkpt lat="53.60020736000344" lon="10.01341976523105">
        <desc>Width: 31 cm</desc>
      </trkpt>
      <trkpt lat="53.60020736000344" lon="10.01341976523105">
        <desc>Width: 31 cm</desc>
      </trkpt>
      <trkpt lat="53.60020736000344" lon="10.01341976523105">
        <desc>Width: 31 cm</desc>
      </trkpt>
      <trkpt lat="53.60020736000344" lon="10.01341976523105">
        <desc>Width: 31 cm</desc>
      </trkpt>
    </trkseg>
  </trk>
</gpx>